{
"type": "FeatureCollection",
"name": "geo_47_中学校",
"crs": { "type": "name", "properties": { "name": "urn:ogc:def:crs:EPSG::6668" } },
"features": [
{ "type": "Feature", "properties": { "P29_001": "47328", "P29_002": "C147110000014", "P29_003": "16002", "P29_004": "琉球大学教育学部附属中学校", "P29_005": "沖縄県中頭郡西原町千原1", "P29_006": "1", "P29_007": "1", "P29_008": "00", "P29_009": null }, "geometry": { "type": "Point", "coordinates": [ 127.766689000323197, 26.244392004231692 ] } },
{ "type": "Feature", "properties": { "P29_001": "47201", "P29_002": "C147220100010", "P29_003": "16002", "P29_004": "那覇市立小禄中学校", "P29_005": "沖縄県那覇市宇栄原2-23-1", "P29_006": "3", "P29_007": "1", "P29_008": "00", "P29_009": null }, "geometry": { "type": "Point", "coordinates": [ 127.667731995765237, 26.188945541793355 ] } },
{ "type": "Feature", "properties": { "P29_001": "47201", "P29_002": "C147220100029", "P29_003": "16002", "P29_004": "那覇市立首里中学校", "P29_005": "沖縄県那覇市首里汀良町2-55", "P29_006": "3", "P29_007": "1", "P29_008": "00", "P29_009": null }, "geometry": { "type": "Point", "coordinates": [ 127.724440953756798, 26.219775155741775 ] } },
{ "type": "Feature", "properties": { "P29_001": "47201", "P29_002": "C147220100038", "P29_003": "16002", "P29_004": "那覇市立那覇中学校", "P29_005": "沖縄県那覇市松山2-24-1", "P29_006": "3", "P29_007": "1", "P29_008": "00", "P29_009": null }, "geometry": { "type": "Point", "coordinates": [ 127.679100110294598, 26.221054631653981 ] } },
{ "type": "Feature", "properties": { "P29_001": "47201", "P29_002": "C147220100047", "P29_003": "16002", "P29_004": "那覇市立真和志中学校", "P29_005": "沖縄県那覇市字大道158", "P29_006": "3", "P29_007": "1", "P29_008": "00", "P29_009": null }, "geometry": { "type": "Point", "coordinates": [ 127.698526948005522, 26.21481089335709 ] } },
{ "type": "Feature", "properties": { "P29_001": "47201", "P29_002": "C147220100056", "P29_003": "16002", "P29_004": "那覇市立安岡中学校", "P29_005": "沖縄県那覇市銘苅3-10-26", "P29_006": "3", "P29_007": "1", "P29_008": "00", "P29_009": null }, "geometry": { "type": "Point", "coordinates": [ 127.69789122174403, 26.235730637445929 ] } },
{ "type": "Feature", "properties": { "P29_001": "47201", "P29_002": "C147220100065", "P29_003": "16002", "P29_004": "那覇市立上山中学校", "P29_005": "沖縄県那覇市久米1-3-1", "P29_006": "3", "P29_007": "1", "P29_008": "00", "P29_009": null }, "geometry": { "type": "Point", "coordinates": [ 127.67358700183631, 26.215919996434327 ] } },
{ "type": "Feature", "properties": { "P29_001": "47201", "P29_002": "C147220100074", "P29_003": "16002", "P29_004": "那覇市立寄宮中学校", "P29_005": "沖縄県那覇市長田1-13-65", "P29_006": "3", "P29_007": "1", "P29_008": "00", "P29_009": null }, "geometry": { "type": "Point", "coordinates": [ 127.699918996286598, 26.20383899836968 ] } },
{ "type": "Feature", "properties": { "P29_001": "47201", "P29_002": "C147220100083", "P29_003": "16002", "P29_004": "那覇市立神原中学校", "P29_005": "沖縄県那覇市樋川2-8-1", "P29_006": "3", "P29_007": "1", "P29_008": "00", "P29_009": null }, "geometry": { "type": "Point", "coordinates": [ 127.691280000099709, 26.209476999780883 ] } },
{ "type": "Feature", "properties": { "P29_001": "47201", "P29_002": "C147220100092", "P29_003": "16002", "P29_004": "那覇市立松島中学校", "P29_005": "沖縄県那覇市古島2-11-2", "P29_006": "3", "P29_007": "1", "P29_008": "00", "P29_009": null }, "geometry": { "type": "Point", "coordinates": [ 127.708557062659722, 26.225337966152924 ] } },
{ "type": "Feature", "properties": { "P29_001": "47201", "P29_002": "C147220100109", "P29_003": "16002", "P29_004": "那覇市立古蔵中学校", "P29_005": "沖縄県那覇市古波蔵4-8-1", "P29_006": "3", "P29_007": "1", "P29_008": "00", "P29_009": null }, "geometry": { "type": "Point", "coordinates": [ 127.689310002943131, 26.19695100109255 ] } },
{ "type": "Feature", "properties": { "P29_001": "47201", "P29_002": "C147220100118", "P29_003": "16002", "P29_004": "那覇市立石田中学校", "P29_005": "沖縄県那覇市繁多川5-17-1", "P29_006": "3", "P29_007": "1", "P29_008": "00", "P29_009": null }, "geometry": { "type": "Point", "coordinates": [ 127.711083999503359, 26.209533002237396 ] } },
{ "type": "Feature", "properties": { "P29_001": "47201", "P29_002": "C147220100127", "P29_003": "16002", "P29_004": "那覇市立城北中学校", "P29_005": "沖縄県那覇市首里石嶺町1-112", "P29_006": "3", "P29_007": "1", "P29_008": "00", "P29_009": null }, "geometry": { "type": "Point", "coordinates": [ 127.726049799984438, 26.227683959615693 ] } },
{ "type": "Feature", "properties": { "P29_001": "47201", "P29_002": "C147220100136", "P29_003": "16002", "P29_004": "那覇市立鏡原中学校", "P29_005": "沖縄県那覇市鏡原町36-1", "P29_006": "3", "P29_007": "1", "P29_008": "00", "P29_009": null }, "geometry": { "type": "Point", "coordinates": [ 127.678366002372599, 26.196367000403235 ] } },
{ "type": "Feature", "properties": { "P29_001": "47201", "P29_002": "C147220100145", "P29_003": "16002", "P29_004": "那覇市立松城中学校", "P29_005": "沖縄県那覇市繁多川3-15-1", "P29_006": "3", "P29_007": "1", "P29_008": "00", "P29_009": null }, "geometry": { "type": "Point", "coordinates": [ 127.712829929031983, 26.213233385439814 ] } },
{ "type": "Feature", "properties": { "P29_001": "47201", "P29_002": "C147220100154", "P29_003": "16002", "P29_004": "那覇市立仲井真中学校", "P29_005": "沖縄県那覇市字仲井真189", "P29_006": "3", "P29_007": "1", "P29_008": "00", "P29_009": null }, "geometry": { "type": "Point", "coordinates": [ 127.707855848229386, 26.194322936791309 ] } },
{ "type": "Feature", "properties": { "P29_001": "47201", "P29_002": "C147220100163", "P29_003": "16002", "P29_004": "那覇市立金城中学校", "P29_005": "沖縄県那覇市金城4-4-1", "P29_006": "3", "P29_007": "1", "P29_008": "00", "P29_009": null }, "geometry": { "type": "Point", "coordinates": [ 127.664061000482405, 26.198504998788682 ] } },
{ "type": "Feature", "properties": { "P29_001": "47201", "P29_002": "C147220100172", "P29_003": "16002", "P29_004": "那覇市立石嶺中学校", "P29_005": "沖縄県那覇市首里石嶺町2-109", "P29_006": "3", "P29_007": "1", "P29_008": "00", "P29_009": null }, "geometry": { "type": "Point", "coordinates": [ 127.731358995582951, 26.226309002554828 ] } },
{ "type": "Feature", "properties": { "P29_001": "47201", "P29_002": "C147220100181", "P29_003": "16002", "P29_004": "那覇市立城北中学校若夏分校", "P29_005": "沖縄県那覇市首里大名町3-112", "P29_006": "3", "P29_007": "1", "P29_008": "00", "P29_009": null }, "geometry": { "type": "Point", "coordinates": [ 127.721658551523689, 26.23061665385185 ] } },
{ "type": "Feature", "properties": { "P29_001": "47205", "P29_002": "C147220500016", "P29_003": "16002", "P29_004": "宜野湾市立普天間中学校", "P29_005": "沖縄県宜野湾市新城2-41-1", "P29_006": "3", "P29_007": "1", "P29_008": "00", "P29_009": null }, "geometry": { "type": "Point", "coordinates": [ 127.767020998355221, 26.285722003855696 ] } },
{ "type": "Feature", "properties": { "P29_001": "47205", "P29_002": "C147220500025", "P29_003": "16002", "P29_004": "宜野湾市立嘉数中学校", "P29_005": "沖縄県宜野湾市字我如古423", "P29_006": "3", "P29_007": "1", "P29_008": "00", "P29_009": null }, "geometry": { "type": "Point", "coordinates": [ 127.745368486983068, 26.26051731212446 ] } },
{ "type": "Feature", "properties": { "P29_001": "47205", "P29_002": "C147220500034", "P29_003": "16002", "P29_004": "宜野湾市立真志喜中学校", "P29_005": "沖縄県宜野湾市真志喜3-19-1", "P29_006": "3", "P29_007": "1", "P29_008": "00", "P29_009": null }, "geometry": { "type": "Point", "coordinates": [ 127.733106998792422, 26.274916003860334 ] } },
{ "type": "Feature", "properties": { "P29_001": "47205", "P29_002": "C147220500043", "P29_003": "16002", "P29_004": "宜野湾市立宜野湾中学校", "P29_005": "沖縄県宜野湾市赤道1-15-1", "P29_006": "3", "P29_007": "1", "P29_008": "00", "P29_009": null }, "geometry": { "type": "Point", "coordinates": [ 127.771882002589891, 26.274195002979457 ] } },
{ "type": "Feature", "properties": { "P29_001": "47207", "P29_002": "C147220700014", "P29_003": "16002", "P29_004": "石垣市立石垣中学校", "P29_005": "沖縄県石垣市新川217", "P29_006": "3", "P29_007": "1", "P29_008": "00", "P29_009": null }, "geometry": { "type": "Point", "coordinates": [ 124.154126343824259, 24.348079077296482 ] } },
{ "type": "Feature", "properties": { "P29_001": "47207", "P29_002": "C147220700023", "P29_003": "16002", "P29_004": "石垣市立大浜中学校", "P29_005": "沖縄県石垣市字大浜103", "P29_006": "3", "P29_007": "1", "P29_008": "00", "P29_009": null }, "geometry": { "type": "Point", "coordinates": [ 124.19529891497254, 24.346554777695935 ] } },
{ "type": "Feature", "properties": { "P29_001": "47207", "P29_002": "C147220700032", "P29_003": "16002", "P29_004": "石垣市立川平中学校", "P29_005": "沖縄県石垣市字川平969", "P29_006": "3", "P29_007": "1", "P29_008": "00", "P29_009": null }, "geometry": { "type": "Point", "coordinates": [ 124.139228265501472, 24.459042646995293 ] } },
{ "type": "Feature", "properties": { "P29_001": "47207", "P29_002": "C147220700041", "P29_003": "16002", "P29_004": "石垣市立白保中学校", "P29_005": "沖縄県石垣市字白保268-35", "P29_006": "3", "P29_007": "1", "P29_008": "00", "P29_009": null }, "geometry": { "type": "Point", "coordinates": [ 124.235225298284533, 24.352813908532926 ] } },
{ "type": "Feature", "properties": { "P29_001": "47207", "P29_002": "C147220700050", "P29_003": "16002", "P29_004": "石垣市立名蔵中学校", "P29_005": "沖縄県石垣市字名蔵243", "P29_006": "3", "P29_007": "1", "P29_008": "00", "P29_009": null }, "geometry": { "type": "Point", "coordinates": [ 124.161893468616086, 24.393561794300275 ] } },
{ "type": "Feature", "properties": { "P29_001": "47207", "P29_002": "C147220700069", "P29_003": "16002", "P29_004": "石垣市立崎枝中学校", "P29_005": "沖縄県石垣市字崎枝530-18", "P29_006": "3", "P29_007": "1", "P29_008": "00", "P29_009": null }, "geometry": { "type": "Point", "coordinates": [ 124.104428372860028, 24.441055926464241 ] } },
{ "type": "Feature", "properties": { "P29_001": "47207", "P29_002": "C147220700078", "P29_003": "16002", "P29_004": "石垣市立伊原間中学校", "P29_005": "沖縄県石垣市字伊原間28", "P29_006": "3", "P29_007": "1", "P29_008": "00", "P29_009": null }, "geometry": { "type": "Point", "coordinates": [ 124.281164788883629, 24.50892390959282 ] } },
{ "type": "Feature", "properties": { "P29_001": "47207", "P29_002": "C147220700087", "P29_003": "16002", "P29_004": "石垣市立石垣第二中学校", "P29_005": "沖縄県石垣市字登野城1078", "P29_006": "3", "P29_007": "1", "P29_008": "00", "P29_009": null }, "geometry": { "type": "Point", "coordinates": [ 124.16759326721359, 24.344594638816083 ] } },
{ "type": "Feature", "properties": { "P29_001": "47207", "P29_002": "C147220700096", "P29_003": "16002", "P29_004": "石垣市立富野中学校", "P29_005": "沖縄県石垣市字桴海299-45", "P29_006": "3", "P29_007": "1", "P29_008": "00", "P29_009": null }, "geometry": { "type": "Point", "coordinates": [ 124.201330228668624, 24.453840640447847 ] } },
{ "type": "Feature", "properties": { "P29_001": "47208", "P29_002": "C147220800013", "P29_003": "16002", "P29_004": "浦添市立浦添中学校", "P29_005": "沖縄県浦添市仲間2-46-1", "P29_006": "3", "P29_007": "1", "P29_008": "00", "P29_009": null }, "geometry": { "type": "Point", "coordinates": [ 127.727415002377157, 26.245973996245457 ] } },
{ "type": "Feature", "properties": { "P29_001": "47208", "P29_002": "C147220800022", "P29_003": "16002", "P29_004": "浦添市立仲西中学校", "P29_005": "沖縄県浦添市屋富祖2-13-1", "P29_006": "3", "P29_007": "1", "P29_008": "00", "P29_009": null }, "geometry": { "type": "Point", "coordinates": [ 127.709665998746786, 26.250334003980633 ] } },
{ "type": "Feature", "properties": { "P29_001": "47208", "P29_002": "C147220800031", "P29_003": "16002", "P29_004": "浦添市立神森中学校", "P29_005": "沖縄県浦添市内間1-6-1", "P29_006": "3", "P29_007": "1", "P29_008": "00", "P29_009": null }, "geometry": { "type": "Point", "coordinates": [ 127.707152905753674, 26.239428935688334 ] } },
{ "type": "Feature", "properties": { "P29_001": "47208", "P29_002": "C147220800040", "P29_003": "16002", "P29_004": "浦添市立港川中学校", "P29_005": "沖縄県浦添市港川1-1-1", "P29_006": "3", "P29_007": "1", "P29_008": "00", "P29_009": null }, "geometry": { "type": "Point", "coordinates": [ 127.718180122011788, 26.261470848309745 ] } },
{ "type": "Feature", "properties": { "P29_001": "47208", "P29_002": "C147220800059", "P29_003": "16002", "P29_004": "浦添市立浦西中学校", "P29_005": "沖縄県浦添市当山3-1-1", "P29_006": "3", "P29_007": "1", "P29_008": "00", "P29_009": null }, "geometry": { "type": "Point", "coordinates": [ 127.735507798049738, 26.24817982290778 ] } },
{ "type": "Feature", "properties": { "P29_001": "47209", "P29_002": "C147220900012", "P29_003": "16002", "P29_004": "名護市立久志中学校", "P29_005": "沖縄県名護市汀間122", "P29_006": "3", "P29_007": "1", "P29_008": "00", "P29_009": null }, "geometry": { "type": "Point", "coordinates": [ 128.061197569613711, 26.552809808844515 ] } },
{ "type": "Feature", "properties": { "P29_001": "47209", "P29_002": "C147220900021", "P29_003": "16002", "P29_004": "名護市立久辺中学校", "P29_005": "沖縄県名護市豊原208", "P29_006": "3", "P29_007": "1", "P29_008": "00", "P29_009": null }, "geometry": { "type": "Point", "coordinates": [ 128.02314888180706, 26.521363326149206 ] } },
{ "type": "Feature", "properties": { "P29_001": "47209", "P29_002": "C147220900030", "P29_003": "16002", "P29_004": "名護市立名護中学校", "P29_005": "沖縄県名護市大西2-2-33", "P29_006": "3", "P29_007": "1", "P29_008": "00", "P29_009": null }, "geometry": { "type": "Point", "coordinates": [ 127.980872525179038, 26.594736475248947 ] } },
{ "type": "Feature", "properties": { "P29_001": "47209", "P29_002": "C147220900049", "P29_003": "16002", "P29_004": "名護市立羽地中学校", "P29_005": "沖縄県名護市字仲尾次770", "P29_006": "3", "P29_007": "1", "P29_008": "00", "P29_009": null }, "geometry": { "type": "Point", "coordinates": [ 128.021860794461645, 26.624836244576549 ] } },
{ "type": "Feature", "properties": { "P29_001": "47209", "P29_002": "C147220900058", "P29_003": "16002", "P29_004": "名護市立屋我地中学校", "P29_005": "沖縄県名護市饒平名159", "P29_006": "3", "P29_007": "1", "P29_008": "00", "P29_009": null }, "geometry": { "type": "Point", "coordinates": [ 128.009362677082038, 26.654673987098501 ] } },
{ "type": "Feature", "properties": { "P29_001": "47209", "P29_002": "C147220900067", "P29_003": "16002", "P29_004": "名護市立屋部中学校", "P29_005": "沖縄県名護市屋部546", "P29_006": "3", "P29_007": "1", "P29_008": "00", "P29_009": null }, "geometry": { "type": "Point", "coordinates": [ 127.949952063640225, 26.59984505324422 ] } },
{ "type": "Feature", "properties": { "P29_001": "47209", "P29_002": "C147220900076", "P29_003": "16002", "P29_004": "名護市立東江中学校", "P29_005": "沖縄県名護市大東2-1-1", "P29_006": "3", "P29_007": "1", "P29_008": "00", "P29_009": null }, "geometry": { "type": "Point", "coordinates": [ 127.988532783289472, 26.588053488997627 ] } },
{ "type": "Feature", "properties": { "P29_001": "47209", "P29_002": "C147220900085", "P29_003": "16002", "P29_004": "名護市立大宮中学校", "P29_005": "沖縄県名護市宮里7-2-66", "P29_006": "3", "P29_007": "1", "P29_008": "00", "P29_009": null }, "geometry": { "type": "Point", "coordinates": [ 127.978687608360858, 26.604770377754019 ] } },
{ "type": "Feature", "properties": { "P29_001": "47209", "P29_002": "C147220900094", "P29_003": "16002", "P29_004": "沖縄県立名護高等学校附属桜中学校", "P29_005": "沖縄県名護市大西5-17-1", "P29_006": "2", "P29_007": "1", "P29_008": "00", "P29_009": null }, "geometry": { "type": "Point", "coordinates": [ 127.985099929134293, 26.602241990208785 ] } },
{ "type": "Feature", "properties": { "P29_001": "47210", "P29_002": "C147221000019", "P29_003": "16002", "P29_004": "糸満市立兼城中学校", "P29_005": "沖縄県糸満市座波1271", "P29_006": "3", "P29_007": "1", "P29_008": "00", "P29_009": null }, "geometry": { "type": "Point", "coordinates": [ 127.69195099859445, 26.145650004122533 ] } },
{ "type": "Feature", "properties": { "P29_001": "47210", "P29_002": "C147221000028", "P29_003": "16002", "P29_004": "糸満市立高嶺中学校", "P29_005": "沖縄県糸満市字大里1902", "P29_006": "3", "P29_007": "1", "P29_008": "00", "P29_009": null }, "geometry": { "type": "Point", "coordinates": [ 127.689618001402991, 26.127011998264752 ] } },
{ "type": "Feature", "properties": { "P29_001": "47210", "P29_002": "C147221000037", "P29_003": "16002", "P29_004": "糸満市立三和中学校", "P29_005": "沖縄県糸満市字真壁519", "P29_006": "3", "P29_007": "1", "P29_008": "00", "P29_009": null }, "geometry": { "type": "Point", "coordinates": [ 127.689289999284696, 26.102820003084584 ] } },
{ "type": "Feature", "properties": { "P29_001": "47210", "P29_002": "C147221000046", "P29_003": "16002", "P29_004": "糸満市立糸満中学校", "P29_005": "沖縄県糸満市糸満1880", "P29_006": "3", "P29_007": "1", "P29_008": "00", "P29_009": null }, "geometry": { "type": "Point", "coordinates": [ 127.676840098048046, 26.130925998841793 ] } },
{ "type": "Feature", "properties": { "P29_001": "47210", "P29_002": "C147221000055", "P29_003": "16002", "P29_004": "糸満市立西崎中学校", "P29_005": "沖縄県糸満市西崎町3-422", "P29_006": "3", "P29_007": "1", "P29_008": "00", "P29_009": null }, "geometry": { "type": "Point", "coordinates": [ 127.669229999935126, 26.147426996248573 ] } },
{ "type": "Feature", "properties": { "P29_001": "47210", "P29_002": "C147221000064", "P29_003": "16002", "P29_004": "糸満市立潮平中学校", "P29_005": "沖縄県糸満市字阿波根1200", "P29_006": "3", "P29_007": "1", "P29_008": "00", "P29_009": null }, "geometry": { "type": "Point", "coordinates": [ 127.674364884464865, 26.148348945937254 ] } },
{ "type": "Feature", "properties": { "P29_001": "47210", "P29_002": "C147221000073", "P29_003": "16002", "P29_004": "糸満市立三和中学校大度分校", "P29_005": "沖縄県糸満市字大度1255", "P29_006": "3", "P29_007": "1", "P29_008": "00", "P29_009": null }, "geometry": { "type": "Point", "coordinates": [ 127.717268994519301, 26.104172998855567 ] } },
{ "type": "Feature", "properties": { "P29_001": "47211", "P29_002": "C147221100018", "P29_003": "16002", "P29_004": "沖縄市立コザ中学校", "P29_005": "沖縄県沖縄市胡屋3-38-1", "P29_006": "3", "P29_007": "1", "P29_008": "00", "P29_009": null }, "geometry": { "type": "Point", "coordinates": [ 127.804571998568889, 26.332190999350569 ] } },
{ "type": "Feature", "properties": { "P29_001": "47211", "P29_002": "C147221100027", "P29_003": "16002", "P29_004": "沖縄市立美東中学校", "P29_005": "沖縄県沖縄市高原5-12-1", "P29_006": "3", "P29_007": "1", "P29_008": "00", "P29_009": null }, "geometry": { "type": "Point", "coordinates": [ 127.824966992622038, 26.32237981450546 ] } },
{ "type": "Feature", "properties": { "P29_001": "47211", "P29_002": "C147221100036", "P29_003": "16002", "P29_004": "沖縄市立美里中学校", "P29_005": "沖縄県沖縄市知花1-24-1", "P29_006": "3", "P29_007": "1", "P29_008": "00", "P29_009": null }, "geometry": { "type": "Point", "coordinates": [ 127.8169933111501, 26.359434472904802 ] } },
{ "type": "Feature", "properties": { "P29_001": "47211", "P29_002": "C147221100045", "P29_003": "16002", "P29_004": "沖縄市立越来中学校", "P29_005": "沖縄県沖縄市越来1-2-1", "P29_006": "3", "P29_007": "1", "P29_008": "00", "P29_009": null }, "geometry": { "type": "Point", "coordinates": [ 127.812487998683437, 26.341828998423633 ] } },
{ "type": "Feature", "properties": { "P29_001": "47211", "P29_002": "C147221100054", "P29_003": "16002", "P29_004": "沖縄市立山内中学校", "P29_005": "沖縄県沖縄市山内2-20-1", "P29_006": "3", "P29_007": "1", "P29_008": "00", "P29_009": null }, "geometry": { "type": "Point", "coordinates": [ 127.784657002075647, 26.322969002231719 ] } },
{ "type": "Feature", "properties": { "P29_001": "47211", "P29_002": "C147221100063", "P29_003": "16002", "P29_004": "沖縄市立安慶田中学校", "P29_005": "沖縄県沖縄市安慶田3-8-1", "P29_006": "3", "P29_007": "1", "P29_008": "00", "P29_009": null }, "geometry": { "type": "Point", "coordinates": [ 127.811617931116672, 26.331208931434748 ] } },
{ "type": "Feature", "properties": { "P29_001": "47211", "P29_002": "C147221100072", "P29_003": "16002", "P29_004": "沖縄市立宮里中学校", "P29_005": "沖縄県沖縄市東2-17-1", "P29_006": "3", "P29_007": "1", "P29_008": "00", "P29_009": null }, "geometry": { "type": "Point", "coordinates": [ 127.825015001703605, 26.344244997030856 ] } },
{ "type": "Feature", "properties": { "P29_001": "47211", "P29_002": "C147221100081", "P29_003": "16002", "P29_004": "沖縄市立沖縄東中学校", "P29_005": "沖縄県沖縄市字桃原260-2", "P29_006": "3", "P29_007": "1", "P29_008": "00", "P29_009": null }, "geometry": { "type": "Point", "coordinates": [ 127.829993051878077, 26.330418075844875 ] } },
{ "type": "Feature", "properties": { "P29_001": "47211", "P29_002": "C147221100090", "P29_003": "16002", "P29_004": "沖縄県立球陽中学校", "P29_005": "沖縄県沖縄市南桃原1-10-1", "P29_006": "2", "P29_007": "1", "P29_008": "00", "P29_009": null }, "geometry": { "type": "Point", "coordinates": [ 127.785140000109479, 26.318916001533793 ] } },
{ "type": "Feature", "properties": { "P29_001": "47212", "P29_002": "C147221200017", "P29_003": "16002", "P29_004": "豊見城市立豊見城中学校", "P29_005": "沖縄県豊見城市字宜保1-1-2", "P29_006": "3", "P29_007": "1", "P29_008": "00", "P29_009": null }, "geometry": { "type": "Point", "coordinates": [ 127.680771240430815, 26.177857572979566 ] } },
{ "type": "Feature", "properties": { "P29_001": "47212", "P29_002": "C147221200026", "P29_003": "16002", "P29_004": "豊見城市立長嶺中学校", "P29_005": "沖縄県豊見城市字饒波1068-2", "P29_006": "3", "P29_007": "1", "P29_008": "00", "P29_009": null }, "geometry": { "type": "Point", "coordinates": [ 127.69547837263201, 26.182901302091086 ] } },
{ "type": "Feature", "properties": { "P29_001": "47212", "P29_002": "C147221200035", "P29_003": "16002", "P29_004": "豊見城市立伊良波中学校", "P29_005": "沖縄県豊見城市字伊良波273", "P29_006": "3", "P29_007": "1", "P29_008": "00", "P29_009": null }, "geometry": { "type": "Point", "coordinates": [ 127.672585256173008, 26.171559698539287 ] } },
{ "type": "Feature", "properties": { "P29_001": "47213", "P29_002": "C147221300016", "P29_003": "16002", "P29_004": "うるま市立津堅中学校", "P29_005": "沖縄県うるま市勝連津堅1327-2", "P29_006": "3", "P29_007": "1", "P29_008": "00", "P29_009": null }, "geometry": { "type": "Point", "coordinates": [ 127.93628423700153, 26.247903433066057 ] } },
{ "type": "Feature", "properties": { "P29_001": "47213", "P29_002": "C147221300025", "P29_003": "16002", "P29_004": "うるま市立具志川中学校", "P29_005": "沖縄県うるま市字喜屋武591", "P29_006": "3", "P29_007": "1", "P29_008": "00", "P29_009": null }, "geometry": { "type": "Point", "coordinates": [ 127.841794711510474, 26.361502068022439 ] } },
{ "type": "Feature", "properties": { "P29_001": "47213", "P29_002": "C147221300034", "P29_003": "16002", "P29_004": "うるま市立石川中学校", "P29_005": "沖縄県うるま市石川440-1", "P29_006": "3", "P29_007": "1", "P29_008": "00", "P29_009": null }, "geometry": { "type": "Point", "coordinates": [ 127.824428996618707, 26.423737995365382 ] } },
{ "type": "Feature", "properties": { "P29_001": "47213", "P29_002": "C147221300043", "P29_003": "16002", "P29_004": "うるま市立与勝中学校", "P29_005": "沖縄県うるま市勝連南風原3615", "P29_006": "3", "P29_007": "1", "P29_008": "00", "P29_009": null }, "geometry": { "type": "Point", "coordinates": [ 127.882573092325813, 26.32912854254694 ] } },
{ "type": "Feature", "properties": { "P29_001": "47213", "P29_002": "C147221300052", "P29_003": "16002", "P29_004": "うるま市立高江洲中学校", "P29_005": "沖縄県うるま市字豊原769", "P29_006": "3", "P29_007": "1", "P29_008": "00", "P29_009": null }, "geometry": { "type": "Point", "coordinates": [ 127.84895600476807, 26.35041199658782 ] } },
{ "type": "Feature", "properties": { "P29_001": "47213", "P29_002": "C147221300061", "P29_003": "16002", "P29_004": "うるま市立あげな中学校", "P29_005": "沖縄県うるま市字安慶名2-18-37", "P29_006": "3", "P29_007": "1", "P29_008": "00", "P29_009": null }, "geometry": { "type": "Point", "coordinates": [ 127.849428004197563, 26.377742998361345 ] } },
{ "type": "Feature", "properties": { "P29_001": "47213", "P29_002": "C147221300070", "P29_003": "16002", "P29_004": "うるま市立与勝第二中学校", "P29_005": "沖縄県うるま市与那城饒辺153-1", "P29_006": "3", "P29_007": "1", "P29_008": "00", "P29_009": null }, "geometry": { "type": "Point", "coordinates": [ 127.907187097325135, 26.314826687823071 ] } },
{ "type": "Feature", "properties": { "P29_001": "47213", "P29_002": "C147221300089", "P29_003": "16002", "P29_004": "うるま市立具志川東中学校", "P29_005": "沖縄県うるま市字具志川2803", "P29_006": "3", "P29_007": "1", "P29_008": "00", "P29_009": null }, "geometry": { "type": "Point", "coordinates": [ 127.861006415767605, 26.362508477070737 ] } },
{ "type": "Feature", "properties": { "P29_001": "47213", "P29_002": "C147221300098", "P29_003": "16002", "P29_004": "うるま市立伊波中学校", "P29_005": "沖縄県うるま市石川東恩納978-1", "P29_006": "3", "P29_007": "1", "P29_008": "00", "P29_009": null }, "geometry": { "type": "Point", "coordinates": [ 127.822391998038071, 26.40742099679338 ] } },
{ "type": "Feature", "properties": { "P29_001": "47213", "P29_002": "C147221300105", "P29_003": "16002", "P29_004": "沖縄県立与勝緑が丘中学校", "P29_005": "沖縄県うるま市勝連平安名3248", "P29_006": "2", "P29_007": "1", "P29_008": "00", "P29_009": null }, "geometry": { "type": "Point", "coordinates": [ 127.89473999991398, 26.313142997236508 ] } },
{ "type": "Feature", "properties": { "P29_001": "47213", "P29_002": "C147221300114", "P29_003": "16002", "P29_004": "うるま市立彩橋中学校", "P29_005": "沖縄県うるま市与那城平安座8169-1", "P29_006": "3", "P29_007": "1", "P29_008": "00", "P29_009": null }, "geometry": { "type": "Point", "coordinates": [ 127.950117994568146, 26.341970999634661 ] } },
{ "type": "Feature", "properties": { "P29_001": "47214", "P29_002": "C147221400015", "P29_003": "16002", "P29_004": "宮古島市立上野中学校", "P29_005": "沖縄県宮古島市上野字新里356-1", "P29_006": "3", "P29_007": "1", "P29_008": "00", "P29_009": null }, "geometry": { "type": "Point", "coordinates": [ 125.333205140428745, 24.741415604226681 ] } },
{ "type": "Feature", "properties": { "P29_001": "47214", "P29_002": "C147221400024", "P29_003": "16002", "P29_004": "宮古島市立鏡原中学校", "P29_005": "沖縄県宮古島市平良字下里3107-3", "P29_006": "3", "P29_007": "1", "P29_008": "00", "P29_009": null }, "geometry": { "type": "Point", "coordinates": [ 125.311574353807984, 24.781398565557097 ] } },
{ "type": "Feature", "properties": { "P29_001": "47214", "P29_002": "C147221400033", "P29_003": "16002", "P29_004": "宮古島市立北中学校", "P29_005": "沖縄県宮古島市平良字西仲宗根500", "P29_006": "3", "P29_007": "1", "P29_008": "00", "P29_009": null }, "geometry": { "type": "Point", "coordinates": [ 125.289008998746482, 24.808327999901177 ] } },
{ "type": "Feature", "properties": { "P29_001": "47214", "P29_002": "C147221400042", "P29_003": "16002", "P29_004": "宮古島市立下地中学校", "P29_005": "沖縄県宮古島市下地字洲鎌250", "P29_006": "3", "P29_007": "1", "P29_008": "00", "P29_009": null }, "geometry": { "type": "Point", "coordinates": [ 125.283694078301906, 24.745256923621685 ] } },
{ "type": "Feature", "properties": { "P29_001": "47214", "P29_002": "C147221400051", "P29_003": "16002", "P29_004": "宮古島市立平良中学校", "P29_005": "沖縄県宮古島市平良字西里724", "P29_006": "3", "P29_007": "1", "P29_008": "00", "P29_009": null }, "geometry": { "type": "Point", "coordinates": [ 125.28748055334853, 24.799320310359818 ] } },
{ "type": "Feature", "properties": { "P29_001": "47214", "P29_002": "C147221400060", "P29_003": "16002", "P29_004": "宮古島市立池間中学校", "P29_005": "沖縄県宮古島市平良字池間903", "P29_006": "3", "P29_007": "1", "P29_008": "00", "P29_009": null }, "geometry": { "type": "Point", "coordinates": [ 125.247631987999796, 24.927348380416507 ] } },
{ "type": "Feature", "properties": { "P29_001": "47214", "P29_002": "C147221400079", "P29_003": "16002", "P29_004": "宮古島市立西辺中学校", "P29_005": "沖縄県宮古島市平良字西原1138", "P29_006": "3", "P29_007": "1", "P29_008": "00", "P29_009": null }, "geometry": { "type": "Point", "coordinates": [ 125.299268346734152, 24.829515754218871 ] } },
{ "type": "Feature", "properties": { "P29_001": "47214", "P29_002": "C147221400088", "P29_003": "16002", "P29_004": "宮古島市立狩俣中学校", "P29_005": "沖縄県宮古島市平良字狩俣4337", "P29_006": "3", "P29_007": "1", "P29_008": "00", "P29_009": null }, "geometry": { "type": "Point", "coordinates": [ 125.281354080870344, 24.886734683229694 ] } },
{ "type": "Feature", "properties": { "P29_001": "47214", "P29_002": "C147221400131", "P29_003": "16002", "P29_004": "宮古島市立久松中学校", "P29_005": "沖縄県宮古島市平良字久貝809-1", "P29_006": "3", "P29_007": "1", "P29_008": "00", "P29_009": null }, "geometry": { "type": "Point", "coordinates": [ 125.27015691959285, 24.792929153171833 ] } },
{ "type": "Feature", "properties": { "P29_001": "47214", "P29_002": "C147221400140", "P29_003": "16002", "P29_004": "宮古島市立伊良部島中学校", "P29_005": "沖縄県宮古島市伊良部字池間添1720", "P29_006": "3", "P29_007": "1", "P29_008": "00", "P29_009": null }, "geometry": { "type": "Point", "coordinates": [ 125.206853009010629, 24.837218327646561 ] } },
{ "type": "Feature", "properties": { "P29_001": "47214", "P29_002": "C147221400159", "P29_003": "16002", "P29_004": "宮古島市立城東中学校", "P29_005": "沖縄県宮古島市城辺字西里添1080", "P29_006": "3", "P29_007": "1", "P29_008": "00", "P29_009": null }, "geometry": { "type": "Point", "coordinates": [ 125.363678177563656, 24.761625152756821 ] } },
{ "type": "Feature", "properties": { "P29_001": "47215", "P29_002": "C147221500014", "P29_003": "16002", "P29_004": "南城市立久高中学校", "P29_005": "沖縄県南城市知念字久高46", "P29_006": "3", "P29_007": "1", "P29_008": "00", "P29_009": null }, "geometry": { "type": "Point", "coordinates": [ 127.886413707593661, 26.156858142477137 ] } },
{ "type": "Feature", "properties": { "P29_001": "47215", "P29_002": "C147221500023", "P29_003": "16002", "P29_004": "南城市立大里中学校", "P29_005": "沖縄県南城市大里字仲間978", "P29_006": "3", "P29_007": "1", "P29_008": "00", "P29_009": null }, "geometry": { "type": "Point", "coordinates": [ 127.74576816791803, 26.17937163944125 ] } },
{ "type": "Feature", "properties": { "P29_001": "47215", "P29_002": "C147221500032", "P29_003": "16002", "P29_004": "南城市立佐敷中学校", "P29_005": "沖縄県南城市佐敷字兼久16-1", "P29_006": "3", "P29_007": "1", "P29_008": "00", "P29_009": null }, "geometry": { "type": "Point", "coordinates": [ 127.785148001911281, 26.171418998276163 ] } },
{ "type": "Feature", "properties": { "P29_001": "47215", "P29_002": "C147221500041", "P29_003": "16002", "P29_004": "南城市立玉城中学校", "P29_005": "沖縄県南城市玉城字富里153", "P29_006": "3", "P29_007": "1", "P29_008": "00", "P29_009": null }, "geometry": { "type": "Point", "coordinates": [ 127.765779307342683, 26.145010151958285 ] } },
{ "type": "Feature", "properties": { "P29_001": "47215", "P29_002": "C147221500050", "P29_003": "16002", "P29_004": "南城市立知念中学校", "P29_005": "沖縄県南城市知念字久手堅700", "P29_006": "3", "P29_007": "1", "P29_008": "00", "P29_009": null }, "geometry": { "type": "Point", "coordinates": [ 127.819063654694858, 26.17272147211246 ] } },
{ "type": "Feature", "properties": { "P29_001": "47301", "P29_002": "C147230100019", "P29_003": "16002", "P29_004": "国頭村立国頭中学校", "P29_005": "沖縄県国頭郡国頭村辺土名1463", "P29_006": "3", "P29_007": "1", "P29_008": "00", "P29_009": null }, "geometry": { "type": "Point", "coordinates": [ 128.17527900425975, 26.746718003148871 ] } },
{ "type": "Feature", "properties": { "P29_001": "47302", "P29_002": "C147230200018", "P29_003": "16002", "P29_004": "大宜味村立大宜味中学校", "P29_005": "沖縄県国頭郡大宜味村塩屋1306-6", "P29_006": "3", "P29_007": "1", "P29_008": "00", "P29_009": null }, "geometry": { "type": "Point", "coordinates": [ 128.102028120603251, 26.682538195710666 ] } },
{ "type": "Feature", "properties": { "P29_001": "47303", "P29_002": "C147230300017", "P29_003": "16002", "P29_004": "東村立東中学校", "P29_005": "沖縄県国頭郡東村字川田837", "P29_006": "3", "P29_007": "1", "P29_008": "00", "P29_009": null }, "geometry": { "type": "Point", "coordinates": [ 128.165903164026673, 26.630177301703636 ] } },
{ "type": "Feature", "properties": { "P29_001": "47306", "P29_002": "C147230600014", "P29_003": "16002", "P29_004": "今帰仁村立今帰仁中学校", "P29_005": "沖縄県国頭郡今帰仁村仲宗根47", "P29_006": "3", "P29_007": "1", "P29_008": "00", "P29_009": null }, "geometry": { "type": "Point", "coordinates": [ 127.972651082332675, 26.687134154421827 ] } },
{ "type": "Feature", "properties": { "P29_001": "47308", "P29_002": "C147230800012", "P29_003": "16002", "P29_004": "本部町立伊豆味中学校", "P29_005": "沖縄県国頭郡本部町字伊豆味13", "P29_006": "3", "P29_007": "1", "P29_008": "00", "P29_009": null }, "geometry": { "type": "Point", "coordinates": [ 127.946355003106532, 26.650636998730647 ] } },
{ "type": "Feature", "properties": { "P29_001": "47308", "P29_002": "C147230800021", "P29_003": "16002", "P29_004": "本部町立水納中学校", "P29_005": "沖縄県国頭郡本部町字瀬底6260", "P29_006": "3", "P29_007": "9", "P29_008": "00", "P29_009": null }, "geometry": { "type": "Point", "coordinates": [ 127.815381619959922, 26.649057660068543 ] } },
{ "type": "Feature", "properties": { "P29_001": "47308", "P29_002": "C147230800030", "P29_003": "16002", "P29_004": "本部町立上本部中学校", "P29_005": "沖縄県国頭郡本部町北里1317", "P29_006": "3", "P29_007": "1", "P29_008": "00", "P29_009": null }, "geometry": { "type": "Point", "coordinates": [ 127.899873152454106, 26.692376849809335 ] } },
{ "type": "Feature", "properties": { "P29_001": "47308", "P29_002": "C147230800049", "P29_003": "16002", "P29_004": "本部町立本部中学校", "P29_005": "沖縄県国頭郡本部町渡久地231-1", "P29_006": "3", "P29_007": "1", "P29_008": "00", "P29_009": null }, "geometry": { "type": "Point", "coordinates": [ 127.898330998600173, 26.660744997493747 ] } },
{ "type": "Feature", "properties": { "P29_001": "47311", "P29_002": "C147231100017", "P29_003": "16002", "P29_004": "恩納村立うんな中学校", "P29_005": "沖縄県国頭郡恩納村字恩納7409-1", "P29_006": "3", "P29_007": "1", "P29_008": "00", "P29_009": null }, "geometry": { "type": "Point", "coordinates": [ 127.840219002789695, 26.475900995510312 ] } },
{ "type": "Feature", "properties": { "P29_001": "47313", "P29_002": "C147231300015", "P29_003": "16002", "P29_004": "宜野座村立宜野座中学校", "P29_005": "沖縄県国頭郡宜野座村字惣慶1505", "P29_006": "3", "P29_007": "1", "P29_008": "00", "P29_009": null }, "geometry": { "type": "Point", "coordinates": [ 127.969664002856135, 26.479070001704315 ] } },
{ "type": "Feature", "properties": { "P29_001": "47314", "P29_002": "C147231400014", "P29_003": "16002", "P29_004": "金武町立金武中学校", "P29_005": "沖縄県国頭郡金武町金武3486", "P29_006": "3", "P29_007": "1", "P29_008": "00", "P29_009": null }, "geometry": { "type": "Point", "coordinates": [ 127.924778000361798, 26.449875000374771 ] } },
{ "type": "Feature", "properties": { "P29_001": "47315", "P29_002": "C147231500013", "P29_003": "16002", "P29_004": "伊江村立伊江中学校", "P29_005": "沖縄県国頭郡伊江村字西江前1", "P29_006": "3", "P29_007": "1", "P29_008": "00", "P29_009": null }, "geometry": { "type": "Point", "coordinates": [ 127.804808998313135, 26.715070998687988 ] } },
{ "type": "Feature", "properties": { "P29_001": "47324", "P29_002": "C147232400012", "P29_003": "16002", "P29_004": "読谷村立古堅中学校", "P29_005": "沖縄県中頭郡読谷村字伊良皆297", "P29_006": "3", "P29_007": "1", "P29_008": "00", "P29_009": null }, "geometry": { "type": "Point", "coordinates": [ 127.752629998475555, 26.381018002216607 ] } },
{ "type": "Feature", "properties": { "P29_001": "47324", "P29_002": "C147232400021", "P29_003": "16002", "P29_004": "読谷村立読谷中学校", "P29_005": "沖縄県中頭郡読谷村字座喜味2976-2", "P29_006": "3", "P29_007": "1", "P29_008": "00", "P29_009": null }, "geometry": { "type": "Point", "coordinates": [ 127.74169651088998, 26.396233762240605 ] } },
{ "type": "Feature", "properties": { "P29_001": "47325", "P29_002": "C147232500011", "P29_003": "16002", "P29_004": "嘉手納町立嘉手納中学校", "P29_005": "沖縄県中頭郡嘉手納町字嘉手納312", "P29_006": "3", "P29_007": "1", "P29_008": "00", "P29_009": null }, "geometry": { "type": "Point", "coordinates": [ 127.754018995101248, 26.365047003404992 ] } },
{ "type": "Feature", "properties": { "P29_001": "47326", "P29_002": "C147232600010", "P29_003": "16002", "P29_004": "北谷町立北谷中学校", "P29_005": "沖縄県中頭郡北谷町吉原480", "P29_006": "3", "P29_007": "1", "P29_008": "00", "P29_009": null }, "geometry": { "type": "Point", "coordinates": [ 127.779935004901816, 26.319941000942276 ] } },
{ "type": "Feature", "properties": { "P29_001": "47326", "P29_002": "C147232600029", "P29_003": "16002", "P29_004": "北谷町立桑江中学校", "P29_005": "沖縄県中頭郡北谷町美浜1-4-7", "P29_006": "3", "P29_007": "1", "P29_008": "00", "P29_009": null }, "geometry": { "type": "Point", "coordinates": [ 127.7605877794431, 26.311999414104573 ] } },
{ "type": "Feature", "properties": { "P29_001": "47327", "P29_002": "C147232700019", "P29_003": "16002", "P29_004": "北中城村立北中城中学校", "P29_005": "沖縄県中頭郡北中城村喜舎場306", "P29_006": "3", "P29_007": "1", "P29_008": "00", "P29_009": null }, "geometry": { "type": "Point", "coordinates": [ 127.796046002766602, 26.298693998671862 ] } },
{ "type": "Feature", "properties": { "P29_001": "47328", "P29_002": "C147232800018", "P29_003": "16002", "P29_004": "中城村立中城中学校", "P29_005": "沖縄県中頭郡中城村屋宜741-1", "P29_006": "3", "P29_007": "1", "P29_008": "00", "P29_009": null }, "geometry": { "type": "Point", "coordinates": [ 127.791445806663219, 26.268582470544612 ] } },
{ "type": "Feature", "properties": { "P29_001": "47329", "P29_002": "C147232900017", "P29_003": "16002", "P29_004": "西原町立西原中学校", "P29_005": "沖縄県中頭郡西原町字翁長238", "P29_006": "3", "P29_007": "1", "P29_008": "00", "P29_009": null }, "geometry": { "type": "Point", "coordinates": [ 127.754388511383482, 26.228960319697769 ] } },
{ "type": "Feature", "properties": { "P29_001": "47329", "P29_002": "C147232900026", "P29_003": "16002", "P29_004": "西原町立西原東中学校", "P29_005": "沖縄県中頭郡西原町字小那覇308-1", "P29_006": "3", "P29_007": "1", "P29_008": "00", "P29_009": null }, "geometry": { "type": "Point", "coordinates": [ 127.768809152651315, 26.221821816160592 ] } },
{ "type": "Feature", "properties": { "P29_001": "47348", "P29_002": "C147234800014", "P29_003": "16002", "P29_004": "与那原町立与那原中学校", "P29_005": "沖縄県島尻郡与那原町与那原57", "P29_006": "3", "P29_007": "1", "P29_008": "00", "P29_009": null }, "geometry": { "type": "Point", "coordinates": [ 127.76289518618583, 26.201209462269432 ] } },
{ "type": "Feature", "properties": { "P29_001": "47350", "P29_002": "C147235000019", "P29_003": "16002", "P29_004": "南風原町立南風原中学校", "P29_005": "沖縄県島尻郡南風原町字兼城780", "P29_006": "3", "P29_007": "1", "P29_008": "00", "P29_009": null }, "geometry": { "type": "Point", "coordinates": [ 127.731712129155326, 26.192297569917358 ] } },
{ "type": "Feature", "properties": { "P29_001": "47350", "P29_002": "C147235000028", "P29_003": "16002", "P29_004": "南風原町立南星中学校", "P29_005": "沖縄県島尻郡南風原町字照屋200", "P29_006": "3", "P29_007": "1", "P29_008": "00", "P29_009": null }, "geometry": { "type": "Point", "coordinates": [ 127.723196003471941, 26.187257995558056 ] } },
{ "type": "Feature", "properties": { "P29_001": "47350", "P29_002": "C147235000037", "P29_003": "16002", "P29_004": "沖縄県立開邦中学校", "P29_005": "沖縄県島尻郡南風原町字新川646", "P29_006": "2", "P29_007": "1", "P29_008": "00", "P29_009": null }, "geometry": { "type": "Point", "coordinates": [ 127.732741333191655, 26.217471925342757 ] } },
{ "type": "Feature", "properties": { "P29_001": "47353", "P29_002": "C147235300016", "P29_003": "16002", "P29_004": "渡嘉敷村立渡嘉敷中学校", "P29_005": "沖縄県島尻郡渡嘉敷村字渡嘉敷355", "P29_006": "3", "P29_007": "1", "P29_008": "00", "P29_009": null }, "geometry": { "type": "Point", "coordinates": [ 127.366359998219224, 26.198800999392141 ] } },
{ "type": "Feature", "properties": { "P29_001": "47354", "P29_002": "C147235400015", "P29_003": "16002", "P29_004": "座間味村立座間味中学校", "P29_005": "沖縄県島尻郡座間味村座間味943", "P29_006": "3", "P29_007": "1", "P29_008": "00", "P29_009": null }, "geometry": { "type": "Point", "coordinates": [ 127.304651965964766, 26.229455046514293 ] } },
{ "type": "Feature", "properties": { "P29_001": "47354", "P29_002": "C147235400024", "P29_003": "16002", "P29_004": "座間味村立阿嘉中学校", "P29_005": "沖縄県島尻郡座間味村字阿嘉316", "P29_006": "3", "P29_007": "1", "P29_008": "00", "P29_009": null }, "geometry": { "type": "Point", "coordinates": [ 127.282312000707279, 26.19216199597437 ] } },
{ "type": "Feature", "properties": { "P29_001": "47354", "P29_002": "C147235400033", "P29_003": "16002", "P29_004": "座間味村立慶留間中学校", "P29_005": "沖縄県島尻郡座間味村字慶留間82", "P29_006": "3", "P29_007": "1", "P29_008": "00", "P29_009": null }, "geometry": { "type": "Point", "coordinates": [ 127.292271720847495, 26.176604832883193 ] } },
{ "type": "Feature", "properties": { "P29_001": "47355", "P29_002": "C147235500014", "P29_003": "16002", "P29_004": "粟国村立粟国中学校", "P29_005": "沖縄県島尻郡粟国村字東447", "P29_006": "3", "P29_007": "1", "P29_008": "00", "P29_009": null }, "geometry": { "type": "Point", "coordinates": [ 127.229965134500716, 26.582295436814682 ] } },
{ "type": "Feature", "properties": { "P29_001": "47356", "P29_002": "C147235600013", "P29_003": "16002", "P29_004": "渡名喜村立渡名喜中学校", "P29_005": "沖縄県島尻郡渡名喜村639", "P29_006": "3", "P29_007": "1", "P29_008": "00", "P29_009": null }, "geometry": { "type": "Point", "coordinates": [ 127.142599700485917, 26.373122663789051 ] } },
{ "type": "Feature", "properties": { "P29_001": "47357", "P29_002": "C147235700012", "P29_003": "16002", "P29_004": "南大東村立南大東中学校", "P29_005": "沖縄県島尻郡南大東村字池之沢317", "P29_006": "3", "P29_007": "1", "P29_008": "00", "P29_009": null }, "geometry": { "type": "Point", "coordinates": [ 131.227994001346303, 25.836014002927644 ] } },
{ "type": "Feature", "properties": { "P29_001": "47358", "P29_002": "C147235800011", "P29_003": "16002", "P29_004": "北大東村立北大東中学校", "P29_005": "沖縄県島尻郡北大東村字中野181", "P29_006": "3", "P29_007": "1", "P29_008": "00", "P29_009": null }, "geometry": { "type": "Point", "coordinates": [ 131.296829295803491, 25.945091175429685 ] } },
{ "type": "Feature", "properties": { "P29_001": "47359", "P29_002": "C147235900010", "P29_003": "16002", "P29_004": "伊平屋村立野甫中学校", "P29_005": "沖縄県島尻郡伊平屋村字野甫401", "P29_006": "3", "P29_007": "1", "P29_008": "00", "P29_009": null }, "geometry": { "type": "Point", "coordinates": [ 127.923620995125106, 26.994380999914334 ] } },
{ "type": "Feature", "properties": { "P29_001": "47359", "P29_002": "C147235900029", "P29_003": "16002", "P29_004": "伊平屋村立伊平屋中学校", "P29_005": "沖縄県島尻郡伊平屋村字我喜屋241", "P29_006": "3", "P29_007": "1", "P29_008": "00", "P29_009": null }, "geometry": { "type": "Point", "coordinates": [ 127.967365998680322, 27.038710002274232 ] } },
{ "type": "Feature", "properties": { "P29_001": "47360", "P29_002": "C147236000017", "P29_003": "16002", "P29_004": "伊是名村立伊是名中学校", "P29_005": "沖縄県島尻郡伊是名村字仲田1344", "P29_006": "3", "P29_007": "1", "P29_008": "00", "P29_009": null }, "geometry": { "type": "Point", "coordinates": [ 127.941567001272347, 26.926331998639682 ] } },
{ "type": "Feature", "properties": { "P29_001": "47361", "P29_002": "C147236100016", "P29_003": "16002", "P29_004": "久米島町立久米島西中学校", "P29_005": "沖縄県島尻郡久米島町字西銘1324", "P29_006": "3", "P29_007": "1", "P29_008": "00", "P29_009": null }, "geometry": { "type": "Point", "coordinates": [ 126.747058002302239, 26.351489997598289 ] } },
{ "type": "Feature", "properties": { "P29_001": "47361", "P29_002": "C147236100025", "P29_003": "16002", "P29_004": "久米島町立球美中学校", "P29_005": "沖縄県島尻郡久米島町字比嘉2856", "P29_006": "3", "P29_007": "1", "P29_008": "00", "P29_009": null }, "geometry": { "type": "Point", "coordinates": [ 126.803885282019024, 26.339714838590407 ] } },
{ "type": "Feature", "properties": { "P29_001": "47362", "P29_002": "C147236200015", "P29_003": "16002", "P29_004": "八重瀬町立具志頭中学校", "P29_005": "沖縄県島尻郡八重瀬町字具志頭690", "P29_006": "3", "P29_007": "1", "P29_008": "00", "P29_009": null }, "geometry": { "type": "Point", "coordinates": [ 127.741957542297627, 26.123339490126149 ] } },
{ "type": "Feature", "properties": { "P29_001": "47362", "P29_002": "C147236200024", "P29_003": "16002", "P29_004": "八重瀬町立東風平中学校", "P29_005": "沖縄県島尻郡八重瀬町字東風平267", "P29_006": "3", "P29_007": "1", "P29_008": "00", "P29_009": null }, "geometry": { "type": "Point", "coordinates": [ 127.723223518381644, 26.151597879448808 ] } },
{ "type": "Feature", "properties": { "P29_001": "47375", "P29_002": "C147237500010", "P29_003": "16002", "P29_004": "多良間村立多良間中学校", "P29_005": "沖縄県宮古郡多良間村字塩川576", "P29_006": "3", "P29_007": "1", "P29_008": "00", "P29_009": null }, "geometry": { "type": "Point", "coordinates": [ 124.701492223250483, 24.664813910253454 ] } },
{ "type": "Feature", "properties": { "P29_001": "47381", "P29_002": "C147238100012", "P29_003": "16002", "P29_004": "竹富町立西表中学校", "P29_005": "沖縄県八重山郡竹富町西表869", "P29_006": "3", "P29_007": "1", "P29_008": "00", "P29_009": null }, "geometry": { "type": "Point", "coordinates": [ 123.749226641129908, 24.390647039645387 ] } },
{ "type": "Feature", "properties": { "P29_001": "47381", "P29_002": "C147238100021", "P29_003": "16002", "P29_004": "竹富町立波照間中学校", "P29_005": "沖縄県八重山郡竹富町波照間54", "P29_006": "3", "P29_007": "1", "P29_008": "00", "P29_009": null }, "geometry": { "type": "Point", "coordinates": [ 123.775817829995887, 24.061783201229261 ] } },
{ "type": "Feature", "properties": { "P29_001": "47381", "P29_002": "C147238100030", "P29_003": "16002", "P29_004": "竹富町立船浮中学校", "P29_005": "沖縄県八重山郡竹富町西表2435", "P29_006": "3", "P29_007": "1", "P29_008": "00", "P29_009": null }, "geometry": { "type": "Point", "coordinates": [ 123.728630134732001, 24.338943365754229 ] } },
{ "type": "Feature", "properties": { "P29_001": "47381", "P29_002": "C147238100049", "P29_003": "16002", "P29_004": "竹富町立大原中学校", "P29_005": "沖縄県八重山郡竹富町南風見仲29-2", "P29_006": "3", "P29_007": "1", "P29_008": "00", "P29_009": null }, "geometry": { "type": "Point", "coordinates": [ 123.882385002041843, 24.284163002060314 ] } },
{ "type": "Feature", "properties": { "P29_001": "47381", "P29_002": "C147238100058", "P29_003": "16002", "P29_004": "竹富町立黒島中学校", "P29_005": "沖縄県八重山郡竹富町黒島1140", "P29_006": "3", "P29_007": "1", "P29_008": "00", "P29_009": null }, "geometry": { "type": "Point", "coordinates": [ 124.007141005270142, 24.241649001997452 ] } },
{ "type": "Feature", "properties": { "P29_001": "47381", "P29_002": "C147238100067", "P29_003": "16002", "P29_004": "竹富町立小浜中学校", "P29_005": "沖縄県八重山郡竹富町字小浜2575", "P29_006": "3", "P29_007": "1", "P29_008": "00", "P29_009": null }, "geometry": { "type": "Point", "coordinates": [ 123.982694884209053, 24.34027858923913 ] } },
{ "type": "Feature", "properties": { "P29_001": "47381", "P29_002": "C147238100076", "P29_003": "16002", "P29_004": "竹富町立竹富中学校", "P29_005": "沖縄県八重山郡竹富町竹富545", "P29_006": "3", "P29_007": "1", "P29_008": "00", "P29_009": null }, "geometry": { "type": "Point", "coordinates": [ 124.086319562075616, 24.328706167047727 ] } },
{ "type": "Feature", "properties": { "P29_001": "47381", "P29_002": "C147238100085", "P29_003": "16002", "P29_004": "竹富町立鳩間中学校", "P29_005": "沖縄県八重山郡竹富町鳩間588", "P29_006": "3", "P29_007": "1", "P29_008": "00", "P29_009": null }, "geometry": { "type": "Point", "coordinates": [ 123.824610170572839, 24.468941600935292 ] } },
{ "type": "Feature", "properties": { "P29_001": "47381", "P29_002": "C147238100094", "P29_003": "16002", "P29_004": "竹富町立船浦中学校", "P29_005": "沖縄県八重山郡竹富町字上原870", "P29_006": "3", "P29_007": "1", "P29_008": "00", "P29_009": null }, "geometry": { "type": "Point", "coordinates": [ 123.808138657062287, 24.408610930764052 ] } },
{ "type": "Feature", "properties": { "P29_001": "47382", "P29_002": "C147238200011", "P29_003": "16002", "P29_004": "与那国町立与那国中学校", "P29_005": "沖縄県八重山郡与那国町字与那国1049", "P29_006": "3", "P29_007": "1", "P29_008": "00", "P29_009": null }, "geometry": { "type": "Point", "coordinates": [ 123.008490000499521, 24.468517999185213 ] } },
{ "type": "Feature", "properties": { "P29_001": "47382", "P29_002": "C147238200020", "P29_003": "16002", "P29_004": "与那国町立久部良中学校", "P29_005": "沖縄県八重山郡与那国町与那国4022", "P29_006": "3", "P29_007": "1", "P29_008": "00", "P29_009": null }, "geometry": { "type": "Point", "coordinates": [ 122.943542001340717, 24.455069003921771 ] } },
{ "type": "Feature", "properties": { "P29_001": "47201", "P29_002": "C147320100018", "P29_003": "16002", "P29_004": "興南中学校", "P29_005": "沖縄県那覇市古島1-7-1", "P29_006": "4", "P29_007": "1", "P29_008": "00", "P29_009": null }, "geometry": { "type": "Point", "coordinates": [ 127.703598998451639, 26.228605000237881 ] } },
{ "type": "Feature", "properties": { "P29_001": "47201", "P29_002": "C147320100027", "P29_003": "16002", "P29_004": "沖縄尚学高等学校附属中学校", "P29_005": "沖縄県那覇市字国場747", "P29_006": "4", "P29_007": "1", "P29_008": "00", "P29_009": null }, "geometry": { "type": "Point", "coordinates": [ 127.699528907572301, 26.199900141250556 ] } },
{ "type": "Feature", "properties": { "P29_001": "47205", "P29_002": "C147320500014", "P29_003": "16002", "P29_004": "沖縄カトリック中学校", "P29_005": "沖縄県宜野湾市真栄原3-16-1", "P29_006": "4", "P29_007": "1", "P29_008": "00", "P29_009": null }, "geometry": { "type": "Point", "coordinates": [ 127.744840601463935, 26.261329511868418 ] } },
{ "type": "Feature", "properties": { "P29_001": "47208", "P29_002": "C147320800011", "P29_003": "16002", "P29_004": "昭和薬科大学附属中学校", "P29_005": "沖縄県浦添市字沢岻450", "P29_006": "4", "P29_007": "1", "P29_008": "00", "P29_009": null }, "geometry": { "type": "Point", "coordinates": [ 127.713169702338348, 26.238432027947486 ] } },
{ "type": "Feature", "properties": { "P29_001": "47209", "P29_002": "C147320900010", "P29_003": "16002", "P29_004": "沖縄三育中学校", "P29_005": "沖縄県名護市旭川837", "P29_006": "4", "P29_007": "1", "P29_008": "00", "P29_009": null }, "geometry": { "type": "Point", "coordinates": [ 127.951419780583237, 26.628547949320296 ] } },
{ "type": "Feature", "properties": { "P29_001": "47213", "P29_002": "C147321300014", "P29_003": "16002", "P29_004": "沖縄アミークスインターナショナル中学校", "P29_005": "沖縄県うるま市栄野比1212-1", "P29_006": "4", "P29_007": "1", "P29_008": "00", "P29_009": null }, "geometry": { "type": "Point", "coordinates": [ 127.82679794006485, 26.39821497859932 ] } }
]
}
