{
"type": "FeatureCollection",
"name": "geo_47_大学",
"crs": { "type": "name", "properties": { "name": "urn:ogc:def:crs:EPSG::6668" } },
"features": [
{ "type": "Feature", "properties": { "P29_001": "47329", "P29_002": "F147110111736", "P29_003": "16007", "P29_004": "琉球大学", "P29_005": "沖縄県中頭郡西原町字千原1", "P29_006": "1", "P29_007": "0", "P29_008": "00", "P29_009": null }, "geometry": { "type": "Point", "coordinates": [ 127.758744363673259, 26.241351873945888 ] } },
{ "type": "Feature", "properties": { "P29_001": "47209", "P29_002": "F147210111743", "P29_003": "16007", "P29_004": "名桜大学", "P29_005": "沖縄県名護市字為又1220-1", "P29_006": "3", "P29_007": "0", "P29_008": "00", "P29_009": null }, "geometry": { "type": "Point", "coordinates": [ 127.97482600377306, 26.6231959980637 ] } },
{ "type": "Feature", "properties": { "P29_001": "47201", "P29_002": "F147210111752", "P29_003": "16007", "P29_004": "沖縄県立芸術大学", "P29_005": "沖縄県那覇市首里当蔵町1-4", "P29_006": "2", "P29_007": "0", "P29_008": "00", "P29_009": null }, "geometry": { "type": "Point", "coordinates": [ 127.718873516625038, 26.219359880942822 ] } },
{ "type": "Feature", "properties": { "P29_001": "47201", "P29_002": "F147210111761", "P29_003": "16007", "P29_004": "沖縄県立看護大学", "P29_005": "沖縄県那覇市与儀1-24-1", "P29_006": "2", "P29_007": "0", "P29_008": "00", "P29_009": null }, "geometry": { "type": "Point", "coordinates": [ 127.694975001138189, 26.205643999381085 ] } },
{ "type": "Feature", "properties": { "P29_001": "47311", "P29_002": "F147310111778", "P29_003": "16007", "P29_004": "沖縄科学技術大学院大学", "P29_005": "沖縄県国頭郡恩納村字谷茶1919-1", "P29_006": "4", "P29_007": "0", "P29_008": "00", "P29_009": null }, "geometry": { "type": "Point", "coordinates": [ 127.830738629519615, 26.46184152867972 ] } },
{ "type": "Feature", "properties": { "P29_001": "47205", "P29_002": "F147310111787", "P29_003": "16007", "P29_004": "沖縄国際大学", "P29_005": "沖縄県宜野湾市宜野湾2-6-1", "P29_006": "4", "P29_007": "0", "P29_008": "00", "P29_009": null }, "geometry": { "type": "Point", "coordinates": [ 127.753104510651369, 26.262760505634358 ] } },
{ "type": "Feature", "properties": { "P29_001": "47201", "P29_002": "F147310111796", "P29_003": "16007", "P29_004": "沖縄大学", "P29_005": "沖縄県那覇市字国場555", "P29_006": "4", "P29_007": "0", "P29_008": "00", "P29_009": null }, "geometry": { "type": "Point", "coordinates": [ 127.699250896673092, 26.200958509084977 ] } },
{ "type": "Feature", "properties": { "P29_001": "47329", "P29_002": "F147310111803", "P29_003": "16007", "P29_004": "沖縄キリスト教学院大学", "P29_005": "沖縄県中頭郡西原町字翁長777", "P29_006": "4", "P29_007": "0", "P29_008": "00", "P29_009": null }, "geometry": { "type": "Point", "coordinates": [ 127.756079131145228, 26.238374004436956 ] } }
]
}
