{
"type": "FeatureCollection",
"name": "geo_47_専修学校",
"crs": { "type": "name", "properties": { "name": "urn:ogc:def:crs:EPSG::6668" } },
"features": [
{ "type": "Feature", "properties": { "P29_001": "47201", "P29_002": "H147320100017", "P29_003": "16016", "P29_004": "学校法人新島学園　沖縄調理師専門学校", "P29_005": "沖縄県那覇市久米1-18-7", "P29_006": "4", "P29_007": "0", "P29_008": "00", "P29_009": null }, "geometry": { "type": "Point", "coordinates": [ 127.672125543134186, 26.215457245292924 ] } },
{ "type": "Feature", "properties": { "P29_001": "47201", "P29_002": "H147320100026", "P29_003": "16016", "P29_004": "大育情報ビジネス専門学校", "P29_005": "沖縄県那覇市大道77", "P29_006": "4", "P29_007": "0", "P29_008": "00", "P29_009": null }, "geometry": { "type": "Point", "coordinates": [ 127.69894000510088, 26.221359995212573 ] } },
{ "type": "Feature", "properties": { "P29_001": "47201", "P29_002": "H147320100035", "P29_003": "16016", "P29_004": "沖縄ビジネス外語学院", "P29_005": "沖縄県那覇市久茂地1-2-20ＯＴＶ国和プラザ7", "P29_006": "4", "P29_007": "0", "P29_008": "00", "P29_009": null }, "geometry": { "type": "Point", "coordinates": [ 127.678011193910905, 26.213958525793334 ] } },
{ "type": "Feature", "properties": { "P29_001": "47201", "P29_002": "H147320100044", "P29_003": "16016", "P29_004": "専修学校　国際電子ビジネス専門学校", "P29_005": "沖縄県那覇市壷川3-5-3", "P29_006": "4", "P29_007": "0", "P29_008": "00", "P29_009": null }, "geometry": { "type": "Point", "coordinates": [ 127.680269997325155, 26.205790000046498 ] } },
{ "type": "Feature", "properties": { "P29_001": "47201", "P29_002": "H147320100053", "P29_003": "16016", "P29_004": "ＣＳＣコンピューター学院", "P29_005": "沖縄県那覇市山下町103-1", "P29_006": "4", "P29_007": "0", "P29_008": "00", "P29_009": null }, "geometry": { "type": "Point", "coordinates": [ 127.674181003096933, 26.21608900105868 ] } },
{ "type": "Feature", "properties": { "P29_001": "47201", "P29_002": "H147320100062", "P29_003": "16016", "P29_004": "沖縄福祉保育専門学校", "P29_005": "沖縄県那覇市久米1-5-17", "P29_006": "4", "P29_007": "0", "P29_008": "00", "P29_009": null }, "geometry": { "type": "Point", "coordinates": [ 127.674229247922767, 26.216060470998482 ] } },
{ "type": "Feature", "properties": { "P29_001": "47201", "P29_002": "H147320100071", "P29_003": "16016", "P29_004": "琉美インターナショナルビューティーカレッジ", "P29_005": "沖縄県那覇市牧志2-6-25", "P29_006": "4", "P29_007": "0", "P29_008": "00", "P29_009": null }, "geometry": { "type": "Point", "coordinates": [ 127.690789239352171, 26.2175462475068 ] } },
{ "type": "Feature", "properties": { "P29_001": "47201", "P29_002": "H147320100080", "P29_003": "16016", "P29_004": "大育高等専修学校", "P29_005": "沖縄県那覇市大道5-1", "P29_006": "4", "P29_007": "0", "P29_008": "00", "P29_009": null }, "geometry": { "type": "Point", "coordinates": [ 127.699522160596146, 26.221121900173433 ] } },
{ "type": "Feature", "properties": { "P29_001": "47201", "P29_002": "H147320100106", "P29_003": "16016", "P29_004": "専門学校那覇日経ビジネス", "P29_005": "沖縄県那覇市安里1-1-53", "P29_006": "4", "P29_007": "0", "P29_008": "00", "P29_009": null }, "geometry": { "type": "Point", "coordinates": [ 127.693090686820071, 26.218392028505122 ] } },
{ "type": "Feature", "properties": { "P29_001": "47201", "P29_002": "H147320100115", "P29_003": "16016", "P29_004": "専修学校沖縄大原簿記公務員専門学校", "P29_005": "沖縄県那覇市旭町114-5", "P29_006": "4", "P29_007": "0", "P29_008": "00", "P29_009": null }, "geometry": { "type": "Point", "coordinates": [ 127.677061377608283, 26.208786699290179 ] } },
{ "type": "Feature", "properties": { "P29_001": "47201", "P29_002": "H147320100124", "P29_003": "16016", "P29_004": "専門学校大育", "P29_005": "沖縄県那覇市大道88-5及び大道5-1", "P29_006": "4", "P29_007": "0", "P29_008": "00", "P29_009": null }, "geometry": { "type": "Point", "coordinates": [ 127.698347172055577, 26.220271157042919 ] } },
{ "type": "Feature", "properties": { "P29_001": "47201", "P29_002": "H147320100133", "P29_003": "16016", "P29_004": "専修学校インターナショナルリゾートカレッジ", "P29_005": "沖縄県那覇市金城5-8-6", "P29_006": "4", "P29_007": "0", "P29_008": "00", "P29_009": null }, "geometry": { "type": "Point", "coordinates": [ 127.666187501908766, 26.198150368143093 ] } },
{ "type": "Feature", "properties": { "P29_001": "47201", "P29_002": "H147320100142", "P29_003": "16016", "P29_004": "専修学校沖縄ペットワールド専門学校", "P29_005": "沖縄県那覇市東町19-20", "P29_006": "4", "P29_007": "0", "P29_008": "00", "P29_009": null }, "geometry": { "type": "Point", "coordinates": [ 127.673111222272681, 26.211983118007172 ] } },
{ "type": "Feature", "properties": { "P29_001": "47201", "P29_002": "H147320100151", "P29_003": "16016", "P29_004": "専修学校ビューティーモードカレッジ", "P29_005": "沖縄県那覇市東町23-5", "P29_006": "4", "P29_007": "0", "P29_008": "00", "P29_009": null }, "geometry": { "type": "Point", "coordinates": [ 127.673173582514551, 26.212892174659927 ] } },
{ "type": "Feature", "properties": { "P29_001": "47201", "P29_002": "H147320100160", "P29_003": "16016", "P29_004": "育英義塾教員養成学院", "P29_005": "沖縄県那覇市上之屋403-5", "P29_006": "4", "P29_007": "0", "P29_008": "00", "P29_009": null }, "geometry": { "type": "Point", "coordinates": [ 127.68451244266673, 26.229904725946039 ] } },
{ "type": "Feature", "properties": { "P29_001": "47201", "P29_002": "H147320100179", "P29_003": "16016", "P29_004": "沖縄情報経理専門学校那覇校", "P29_005": "沖縄県那覇市泊2-1-8", "P29_006": "4", "P29_007": "0", "P29_008": "00", "P29_009": null }, "geometry": { "type": "Point", "coordinates": [ 127.686313149239865, 26.223253116544825 ] } },
{ "type": "Feature", "properties": { "P29_001": "47201", "P29_002": "H147320100188", "P29_003": "16016", "P29_004": "学校法人南西学園サイ・テク・カレッジ那覇", "P29_005": "沖縄県那覇市天久2-1-13", "P29_006": "4", "P29_007": "0", "P29_008": "00", "P29_009": null }, "geometry": { "type": "Point", "coordinates": [ 127.687211597153606, 26.23048964013179 ] } },
{ "type": "Feature", "properties": { "P29_001": "47201", "P29_002": "H147320100197", "P29_003": "16016", "P29_004": "専門学校ＩＴカレッジ沖縄", "P29_005": "沖縄県那覇市樋川1-1-77", "P29_006": "4", "P29_007": "0", "P29_008": "00", "P29_009": null }, "geometry": { "type": "Point", "coordinates": [ 127.68605764529859, 26.21066451511841 ] } },
{ "type": "Feature", "properties": { "P29_001": "47201", "P29_002": "H147320100204", "P29_003": "16016", "P29_004": "尚学院　国際ビジネスアカデミー", "P29_005": "沖縄県那覇市泊2-17-4", "P29_006": "4", "P29_007": "0", "P29_008": "00", "P29_009": null }, "geometry": { "type": "Point", "coordinates": [ 127.686443952405668, 26.226477303734423 ] } },
{ "type": "Feature", "properties": { "P29_001": "47201", "P29_002": "H147320100213", "P29_003": "16016", "P29_004": "大育理容美容専門学校", "P29_005": "沖縄県那覇市大道5-1", "P29_006": "4", "P29_007": "0", "P29_008": "00", "P29_009": null }, "geometry": { "type": "Point", "coordinates": [ 127.699392618377104, 26.221274655879267 ] } },
{ "type": "Feature", "properties": { "P29_001": "47201", "P29_002": "H147320100222", "P29_003": "16016", "P29_004": "専修学校エルケア医療保育専門学校", "P29_005": "沖縄県那覇市旭町114-5", "P29_006": "4", "P29_007": "0", "P29_008": "00", "P29_009": null }, "geometry": { "type": "Point", "coordinates": [ 127.677073154173641, 26.208849724371607 ] } },
{ "type": "Feature", "properties": { "P29_001": "47201", "P29_002": "H147320100231", "P29_003": "16016", "P29_004": "専門学校ライフジュニアカレッジ", "P29_005": "沖縄県那覇市辻1-1-28", "P29_006": "4", "P29_007": "0", "P29_008": "00", "P29_009": null }, "geometry": { "type": "Point", "coordinates": [ 127.671000003536122, 26.215010002541156 ] } },
{ "type": "Feature", "properties": { "P29_001": "47201", "P29_002": "H147320100240", "P29_003": "16016", "P29_004": "北九州予備校　沖縄校", "P29_005": "沖縄県那覇市安里102", "P29_006": "4", "P29_007": "0", "P29_008": "00", "P29_009": null }, "geometry": { "type": "Point", "coordinates": [ 127.691514528910204, 26.220255874994013 ] } },
{ "type": "Feature", "properties": { "P29_001": "47201", "P29_002": "H147320100259", "P29_003": "16016", "P29_004": "スペースチャイナ外語学院", "P29_005": "沖縄県那覇市天久2-29-25", "P29_006": "4", "P29_007": "0", "P29_008": "00", "P29_009": null }, "geometry": { "type": "Point", "coordinates": [ 127.689329999865976, 26.234829998003431 ] } },
{ "type": "Feature", "properties": { "P29_001": "47201", "P29_002": "H147320100268", "P29_003": "16016", "P29_004": "沖縄こども専門学校", "P29_005": "沖縄県那覇市泊1-38-1", "P29_006": "4", "P29_007": "0", "P29_008": "00", "P29_009": null }, "geometry": { "type": "Point", "coordinates": [ 127.689295997585361, 26.224350998904107 ] } },
{ "type": "Feature", "properties": { "P29_001": "47201", "P29_002": "H147320100277", "P29_003": "16016", "P29_004": "沖縄ブライダルアンドホテル観光専門学校", "P29_005": "沖縄県那覇市泊1-38-1", "P29_006": "4", "P29_007": "0", "P29_008": "00", "P29_009": null }, "geometry": { "type": "Point", "coordinates": [ 127.689299745855209, 26.224293010339007 ] } },
{ "type": "Feature", "properties": { "P29_001": "47201", "P29_002": "H147320100286", "P29_003": "16016", "P29_004": "沖縄ラフ＆ピース専門学校", "P29_005": "沖縄県那覇市松尾2-1-29", "P29_006": "4", "P29_007": "0", "P29_008": "00", "P29_009": null }, "geometry": { "type": "Point", "coordinates": [ 127.684143368434334, 26.214433845956211 ] } },
{ "type": "Feature", "properties": { "P29_001": "47201", "P29_002": "H147320100295", "P29_003": "16016", "P29_004": "沖縄ビューティーアート専門学校", "P29_005": "沖縄県那覇市上之屋1-3-13", "P29_006": "4", "P29_007": "0", "P29_008": "00", "P29_009": null }, "geometry": { "type": "Point", "coordinates": [ 127.688156004200152, 26.227150996144484 ] } },
{ "type": "Feature", "properties": { "P29_001": "47201", "P29_002": "H147320100302", "P29_003": "16016", "P29_004": "沖縄リゾートアンドスポーツ専門学校", "P29_005": "沖縄県那覇市上之屋1-3-13", "P29_006": "4", "P29_007": "0", "P29_008": "00", "P29_009": null }, "geometry": { "type": "Point", "coordinates": [ 127.688129998924495, 26.226950002510431 ] } },
{ "type": "Feature", "properties": { "P29_001": "47201", "P29_002": "H147320100320", "P29_003": "16016", "P29_004": "尚学院公務員法律専門学校", "P29_005": "沖縄県那覇市泊2-16-3", "P29_006": "4", "P29_007": "0", "P29_008": "00", "P29_009": null }, "geometry": { "type": "Point", "coordinates": [ 127.686136124563859, 26.226829661158092 ] } },
{ "type": "Feature", "properties": { "P29_001": "47201", "P29_002": "H147320100339", "P29_003": "16016", "P29_004": "専修学校那覇尚学院", "P29_005": "沖縄県那覇市泊2-16-3-1階・2階・3階", "P29_006": "4", "P29_007": "0", "P29_008": "00", "P29_009": null }, "geometry": { "type": "Point", "coordinates": [ 127.686387935430233, 26.226433595667324 ] } },
{ "type": "Feature", "properties": { "P29_001": "47201", "P29_002": "H147320100348", "P29_003": "16016", "P29_004": "大智国際ビジネス専門学校", "P29_005": "沖縄県那覇市上之屋1-10-2", "P29_006": "4", "P29_007": "0", "P29_008": "00", "P29_009": null }, "geometry": { "type": "Point", "coordinates": [ 127.686305101140675, 26.227591963232342 ] } },
{ "type": "Feature", "properties": { "P29_001": "47205", "P29_002": "H147320500013", "P29_003": "16016", "P29_004": "パシフィックテクノカレッジ学院", "P29_005": "沖縄県宜野湾市真志喜3-29-1", "P29_006": "4", "P29_007": "0", "P29_008": "00", "P29_009": null }, "geometry": { "type": "Point", "coordinates": [ 127.732753803844233, 26.277569366221861 ] } },
{ "type": "Feature", "properties": { "P29_001": "47205", "P29_002": "H147320500022", "P29_003": "16016", "P29_004": "専修学校育成保育カレッジ学院", "P29_005": "沖縄県宜野湾市字宇地泊548", "P29_006": "4", "P29_007": "0", "P29_008": "00", "P29_009": null }, "geometry": { "type": "Point", "coordinates": [ 127.728548073399779, 26.267937258854097 ] } },
{ "type": "Feature", "properties": { "P29_001": "47205", "P29_002": "H147320500031", "P29_003": "16016", "P29_004": "沖縄ホテル観光専門学校", "P29_005": "沖縄県宜野湾市大山7-9-8", "P29_006": "4", "P29_007": "0", "P29_008": "00", "P29_009": null }, "geometry": { "type": "Point", "coordinates": [ 127.74539900390225, 26.284667996302062 ] } },
{ "type": "Feature", "properties": { "P29_001": "47205", "P29_002": "H147320500040", "P29_003": "16016", "P29_004": "沖縄医療工学院", "P29_005": "沖縄県宜野湾市大山7-9-8", "P29_006": "4", "P29_007": "0", "P29_008": "00", "P29_009": null }, "geometry": { "type": "Point", "coordinates": [ 127.745266848323411, 26.284853515974586 ] } },
{ "type": "Feature", "properties": { "P29_001": "47208", "P29_002": "H147320800010", "P29_003": "16016", "P29_004": "琉球調理師専修学校", "P29_005": "沖縄県浦添市宮城5-2-3", "P29_006": "4", "P29_007": "0", "P29_008": "00", "P29_009": null }, "geometry": { "type": "Point", "coordinates": [ 127.704994308170626, 26.241804950777226 ] } },
{ "type": "Feature", "properties": { "P29_001": "47208", "P29_002": "H147320800029", "P29_003": "16016", "P29_004": "沖縄歯科衛生士学校", "P29_005": "沖縄県浦添市港川1-36-3", "P29_006": "4", "P29_007": "0", "P29_008": "00", "P29_009": null }, "geometry": { "type": "Point", "coordinates": [ 127.720332210293179, 26.2612627331136 ] } },
{ "type": "Feature", "properties": { "P29_001": "47208", "P29_002": "H147320800038", "P29_003": "16016", "P29_004": "専修学校インターナショナルデザインアカデミー", "P29_005": "沖縄県浦添市牧港1-60-14", "P29_006": "4", "P29_007": "0", "P29_008": "00", "P29_009": null }, "geometry": { "type": "Point", "coordinates": [ 127.719302283529217, 26.267133599245895 ] } },
{ "type": "Feature", "properties": { "P29_001": "47208", "P29_002": "H147320800047", "P29_003": "16016", "P29_004": "ＪＳＬインターナショナルカレッジ", "P29_005": "沖縄県浦添市仲西1-1-1", "P29_006": "4", "P29_007": "0", "P29_008": "00", "P29_009": null }, "geometry": { "type": "Point", "coordinates": [ 127.700467431112358, 26.249320730957567 ] } },
{ "type": "Feature", "properties": { "P29_001": "47208", "P29_002": "H147320800056", "P29_003": "16016", "P29_004": "学校法人湘央学園浦添看護学校", "P29_005": "沖縄県浦添市当山2-30-1", "P29_006": "4", "P29_007": "0", "P29_008": "00", "P29_009": null }, "geometry": { "type": "Point", "coordinates": [ 127.734330000594042, 26.253280002675968 ] } },
{ "type": "Feature", "properties": { "P29_001": "47208", "P29_002": "H147320800065", "P29_003": "16016", "P29_004": "専門学校沖縄統合医療学院", "P29_005": "沖縄県浦添市伊祖4-1-19", "P29_006": "4", "P29_007": "0", "P29_008": "00", "P29_009": null }, "geometry": { "type": "Point", "coordinates": [ 127.720144457285144, 26.25424353592744 ] } },
{ "type": "Feature", "properties": { "P29_001": "47209", "P29_002": "H147320900019", "P29_003": "16016", "P29_004": "北部地区医師会北部看護学校", "P29_005": "沖縄県名護市字為又1219-91", "P29_006": "4", "P29_007": "0", "P29_008": "00", "P29_009": null }, "geometry": { "type": "Point", "coordinates": [ 127.971773512374526, 26.612618381106763 ] } },
{ "type": "Feature", "properties": { "P29_001": "47209", "P29_002": "H147320900028", "P29_003": "16016", "P29_004": "沖縄情報経理専門学校名護校", "P29_005": "沖縄県名護市宇茂佐915-11", "P29_006": "4", "P29_007": "0", "P29_008": "00", "P29_009": null }, "geometry": { "type": "Point", "coordinates": [ 127.964164927567765, 26.596706525406386 ] } },
{ "type": "Feature", "properties": { "P29_001": "47211", "P29_002": "H147321100015", "P29_003": "16016", "P29_004": "沖縄情報経理専門学校", "P29_005": "沖縄県沖縄市仲宗根町8-11", "P29_006": "4", "P29_007": "0", "P29_008": "00", "P29_009": null }, "geometry": { "type": "Point", "coordinates": [ 127.803831155868366, 26.335669250056693 ] } },
{ "type": "Feature", "properties": { "P29_001": "47211", "P29_002": "H147321100024", "P29_003": "16016", "P29_004": "ＣＳＣコンピューター学院中部校", "P29_005": "沖縄県沖縄市室川1-1-10", "P29_006": "4", "P29_007": "0", "P29_008": "00", "P29_009": null }, "geometry": { "type": "Point", "coordinates": [ 127.806357576051056, 26.337366607367183 ] } },
{ "type": "Feature", "properties": { "P29_001": "47211", "P29_002": "H147321100042", "P29_003": "16016", "P29_004": "中部美容専門学校", "P29_005": "沖縄県沖縄市比屋根1-10-2", "P29_006": "4", "P29_007": "0", "P29_008": "00", "P29_009": null }, "geometry": { "type": "Point", "coordinates": [ 127.823965287739, 26.316183144096765 ] } },
{ "type": "Feature", "properties": { "P29_001": "47211", "P29_002": "H147321100051", "P29_003": "16016", "P29_004": "専門学校日経ビジネス", "P29_005": "沖縄県沖縄市諸見里1-25-1", "P29_006": "4", "P29_007": "0", "P29_008": "00", "P29_009": null }, "geometry": { "type": "Point", "coordinates": [ 127.79427344363539, 26.329379445756299 ] } },
{ "type": "Feature", "properties": { "P29_001": "47212", "P29_002": "H147321200014", "P29_003": "16016", "P29_004": "那覇市医師会那覇看護専門学校", "P29_005": "沖縄県豊見城市字渡橋名289-23", "P29_006": "4", "P29_007": "0", "P29_008": "00", "P29_009": null }, "geometry": { "type": "Point", "coordinates": [ 127.668423073008228, 26.162813753690255 ] } },
{ "type": "Feature", "properties": { "P29_001": "47212", "P29_002": "H147321200023", "P29_003": "16016", "P29_004": "沖縄アカデミー専門学校", "P29_005": "沖縄県豊見城市字真玉橋387-1", "P29_006": "4", "P29_007": "0", "P29_008": "00", "P29_009": null }, "geometry": { "type": "Point", "coordinates": [ 127.696278010437496, 26.19066025064906 ] } },
{ "type": "Feature", "properties": { "P29_001": "47213", "P29_002": "H147321300013", "P29_003": "16016", "P29_004": "海邦電子ビジネス専門学校", "P29_005": "沖縄県うるま市赤道360-2", "P29_006": "4", "P29_007": "0", "P29_008": "00", "P29_009": null }, "geometry": { "type": "Point", "coordinates": [ 127.829851847990852, 26.357082043064722 ] } },
{ "type": "Feature", "properties": { "P29_001": "47213", "P29_002": "H147321300022", "P29_003": "16016", "P29_004": "中部地区医師会立ぐしかわ看護専門学校", "P29_005": "沖縄県うるま市字昆布長尾原1832-1", "P29_006": "4", "P29_007": "0", "P29_008": "00", "P29_009": null }, "geometry": { "type": "Point", "coordinates": [ 127.839878339502178, 26.39859730927548 ] } },
{ "type": "Feature", "properties": { "P29_001": "47215", "P29_002": "H147321500011", "P29_003": "16016", "P29_004": "沖縄国際学院高等専修学校", "P29_005": "沖縄県南城市玉城字富里143", "P29_006": "4", "P29_007": "0", "P29_008": "00", "P29_009": null }, "geometry": { "type": "Point", "coordinates": [ 127.766903446702543, 26.144302757543706 ] } },
{ "type": "Feature", "properties": { "P29_001": "47215", "P29_002": "H147321500020", "P29_003": "16016", "P29_004": "高等専修学校珊瑚舎スコーレ高等部", "P29_005": "沖縄県南城市佐敷字津波古兼久原509-4", "P29_006": "4", "P29_007": "0", "P29_008": "00", "P29_009": null }, "geometry": { "type": "Point", "coordinates": [ 127.778319573754104, 26.183775512453092 ] } },
{ "type": "Feature", "properties": { "P29_001": "47314", "P29_002": "H147331400011", "P29_003": "16016", "P29_004": "専門学校琉球リハビリテーション学院", "P29_005": "沖縄県国頭郡金武町金武4348-2", "P29_006": "4", "P29_007": "0", "P29_008": "00", "P29_009": null }, "geometry": { "type": "Point", "coordinates": [ 127.912633483068888, 26.449687721358139 ] } },
{ "type": "Feature", "properties": { "P29_001": "47326", "P29_002": "H147332600017", "P29_003": "16016", "P29_004": "専門学校沖縄中央学園", "P29_005": "沖縄県中頭郡北谷町伊平204", "P29_006": "4", "P29_007": "0", "P29_008": "00", "P29_009": null }, "geometry": { "type": "Point", "coordinates": [ 127.758281495573755, 26.322198030519761 ] } },
{ "type": "Feature", "properties": { "P29_001": "47326", "P29_002": "H147332600026", "P29_003": "16016", "P29_004": "専門学校沖縄ブライダルモード学園", "P29_005": "沖縄県中頭郡北谷町伊平204", "P29_006": "4", "P29_007": "0", "P29_008": "00", "P29_009": null }, "geometry": { "type": "Point", "coordinates": [ 127.758256268478377, 26.322234526562134 ] } },
{ "type": "Feature", "properties": { "P29_001": "47326", "P29_002": "H147332600035", "P29_003": "16016", "P29_004": "学校法人南西学園サイ・テク・カレッジ美浜", "P29_005": "沖縄県中頭郡北谷町美浜1-5-16", "P29_006": "4", "P29_007": "0", "P29_008": "00", "P29_009": null }, "geometry": { "type": "Point", "coordinates": [ 127.761497474892138, 26.313114074477721 ] } },
{ "type": "Feature", "properties": { "P29_001": "47327", "P29_002": "H147332700016", "P29_003": "16016", "P29_004": "ソーシャルワーク専門学校", "P29_005": "沖縄県中頭郡北中城村字屋宜原212-1", "P29_006": "4", "P29_007": "0", "P29_008": "00", "P29_009": null }, "geometry": { "type": "Point", "coordinates": [ 127.7911801344396, 26.312664138204923 ] } },
{ "type": "Feature", "properties": { "P29_001": "47348", "P29_002": "H147334800011", "P29_003": "16016", "P29_004": "医療法人おもと会沖縄リハビリテーション福祉学院", "P29_005": "沖縄県島尻郡与那原町板良敷1380-1", "P29_006": "4", "P29_007": "0", "P29_008": "00", "P29_009": null }, "geometry": { "type": "Point", "coordinates": [ 127.768130998913989, 26.192344996210601 ] } },
{ "type": "Feature", "properties": { "P29_001": "47348", "P29_002": "H147334800020", "P29_003": "16016", "P29_004": "学校法人おもと会沖縄看護専門学校", "P29_005": "沖縄県島尻郡与那原町字板良敷1380-1", "P29_006": "4", "P29_007": "0", "P29_008": "00", "P29_009": null }, "geometry": { "type": "Point", "coordinates": [ 127.767940005034831, 26.192489998258541 ] } }
]
}
