{
"type": "FeatureCollection",
"name": "geo_47_訪問看護",
"crs": { "type": "name", "properties": { "name": "urn:ogc:def:crs:OGC:1.3:CRS84" } },
"features": [
{ "type": "Feature", "properties": { "内容": "コモエスタ訪問看護ステーション【訪問看護】沖縄県那覇市首里石嶺町4丁目433", "url": "https://www.kaigokensaku.mhlw.go.jp/47/index.php?action_kouhyou_detail_004_kani=true&JigyosyoCd=4760190332-00&ServiceCd=130&Type=search", "url2": null }, "geometry": { "type": "Point", "coordinates": [ 127.736342700000023, 26.2312765 ] } },
{ "type": "Feature", "properties": { "内容": "医療法人　寿仁会　クリニック絆【訪問看護】沖縄県那覇市寄宮二丁目1-18　ユートピア沖縄２階", "url": "https://www.kaigokensaku.mhlw.go.jp/47/index.php?action_kouhyou_detail_004_kani=true&JigyosyoCd=4710117674-00&ServiceCd=130&Type=search", "url2": "http://www.utopia.jyujinkai.or.jp/" }, "geometry": { "type": "Point", "coordinates": [ 127.695650600000022, 26.2065802 ] } },
{ "type": "Feature", "properties": { "内容": "訪問看護ステーション道【訪問看護】沖縄県那覇市首里末吉町１丁目７８番地比嘉", "url": "https://www.kaigokensaku.mhlw.go.jp/47/index.php?action_kouhyou_detail_004_kani=true&JigyosyoCd=4760190233-00&ServiceCd=130&Type=search", "url2": "info@houkan-michi.com" }, "geometry": { "type": "Point", "coordinates": [ 127.7115893, 26.2282397 ] } },
{ "type": "Feature", "properties": { "内容": "はぴなす訪問看護ステーション那覇小禄【訪問看護】沖縄県那覇市田原1丁目17番1号", "url": "https://www.kaigokensaku.mhlw.go.jp/47/index.php?action_kouhyou_detail_004_kani=true&JigyosyoCd=4760190324-00&ServiceCd=130&Type=search", "url2": "http://www.hapinasu.co.jp/" }, "geometry": { "type": "Point", "coordinates": [ 127.668491799999956, 26.1993774 ] } },
{ "type": "Feature", "properties": { "内容": "合同会社縁　訪問看護ステーション　美ら【訪問看護】宇栄原１－１９－3具志さつき荘１０１", "url": "https://www.kaigokensaku.mhlw.go.jp/47/index.php?action_kouhyou_detail_004_kani=true&JigyosyoCd=4760190464-00&ServiceCd=130&Type=search", "url2": null }, "geometry": { "type": "Point", "coordinates": [ 127.6642925, 26.1903517 ] } },
{ "type": "Feature", "properties": { "内容": "訪問看護ステーションゆいゆい【訪問看護】沖縄県那覇市高良3-8-23眞浩商事ビル402号", "url": "https://www.kaigokensaku.mhlw.go.jp/47/index.php?action_kouhyou_detail_004_kani=true&JigyosyoCd=4760190365-00&ServiceCd=130&Type=search", "url2": "http://www.yuiyui-okinawa.com" }, "geometry": { "type": "Point", "coordinates": [ 127.659464600000021, 26.189319699999988 ] } },
{ "type": "Feature", "properties": { "内容": "サクラ訪問看護ステーション【訪問看護】安里2-4-29アパートメント国際り403", "url": "https://www.kaigokensaku.mhlw.go.jp/47/index.php?action_kouhyou_detail_004_kani=true&JigyosyoCd=4760190514-00&ServiceCd=130&Type=search", "url2": "https://sakura.thankslabyells.biz/" }, "geometry": { "type": "Point", "coordinates": [ 127.694814566693282, 26.218144731153298 ] } },
{ "type": "Feature", "properties": { "内容": "ほうもんかんごすてーしょん　しゃろーむ【訪問看護】牧志3丁目22-35グレイスハイム喜納Ⅲ　1階", "url": "https://www.kaigokensaku.mhlw.go.jp/47/index.php?action_kouhyou_detail_004_kani=true&JigyosyoCd=4760190712-00&ServiceCd=130&Type=search", "url2": "shalom.jc@jlu611.com" }, "geometry": { "type": "Point", "coordinates": [ 127.6935481, 26.2144052 ] } },
{ "type": "Feature", "properties": { "内容": "訪問看護ステーション夢【訪問看護】沖縄県那覇市首里石嶺町2丁目70番地29JK石嶺ハイツ101", "url": "https://www.kaigokensaku.mhlw.go.jp/47/index.php?action_kouhyou_detail_004_kani=true&JigyosyoCd=4760190282-00&ServiceCd=130&Type=search", "url2": "yumemira5585@trad.ocn.ne.jp" }, "geometry": { "type": "Point", "coordinates": [ 127.721019800000022, 26.219765899999988 ] } },
{ "type": "Feature", "properties": { "内容": "訪問看護ステーションとも【訪問看護】沖縄県那覇市松川450-1はばたけ協同住宅201", "url": "https://www.kaigokensaku.mhlw.go.jp/47/index.php?action_kouhyou_detail_004_kani=true&JigyosyoCd=4760190696-00&ServiceCd=130&Type=search", "url2": null }, "geometry": { "type": "Point", "coordinates": [ 127.7072992, 26.2204054 ] } },
{ "type": "Feature", "properties": { "内容": "訪問看護ステーション美ら【訪問看護】宇栄原1-19-3具志さつき荘101号", "url": "https://www.kaigokensaku.mhlw.go.jp/47/index.php?action_kouhyou_detail_004_kani=true&JigyosyoCd=4760190639-00&ServiceCd=130&Type=search", "url2": "http://kagayaki-tmr.com/" }, "geometry": { "type": "Point", "coordinates": [ 127.6642921, 26.1903544 ] } },
{ "type": "Feature", "properties": { "内容": "訪問看護　介【訪問看護】那覇市松川3-23-37", "url": "https://www.kaigokensaku.mhlw.go.jp/47/index.php?action_kouhyou_detail_004_kani=true&JigyosyoCd=4760190399-00&ServiceCd=130&Type=search", "url2": null }, "geometry": { "type": "Point", "coordinates": [ 127.7095589, 26.2155021 ] } },
{ "type": "Feature", "properties": { "内容": "訪問看護ステーションめぐみ小禄南【訪問看護】沖縄県那覇市高良２丁目９番６号", "url": "https://www.kaigokensaku.mhlw.go.jp/47/index.php?action_kouhyou_detail_004_kani=true&JigyosyoCd=4760190522-00&ServiceCd=130&Type=search", "url2": "http://megumi-care.com" }, "geometry": { "type": "Point", "coordinates": [ 127.6617773, 26.184344600000014 ] } },
{ "type": "Feature", "properties": { "内容": "訪問看護ステーションまーる【訪問看護】沖縄県那覇市上間481K・Kアパート201", "url": "https://www.kaigokensaku.mhlw.go.jp/47/index.php?action_kouhyou_detail_004_kani=true&JigyosyoCd=4760190613-00&ServiceCd=130&Type=search", "url2": "www.maru-okinawa.jp" }, "geometry": { "type": "Point", "coordinates": [ 127.7106638, 26.1986758 ] } },
{ "type": "Feature", "properties": { "内容": "訪問看護ステーション　KOKORO【訪問看護】沖縄県那覇市与儀１丁目8-16Ｔアパート　1階", "url": "https://www.kaigokensaku.mhlw.go.jp/47/index.php?action_kouhyou_detail_004_kani=true&JigyosyoCd=4760190886-00&ServiceCd=130&Type=search", "url2": "https://www.instagram.com/kokoro.kango?igsh=eDY5a3VzMXlxNGNq&utm_source=qr" }, "geometry": { "type": "Point", "coordinates": [ 127.6909807, 26.2047133 ] } },
{ "type": "Feature", "properties": { "内容": "訪問看護ステーションナチュレ首里【訪問看護】沖縄県那覇市首里山川町一丁目４３番地山川ビル１０２号室", "url": "https://www.kaigokensaku.mhlw.go.jp/47/index.php?action_kouhyou_detail_004_kani=true&JigyosyoCd=4760190779-00&ServiceCd=130&Type=search", "url2": "https://www.bimss.jp/" }, "geometry": { "type": "Point", "coordinates": [ 127.7130315, 26.220416 ] } },
{ "type": "Feature", "properties": { "内容": "訪問看護リハビリステーション　walkersbaseSORA【訪問看護】沖縄県那覇市与儀1丁目1番28号2階", "url": "https://www.kaigokensaku.mhlw.go.jp/47/index.php?action_kouhyou_detail_004_kani=true&JigyosyoCd=4760190852-00&ServiceCd=130&Type=search", "url2": "http://walkers-base.sun.bindcloud.jp/" }, "geometry": { "type": "Point", "coordinates": [ 127.6910344, 26.2058845 ] } },
{ "type": "Feature", "properties": { "内容": "訪問看護ステーションいのり【訪問看護】那覇市若狭1丁目18番11　コーポグランソロ101号コーポグランソロ101号", "url": "https://www.kaigokensaku.mhlw.go.jp/47/index.php?action_kouhyou_detail_004_kani=true&JigyosyoCd=4760190175-00&ServiceCd=130&Type=search", "url2": "http://teijuninori.com" }, "geometry": { "type": "Point", "coordinates": [ 127.67402190359644, 26.220738142499524 ] } },
{ "type": "Feature", "properties": { "内容": "訪問看護ｽﾃｰｼｮﾝ琉球の街【訪問看護】沖縄県那覇市国場８７２－４ｸﾞﾘｰﾝﾊﾟﾙ１０１", "url": "https://www.kaigokensaku.mhlw.go.jp/47/index.php?action_kouhyou_detail_004_kani=true&JigyosyoCd=4760190316-00&ServiceCd=130&Type=search", "url2": null }, "geometry": { "type": "Point", "coordinates": [ 127.698256500000085, 26.1991201 ] } },
{ "type": "Feature", "properties": { "内容": "ゆずりは訪問看護ステーション【訪問看護】沖縄県那覇市首里金城町三丁目32番地", "url": "https://www.kaigokensaku.mhlw.go.jp/47/index.php?action_kouhyou_detail_004_kani=true&JigyosyoCd=4760190373-00&ServiceCd=130&Type=search", "url2": "https://shinseikai.okinawa" }, "geometry": { "type": "Point", "coordinates": [ 127.7232057, 26.220071500000014 ] } },
{ "type": "Feature", "properties": { "内容": "訪問看護ステーション那覇かなぐすく【訪問看護】沖縄県那覇市金城5丁目11番6号小禄ガーデンビル1階", "url": "https://www.kaigokensaku.mhlw.go.jp/47/index.php?action_kouhyou_detail_004_kani=true&JigyosyoCd=4760190456-00&ServiceCd=130&Type=search", "url2": null }, "geometry": { "type": "Point", "coordinates": [ 127.6649821, 26.1951984 ] } },
{ "type": "Feature", "properties": { "内容": "トータルサポートの駅グリーンハウス訪問看護【訪問看護】沖縄県那覇市銘苅2丁目4-35ｱｰﾊﾞﾝﾌﾟﾗﾈｯﾄﾋﾞﾙ1F", "url": "https://www.kaigokensaku.mhlw.go.jp/47/index.php?action_kouhyou_detail_004_kani=true&JigyosyoCd=4760190498-00&ServiceCd=130&Type=search", "url2": "https://mg-group.co.jp/" }, "geometry": { "type": "Point", "coordinates": [ 127.7000244, 26.2309382 ] } },
{ "type": "Feature", "properties": { "内容": "セノーテ訪問看護那覇・沖縄エリア南部ステーション【訪問看護】沖縄県那覇市松島1丁目15-9グランフィル松島ビル302号室", "url": "https://www.kaigokensaku.mhlw.go.jp/47/index.php?action_kouhyou_detail_004_kani=true&JigyosyoCd=4760190589-00&ServiceCd=130&Type=search", "url2": "https://www.bgmgroup.co.jp" }, "geometry": { "type": "Point", "coordinates": [ 127.7036851, 26.2217877 ] } },
{ "type": "Feature", "properties": { "内容": "訪問看護ステーションさくら【訪問看護】沖縄県那覇市上間559‐1サンフェアリー毎日102", "url": "https://www.kaigokensaku.mhlw.go.jp/47/index.php?action_kouhyou_detail_004_kani=true&JigyosyoCd=4760190654-00&ServiceCd=130&Type=search", "url2": null }, "geometry": { "type": "Point", "coordinates": [ 127.7078565, 26.1972732 ] } },
{ "type": "Feature", "properties": { "内容": "訪問看護ステーションくもじ【訪問看護】沖縄県那覇市久茂地三丁目4番16号新垣ビル3-A", "url": "https://www.kaigokensaku.mhlw.go.jp/47/index.php?action_kouhyou_detail_004_kani=true&JigyosyoCd=4760190704-00&ServiceCd=130&Type=search", "url2": null }, "geometry": { "type": "Point", "coordinates": [ 127.6830286, 26.2147365 ] } },
{ "type": "Feature", "properties": { "内容": "訪問看護はる【訪問看護】沖縄県那覇市安謝1丁目3番9号眞榮城ビル1階", "url": "https://www.kaigokensaku.mhlw.go.jp/47/index.php?action_kouhyou_detail_004_kani=true&JigyosyoCd=4760190944-00&ServiceCd=130&Type=search", "url2": null }, "geometry": { "type": "Point", "coordinates": [ 127.693537699999979, 26.2335085 ] } },
{ "type": "Feature", "properties": { "内容": "訪問看護ステーションぴたさぽ【訪問看護】沖縄県那覇市国場32", "url": "https://www.kaigokensaku.mhlw.go.jp/47/index.php?action_kouhyou_detail_004_kani=true&JigyosyoCd=4760190274-00&ServiceCd=130&Type=search", "url2": "http://carepro.ryuseki-group.jp/" }, "geometry": { "type": "Point", "coordinates": [ 127.703164126983665, 26.195830768865918 ] } },
{ "type": "Feature", "properties": { "内容": "訪問看護ステーション　にこ【訪問看護】沖縄県那覇市おもろまち3丁目6番3号　愛和ビル3F愛和ビル3階", "url": "https://www.kaigokensaku.mhlw.go.jp/47/index.php?action_kouhyou_detail_004_kani=true&JigyosyoCd=4760190787-00&ServiceCd=130&Type=search", "url2": "aiwakai.jp" }, "geometry": { "type": "Point", "coordinates": [ 127.6945663, 26.2299843 ] } },
{ "type": "Feature", "properties": { "内容": "訪問看護ステーションゆんたく【訪問看護】沖縄県那覇市銘苅１丁目２番１号１０１", "url": "https://www.kaigokensaku.mhlw.go.jp/47/index.php?action_kouhyou_detail_004_kani=true&JigyosyoCd=4760190829-00&ServiceCd=130&Type=search", "url2": "https://www.yuntaku-okinawa.com/company" }, "geometry": { "type": "Point", "coordinates": [ 127.7009291, 26.228174 ] } },
{ "type": "Feature", "properties": { "内容": "ナースステーションしんらい那覇【訪問看護】沖縄県那覇市壺川2丁目１３－４６　1階", "url": "https://www.kaigokensaku.mhlw.go.jp/47/index.php?action_kouhyou_detail_004_kani=true&JigyosyoCd=4760190795-00&ServiceCd=130&Type=search", "url2": "https://hp.kaipoke.biz/1kp/index.html" }, "geometry": { "type": "Point", "coordinates": [ 127.6830632, 26.203068 ] } },
{ "type": "Feature", "properties": { "内容": "訪問看護ステーションかみはら【訪問看護】寄宮1丁目9番地の5", "url": "https://www.kaigokensaku.mhlw.go.jp/47/index.php?action_kouhyou_detail_004_kani=true&JigyosyoCd=4760190134-00&ServiceCd=130&Type=search", "url2": "http://www.omotokai.or.jp/" }, "geometry": { "type": "Point", "coordinates": [ 127.692922969311539, 26.210496823663387 ] } },
{ "type": "Feature", "properties": { "内容": "訪問看護ステーションクラセル小禄【訪問看護】沖縄県那覇市小禄1－1－12", "url": "https://www.kaigokensaku.mhlw.go.jp/47/index.php?action_kouhyou_detail_004_kani=true&JigyosyoCd=4760190720-00&ServiceCd=130&Type=search", "url2": "https://bestlife-okinawa.co.jp/" }, "geometry": { "type": "Point", "coordinates": [ 127.6772177, 26.1956765 ] } },
{ "type": "Feature", "properties": { "内容": "あいず訪問看護ステーション那覇【訪問看護】安謝1-18-20めぞねっとおかっぱ　みずいろ１", "url": "https://www.kaigokensaku.mhlw.go.jp/47/index.php?action_kouhyou_detail_004_kani=true&JigyosyoCd=4760190407-00&ServiceCd=130&Type=search", "url2": "https://www.aizu-company.co.jp/" }, "geometry": { "type": "Point", "coordinates": [ 127.6945513, 26.2366523 ] } },
{ "type": "Feature", "properties": { "内容": "訪問看護ステーション　はまむや【訪問看護】真地２０５番地スカイハイム102", "url": "https://www.kaigokensaku.mhlw.go.jp/47/index.php?action_kouhyou_detail_004_kani=true&JigyosyoCd=4760190167-00&ServiceCd=130&Type=search", "url2": "ｈｔｔｐ：//hamamuya.jimdo.com/" }, "geometry": { "type": "Point", "coordinates": [ 127.720184799999956, 26.2031674 ] } },
{ "type": "Feature", "properties": { "内容": "オリブ山訪問看護ステーション【訪問看護】沖縄県那覇市首里石嶺町１丁目１５１番地の５ネクスコート濱元１階", "url": "https://www.kaigokensaku.mhlw.go.jp/47/index.php?action_kouhyou_detail_004_kani=true&JigyosyoCd=4760190019-00&ServiceCd=130&Type=search", "url2": "http://www.oribuyama.org" }, "geometry": { "type": "Point", "coordinates": [ 127.728224933952461, 26.22540511780128 ] } },
{ "type": "Feature", "properties": { "内容": "小禄訪問看護ステーション【訪問看護】沖縄県那覇市字小禄547番地の1", "url": "https://www.kaigokensaku.mhlw.go.jp/47/index.php?action_kouhyou_detail_004_kani=true&JigyosyoCd=4760190043-00&ServiceCd=130&Type=search", "url2": "http://www.rokujukai.or.jp" }, "geometry": { "type": "Point", "coordinates": [ 127.676191227647436, 26.193337067461943 ] } },
{ "type": "Feature", "properties": { "内容": "訪問看護ステーションリカバリー沖縄【訪問看護】沖縄県那覇市安里367-5我謝ビル１階", "url": "https://www.kaigokensaku.mhlw.go.jp/47/index.php?action_kouhyou_detail_004_kani=true&JigyosyoCd=4760190217-00&ServiceCd=130&Type=search", "url2": "https://www.recovery-group.co.jp/" }, "geometry": { "type": "Point", "coordinates": [ 127.697166199999955, 26.2180623 ] } },
{ "type": "Feature", "properties": { "内容": "訪問看護ステーション　アレグリア【訪問看護】沖縄県那覇市与儀1丁目26番地6", "url": "https://www.kaigokensaku.mhlw.go.jp/47/index.php?action_kouhyou_detail_004_kani=true&JigyosyoCd=4760190225-00&ServiceCd=130&Type=search", "url2": "www.central.jyujinkai.or.jp" }, "geometry": { "type": "Point", "coordinates": [ 127.69635260000004, 26.2055134 ] } },
{ "type": "Feature", "properties": { "内容": "しなさき訪問看護ステーション【訪問看護】長田1丁目17番地5長田ハイツA棟101号室", "url": "https://www.kaigokensaku.mhlw.go.jp/47/index.php?action_kouhyou_detail_004_kani=true&JigyosyoCd=4760190241-00&ServiceCd=130&Type=search", "url2": "http://shinasaki.com/" }, "geometry": { "type": "Point", "coordinates": [ 127.701819800000067, 26.2031558 ] } },
{ "type": "Feature", "properties": { "内容": "訪問看護ステーション　エスタジオ小禄【訪問看護】那覇市宮城1-18-1エスタジオ小禄2階", "url": "https://www.kaigokensaku.mhlw.go.jp/47/index.php?action_kouhyou_detail_004_kani=true&JigyosyoCd=4760190357-00&ServiceCd=130&Type=search", "url2": null }, "geometry": { "type": "Point", "coordinates": [ 127.6577598, 26.187342 ] } },
{ "type": "Feature", "properties": { "内容": "ホウモンカンゴリハビリステーションハピネスフルジマ【訪問看護】沖縄県那覇市古島2-8-24", "url": "https://www.kaigokensaku.mhlw.go.jp/47/index.php?action_kouhyou_detail_004_kani=true&JigyosyoCd=4760190415-00&ServiceCd=130&Type=search", "url2": "https://social-action.group" }, "geometry": { "type": "Point", "coordinates": [ 127.7070481, 26.2263267 ] } },
{ "type": "Feature", "properties": { "内容": "あさひ訪問看護ステーション【訪問看護】沖縄県那覇市三原1丁目２４番地１０号コーポレス大湾１０２", "url": "https://www.kaigokensaku.mhlw.go.jp/47/index.php?action_kouhyou_detail_004_kani=true&JigyosyoCd=4760190472-00&ServiceCd=130&Type=search", "url2": null }, "geometry": { "type": "Point", "coordinates": [ 127.698788364418022, 26.21253592751664 ] } },
{ "type": "Feature", "properties": { "内容": "訪問看護ステーション　ちゅらぐくる【訪問看護】山下町１８－２６B１０３号", "url": "https://www.kaigokensaku.mhlw.go.jp/47/index.php?action_kouhyou_detail_004_kani=true&JigyosyoCd=4760190506-00&ServiceCd=130&Type=search", "url2": "https://web-coms.net/churagukuru/naha/" }, "geometry": { "type": "Point", "coordinates": [ 127.6731492, 26.2019765 ] } },
{ "type": "Feature", "properties": { "内容": "りゅうたん訪問看護ステーション【訪問看護】沖縄県那覇市首里池端10番地skyビル1階", "url": "https://www.kaigokensaku.mhlw.go.jp/47/index.php?action_kouhyou_detail_004_kani=true&JigyosyoCd=4760190597-00&ServiceCd=130&Type=search", "url2": "https://gladlife.co.jp/" }, "geometry": { "type": "Point", "coordinates": [ 127.7165648, 26.2203151 ] } },
{ "type": "Feature", "properties": { "内容": "訪問看護ステーションデイジー【訪問看護】那覇市首里石嶺町2-83-1宮平アパート2F", "url": "https://www.kaigokensaku.mhlw.go.jp/47/index.php?action_kouhyou_detail_004_kani=true&JigyosyoCd=4760190670-00&ServiceCd=130&Type=search", "url2": "https://daisy-ohanasaku.co.jp" }, "geometry": { "type": "Point", "coordinates": [ 127.7336305, 26.2237212 ] } },
{ "type": "Feature", "properties": { "内容": "訪問看護ステーションおもと園【訪問看護】天久1000番地ANNEX3F", "url": "https://www.kaigokensaku.mhlw.go.jp/47/index.php?action_kouhyou_detail_004_kani=true&JigyosyoCd=4760190977-00&ServiceCd=130&Type=search", "url2": "https://omotokai.or.jp/" }, "geometry": { "type": "Point", "coordinates": [ 127.689871, 26.2327955 ] } },
{ "type": "Feature", "properties": { "内容": "訪問看護ステーションなまくま【訪問看護】沖縄県那覇市安里三丁目１番４７号", "url": "https://www.kaigokensaku.mhlw.go.jp/47/index.php?action_kouhyou_detail_004_kani=true&JigyosyoCd=4760190985-00&ServiceCd=130&Type=search", "url2": null }, "geometry": { "type": "Point", "coordinates": [ 127.696198, 26.2191789 ] } },
{ "type": "Feature", "properties": { "内容": "アース訪問看護ステーション那覇【訪問看護】沖縄県那覇市久茂地１丁目4-15泉崎UFビル702号室", "url": "https://www.kaigokensaku.mhlw.go.jp/47/index.php?action_kouhyou_detail_004_kani=true&JigyosyoCd=4760190993-00&ServiceCd=130&Type=search", "url2": "https://earth-ocean.jp/lp_kango/" }, "geometry": { "type": "Point", "coordinates": [ 127.6768922, 26.2138119 ] } },
{ "type": "Feature", "properties": { "内容": "ゆいナースステーション【訪問看護】字松川534番地1101", "url": "https://www.kaigokensaku.mhlw.go.jp/47/index.php?action_kouhyou_detail_004_kani=true&JigyosyoCd=4760191017-00&ServiceCd=130&Type=search", "url2": "http://www.yui-nurse.jp" }, "geometry": { "type": "Point", "coordinates": [ 127.7114623, 26.2220927 ] } },
{ "type": "Feature", "properties": { "内容": "訪問看護ステーションうえま【訪問看護】沖縄県那覇市上間１丁目１７番１５号シティハウス友", "url": "https://www.kaigokensaku.mhlw.go.jp/47/index.php?action_kouhyou_detail_004_kani=true&JigyosyoCd=4760191025-00&ServiceCd=130&Type=search", "url2": null }, "geometry": { "type": "Point", "coordinates": [ 127.7089369, 26.2014571 ] } },
{ "type": "Feature", "properties": { "内容": "訪問看護ステーションはっぴー那覇【訪問看護】沖縄県那覇市真嘉比3-2-18　グランデュール古島駅前1階", "url": "https://www.kaigokensaku.mhlw.go.jp/47/index.php?action_kouhyou_detail_004_kani=true&JigyosyoCd=4760191074-00&ServiceCd=130&Type=search", "url2": "https://www.happy-fukushi.okinawa/" }, "geometry": { "type": "Point", "coordinates": [ 127.7056973, 26.2241424 ] } },
{ "type": "Feature", "properties": { "内容": "訪問看護ステーションウェルビー沖縄首里【訪問看護】首里石嶺町4丁目197番ウェルビーメディハウス沖縄首里", "url": "https://www.kaigokensaku.mhlw.go.jp/47/index.php?action_kouhyou_detail_004_kani=true&JigyosyoCd=4760191116-00&ServiceCd=130&Type=search", "url2": "https://welbe-nursing.co.jp" }, "geometry": { "type": "Point", "coordinates": [ 127.7315024, 26.2354569 ] } },
{ "type": "Feature", "properties": { "内容": "大名訪問看護ステーション【訪問看護】沖縄県那覇市首里大名町１丁目43番地２", "url": "https://www.kaigokensaku.mhlw.go.jp/47/index.php?action_kouhyou_detail_004_kani=true&JigyosyoCd=4760190084-00&ServiceCd=130&Type=search", "url2": "http://www.yuunanokai.or.jp" }, "geometry": { "type": "Point", "coordinates": [ 127.711036299999918, 26.2322253 ] } },
{ "type": "Feature", "properties": { "内容": "訪問看護ステーション一日橋【訪問看護】沖縄県那覇市上間344番地の1グレイスハイム207号", "url": "https://www.kaigokensaku.mhlw.go.jp/47/index.php?action_kouhyou_detail_004_kani=true&JigyosyoCd=4760190118-00&ServiceCd=130&Type=search", "url2": "https://carenet.okinawa/" }, "geometry": { "type": "Point", "coordinates": [ 127.7147906080734, 26.197946915466453 ] } },
{ "type": "Feature", "properties": { "内容": "訪問看護ステーション未来【訪問看護】沖縄県那覇市泉崎2-22-9メゾン泉101号", "url": "https://www.kaigokensaku.mhlw.go.jp/47/index.php?action_kouhyou_detail_004_kani=true&JigyosyoCd=4760190803-00&ServiceCd=130&Type=search", "url2": "https:www.mirai-0401-2023.com/" }, "geometry": { "type": "Point", "coordinates": [ 127.6818138, 26.2088519 ] } },
{ "type": "Feature", "properties": { "内容": "コツヨシ訪問看護ステーション【訪問看護】沖縄県那覇市樋川2-2-18　Ⅰ階", "url": "https://www.kaigokensaku.mhlw.go.jp/47/index.php?action_kouhyou_detail_004_kani=true&JigyosyoCd=4760190860-00&ServiceCd=130&Type=search", "url2": "https://kotuyosi-houkan.com/" }, "geometry": { "type": "Point", "coordinates": [ 127.6893498, 26.2106773 ] } },
{ "type": "Feature", "properties": { "内容": "livewell訪問看護【訪問看護】沖縄県那覇市真嘉比3丁目7-9Olive101号室", "url": "https://www.kaigokensaku.mhlw.go.jp/47/index.php?action_kouhyou_detail_004_kani=true&JigyosyoCd=4760190878-00&ServiceCd=130&Type=search", "url2": "https://www.livewell-houkan.com/" }, "geometry": { "type": "Point", "coordinates": [ 127.705718900000022, 26.2255553 ] } },
{ "type": "Feature", "properties": { "内容": "すてっぷ訪問看護ステーションなは【訪問看護】沖縄県那覇市繁多川１−１−１２", "url": "https://www.kaigokensaku.mhlw.go.jp/47/index.php?action_kouhyou_detail_004_kani=true&JigyosyoCd=4760190936-00&ServiceCd=130&Type=search", "url2": "https://libertystep.net/" }, "geometry": { "type": "Point", "coordinates": [ 127.7045767, 26.211747 ] } },
{ "type": "Feature", "properties": { "内容": "訪問看護ステーションPonoHana【訪問看護】沖縄県那覇市長田2丁目22番1号ﾐﾔｼﾝ22102号", "url": "https://www.kaigokensaku.mhlw.go.jp/47/index.php?action_kouhyou_detail_004_kani=true&JigyosyoCd=4760190951-00&ServiceCd=130&Type=search", "url2": "https://grit-care.com" }, "geometry": { "type": "Point", "coordinates": [ 127.7030579, 26.2049135 ] } },
{ "type": "Feature", "properties": { "内容": "らっぴんハート訪問看護【訪問看護】沖縄県宜野湾市伊佐2丁目4番30号CASA　DE　KOHA", "url": "https://www.kaigokensaku.mhlw.go.jp/47/index.php?action_kouhyou_detail_004_kani=true&JigyosyoCd=4760590143-00&ServiceCd=130&Type=search", "url2": null }, "geometry": { "type": "Point", "coordinates": [ 127.7554688, 26.2866199 ] } },
{ "type": "Feature", "properties": { "内容": "訪問看護ステーションOneStep【訪問看護】沖縄県宜野湾市志真志3-5-8", "url": "https://www.kaigokensaku.mhlw.go.jp/47/index.php?action_kouhyou_detail_004_kani=true&JigyosyoCd=4760590150-00&ServiceCd=130&Type=search", "url2": "http://www.wind-onestep.com" }, "geometry": { "type": "Point", "coordinates": [ 127.7638847, 26.2563702 ] } },
{ "type": "Feature", "properties": { "内容": "訪問看護ステーションみかん【訪問看護】沖縄県宜野湾市嘉数2丁目２番1号　２Ｆ", "url": "https://www.kaigokensaku.mhlw.go.jp/47/index.php?action_kouhyou_detail_004_kani=true&JigyosyoCd=4760590069-00&ServiceCd=130&Type=search", "url2": "mikan-orenji.com/mikan/kangost" }, "geometry": { "type": "Point", "coordinates": [ 127.739588499999954, 26.2551297 ] } },
{ "type": "Feature", "properties": { "内容": "訪問看護ステーション桃の花【訪問看護】沖縄県宜野湾市大謝名1丁目19番37号松山アパート102号", "url": "https://www.kaigokensaku.mhlw.go.jp/47/index.php?action_kouhyou_detail_004_kani=true&JigyosyoCd=4760590135-00&ServiceCd=130&Type=search", "url2": null }, "geometry": { "type": "Point", "coordinates": [ 127.7374506, 26.2675833 ] } },
{ "type": "Feature", "properties": { "内容": "訪問看護ステーションはな宜野湾【訪問看護】沖縄県宜野湾市真栄原1丁目11‐2101", "url": "https://www.kaigokensaku.mhlw.go.jp/47/index.php?action_kouhyou_detail_004_kani=true&JigyosyoCd=4760590200-00&ServiceCd=130&Type=search", "url2": "hana-gr.com" }, "geometry": { "type": "Point", "coordinates": [ 127.7429728, 26.2592524 ] } },
{ "type": "Feature", "properties": { "内容": "訪問看護ステーションかいほう【訪問看護】宜野湾市真志喜2-22-2", "url": "https://www.kaigokensaku.mhlw.go.jp/47/index.php?action_kouhyou_detail_004_kani=true&JigyosyoCd=4760590002-00&ServiceCd=130&Type=search", "url2": "https://www.kaiho.or.jp/riha/houmonkango.html" }, "geometry": { "type": "Point", "coordinates": [ 127.737606393254083, 26.276691440379594 ] } },
{ "type": "Feature", "properties": { "内容": "訪問看護ステーションぎのわん【訪問看護】沖縄県宜野湾市宜野湾３－３－１３", "url": "https://www.kaigokensaku.mhlw.go.jp/47/index.php?action_kouhyou_detail_004_kani=true&JigyosyoCd=4760590010-00&ServiceCd=130&Type=search", "url2": "http://www.ginowan-kinen.or.jp" }, "geometry": { "type": "Point", "coordinates": [ 127.7584392, 26.259992 ] } },
{ "type": "Feature", "properties": { "内容": "訪問看護ステーションふたふぁ【訪問看護】沖縄県宜野湾市我如古3丁目20番14号", "url": "https://www.kaigokensaku.mhlw.go.jp/47/index.php?action_kouhyou_detail_004_kani=true&JigyosyoCd=4760590127-00&ServiceCd=130&Type=search", "url2": "futafa.com" }, "geometry": { "type": "Point", "coordinates": [ 127.755406499999935, 26.2518803 ] } },
{ "type": "Feature", "properties": { "内容": "ゆずりは訪問看護ステーション宜野湾【訪問看護】沖縄県宜野湾市我如古4丁目11番1号", "url": "https://www.kaigokensaku.mhlw.go.jp/47/index.php?action_kouhyou_detail_004_kani=true&JigyosyoCd=4760590515-00&ServiceCd=130&Type=search", "url2": "https://shinseikai.okinawa/" }, "geometry": { "type": "Point", "coordinates": [ 127.751143027274097, 26.255735699084752 ] } },
{ "type": "Feature", "properties": { "内容": "訪問看護ステーションCOMPASS【訪問看護】沖縄県宜野湾市嘉数4-4-10", "url": "https://www.kaigokensaku.mhlw.go.jp/47/index.php?action_kouhyou_detail_004_kani=true&JigyosyoCd=4760590549-00&ServiceCd=130&Type=search", "url2": null }, "geometry": { "type": "Point", "coordinates": [ 127.7328904, 26.2621197 ] } },
{ "type": "Feature", "properties": { "内容": "訪問看護ステーション　カルぺ・ディエム【訪問看護】沖縄県宜野湾市真栄原2－15－29", "url": "https://www.kaigokensaku.mhlw.go.jp/47/index.php?action_kouhyou_detail_004_kani=true&JigyosyoCd=4760590101-00&ServiceCd=130&Type=search", "url2": "http://www.carpe.okinawa/" }, "geometry": { "type": "Point", "coordinates": [ 127.739404899999954, 26.2608736 ] } },
{ "type": "Feature", "properties": { "内容": "トータルサポートセンター　よつ葉　指定訪問看護ステーション【訪問看護】沖縄県宜野湾市志真志4-2-2富士建設ビル2F", "url": "https://www.kaigokensaku.mhlw.go.jp/47/index.php?action_kouhyou_detail_004_kani=true&JigyosyoCd=4760590119-00&ServiceCd=130&Type=search", "url2": null }, "geometry": { "type": "Point", "coordinates": [ 127.758681928981801, 26.259085018106436 ] } },
{ "type": "Feature", "properties": { "内容": "訪問看護ステーション　ハートツリー【訪問看護】沖縄県宜野湾市長田三丁目12番18号ウインドヒル1階", "url": "https://www.kaigokensaku.mhlw.go.jp/47/index.php?action_kouhyou_detail_004_kani=true&JigyosyoCd=4760590184-00&ServiceCd=130&Type=search", "url2": "https://www.heartsrainbow.com" }, "geometry": { "type": "Point", "coordinates": [ 127.7686681, 26.2623476 ] } },
{ "type": "Feature", "properties": { "内容": "ライフアート訪問看護ステーション宜野湾【訪問看護】沖縄県宜野湾市真志喜三丁目5番12号マンションAki107号室", "url": "https://www.kaigokensaku.mhlw.go.jp/47/index.php?action_kouhyou_detail_004_kani=true&JigyosyoCd=4760590234-00&ServiceCd=130&Type=search", "url2": "https://lifeart.co.jp" }, "geometry": { "type": "Point", "coordinates": [ 127.7375637, 26.2722757 ] } },
{ "type": "Feature", "properties": { "内容": "訪問看護ステーション　ファミリー【訪問看護】佐真下74仲里アパート101", "url": "https://www.kaigokensaku.mhlw.go.jp/47/index.php?action_kouhyou_detail_004_kani=true&JigyosyoCd=4760590242-00&ServiceCd=130&Type=search", "url2": null }, "geometry": { "type": "Point", "coordinates": [ 127.7508396, 26.2618914 ] } },
{ "type": "Feature", "properties": { "内容": "訪問看護ステーションうみがめ【訪問看護】普天間一丁目7-3-603", "url": "https://www.kaigokensaku.mhlw.go.jp/47/index.php?action_kouhyou_detail_004_kani=true&JigyosyoCd=4760590507-00&ServiceCd=130&Type=search", "url2": "https://umigamestation.jimdofree.com" }, "geometry": { "type": "Point", "coordinates": [ 127.7787914, 26.2894712 ] } },
{ "type": "Feature", "properties": { "内容": "訪問看護ステーションあんじゅ【訪問看護】石垣市真栄里558-7サザンリッチ先嶋103号", "url": "https://www.kaigokensaku.mhlw.go.jp/47/index.php?action_kouhyou_detail_004_kani=true&JigyosyoCd=4760790040-00&ServiceCd=130&Type=search", "url2": null }, "geometry": { "type": "Point", "coordinates": [ 124.179324, 24.3399509 ] } },
{ "type": "Feature", "properties": { "内容": "訪問看護ステーション　てっとめ【訪問看護】沖縄県石垣市登野城364-2　1階", "url": "https://www.kaigokensaku.mhlw.go.jp/47/index.php?action_kouhyou_detail_004_kani=true&JigyosyoCd=4760790073-00&ServiceCd=130&Type=search", "url2": null }, "geometry": { "type": "Point", "coordinates": [ 124.1639073, 24.3400146 ] } },
{ "type": "Feature", "properties": { "内容": "プライマリー訪問看護リハビリステーション石垣【訪問看護】沖縄県石垣市新川３８番地の２", "url": "https://www.kaigokensaku.mhlw.go.jp/47/index.php?action_kouhyou_detail_004_kani=true&JigyosyoCd=4760790065-00&ServiceCd=130&Type=search", "url2": null }, "geometry": { "type": "Point", "coordinates": [ 124.1535207, 24.3445722 ] } },
{ "type": "Feature", "properties": { "内容": "訪問看護ステーションかりゆし【訪問看護】沖縄県石垣市字新川2124番地", "url": "https://www.kaigokensaku.mhlw.go.jp/47/index.php?action_kouhyou_detail_004_kani=true&JigyosyoCd=4760790057-00&ServiceCd=130&Type=search", "url2": "https://www.kariyushi-hp.com/" }, "geometry": { "type": "Point", "coordinates": [ 124.141459400000045, 24.3613277 ] } },
{ "type": "Feature", "properties": { "内容": "訪問看護ステーション　すたいる【訪問看護】沖縄県石垣市浜崎町3－3－9コーラルケアガーデン", "url": "https://www.kaigokensaku.mhlw.go.jp/47/index.php?action_kouhyou_detail_004_kani=true&JigyosyoCd=4760790099-00&ServiceCd=130&Type=search", "url2": "https//style-care.jp/" }, "geometry": { "type": "Point", "coordinates": [ 124.1484392, 24.3402012 ] } },
{ "type": "Feature", "properties": { "内容": "訪問看護ステーション　みらくる【訪問看護】沖縄県石垣市字大川４４８番地９ＭＭハウス１０１", "url": "https://www.kaigokensaku.mhlw.go.jp/47/index.php?action_kouhyou_detail_004_kani=true&JigyosyoCd=4760790123-00&ServiceCd=130&Type=search", "url2": null }, "geometry": { "type": "Point", "coordinates": [ 124.1671013, 24.3643044 ] } },
{ "type": "Feature", "properties": { "内容": "訪問看護ステーション太陽の里【訪問看護】沖縄県石垣市字真栄里556-1", "url": "https://www.kaigokensaku.mhlw.go.jp/47/index.php?action_kouhyou_detail_004_kani=true&JigyosyoCd=4760790008-00&ServiceCd=130&Type=search", "url2": "https://ishigaki-taiyounosato.com" }, "geometry": { "type": "Point", "coordinates": [ 124.179812358677722, 24.339628230891378 ] } },
{ "type": "Feature", "properties": { "内容": "訪問看護ステーション　ゆいケアサービス【訪問看護】沖縄県石垣市登野城74-4", "url": "https://www.kaigokensaku.mhlw.go.jp/47/index.php?action_kouhyou_detail_004_kani=true&JigyosyoCd=4760790024-00&ServiceCd=130&Type=search", "url2": null }, "geometry": { "type": "Point", "coordinates": [ 124.159491200000033, 24.3390466 ] } },
{ "type": "Feature", "properties": { "内容": "プライマリー訪問看護リハビリステーション石垣【訪問看護】沖縄県石垣市新川３８－２", "url": "https://www.kaigokensaku.mhlw.go.jp/47/index.php?action_kouhyou_detail_004_kani=true&JigyosyoCd=4760790115-00&ServiceCd=130&Type=search", "url2": "https://primary.style" }, "geometry": { "type": "Point", "coordinates": [ 124.1535207, 24.3445722 ] } },
{ "type": "Feature", "properties": { "内容": "訪問看護ステーションうりずん【訪問看護】沖縄県石垣市字大川547番地興ビル2Ｆ204号室", "url": "https://www.kaigokensaku.mhlw.go.jp/47/index.php?action_kouhyou_detail_004_kani=true&JigyosyoCd=4760790016-00&ServiceCd=130&Type=search", "url2": null }, "geometry": { "type": "Point", "coordinates": [ 124.162230500000078, 24.3476403 ] } },
{ "type": "Feature", "properties": { "内容": "訪問看護ステーションにじいろ【訪問看護】沖縄県石垣市大川283譜久村ビル101", "url": "https://www.kaigokensaku.mhlw.go.jp/47/index.php?action_kouhyou_detail_004_kani=true&JigyosyoCd=4760790107-00&ServiceCd=130&Type=search", "url2": "https://7hlab.co.jp/free/nijiiro" }, "geometry": { "type": "Point", "coordinates": [ 124.157682, 24.3408387 ] } },
{ "type": "Feature", "properties": { "内容": "石垣島徳洲会病院訪問看護【訪問看護】沖縄県石垣市大浜字南大浜４４６－１", "url": "https://www.kaigokensaku.mhlw.go.jp/47/index.php?action_kouhyou_detail_004_kani=true&JigyosyoCd=4710710650-00&ServiceCd=130&Type=search", "url2": "http://www/tokushukai.jp" }, "geometry": { "type": "Point", "coordinates": [ 124.1974513, 24.3436217 ] } },
{ "type": "Feature", "properties": { "内容": "ウィル訪問看護ステーション南ぬ島石垣【訪問看護】沖縄県石垣市真栄里２３４－１ル・ミエール石垣タウン２Ｂ", "url": "https://www.kaigokensaku.mhlw.go.jp/47/index.php?action_kouhyou_detail_004_kani=true&JigyosyoCd=4760790131-00&ServiceCd=130&Type=search", "url2": "https://www.collabo-isg.com/" }, "geometry": { "type": "Point", "coordinates": [ 124.177271165312845, 24.33530045698528 ] } },
{ "type": "Feature", "properties": { "内容": "訪問看護ステーション　ネイチャー【訪問看護】沖縄県浦添市牧港1-18-3", "url": "https://www.kaigokensaku.mhlw.go.jp/47/index.php?action_kouhyou_detail_004_kani=true&JigyosyoCd=4760890139-00&ServiceCd=130&Type=search", "url2": "http://kskm.biz" }, "geometry": { "type": "Point", "coordinates": [ 127.723086400000042, 26.2633204 ] } },
{ "type": "Feature", "properties": { "内容": "はぴなす訪問看護ステーション【訪問看護】沖縄県浦添市経塚676番地スコットハウス203号スコットハウス203号", "url": "https://www.kaigokensaku.mhlw.go.jp/47/index.php?action_kouhyou_detail_004_kani=true&JigyosyoCd=4760890105-00&ServiceCd=130&Type=search", "url2": "https://www.hapinasu.co.jp/" }, "geometry": { "type": "Point", "coordinates": [ 127.724165699999958, 26.23747 ] } },
{ "type": "Feature", "properties": { "内容": "訪問看護ステーションさわふじ【訪問看護】沖縄県浦添市西原4-40-8ヒルズテラス101", "url": "https://www.kaigokensaku.mhlw.go.jp/47/index.php?action_kouhyou_detail_004_kani=true&JigyosyoCd=4760890154-00&ServiceCd=130&Type=search", "url2": "http://www.ne.jp/asahi/sawafuji/info/index.html" }, "geometry": { "type": "Point", "coordinates": [ 127.7475411, 26.2486981 ] } },
{ "type": "Feature", "properties": { "内容": "訪問看護ステーションてて【訪問看護】沖縄県浦添市城間4丁目17番3号上原アパート103", "url": "https://www.kaigokensaku.mhlw.go.jp/47/index.php?action_kouhyou_detail_004_kani=true&JigyosyoCd=4760890147-00&ServiceCd=130&Type=search", "url2": null }, "geometry": { "type": "Point", "coordinates": [ 127.7142506, 26.259092199999987 ] } },
{ "type": "Feature", "properties": { "内容": "牧港中央病院【訪問看護】沖縄県浦添市字牧港1199番地", "url": "https://www.kaigokensaku.mhlw.go.jp/47/index.php?action_kouhyou_detail_004_kani=true&JigyosyoCd=4710810153-00&ServiceCd=130&Type=search", "url2": "http://www.haku-ai.or.jp" }, "geometry": { "type": "Point", "coordinates": [ 127.7152449, 26.2678089 ] } },
{ "type": "Feature", "properties": { "内容": "まちなと内科在宅クリニック【訪問看護】沖縄県浦添市牧港2丁目46番8号ヴィラマチナトⅡ・101", "url": "https://www.kaigokensaku.mhlw.go.jp/47/index.php?action_kouhyou_detail_004_kani=true&JigyosyoCd=4710812134-00&ServiceCd=130&Type=search", "url2": "http://machinato.byoinnavi.jp" }, "geometry": { "type": "Point", "coordinates": [ 127.7253875, 26.264986 ] } },
{ "type": "Feature", "properties": { "内容": "訪問看護ステーションナチュレ【訪問看護】沖縄県浦添市沢岻１丁目４０番１１F", "url": "https://www.kaigokensaku.mhlw.go.jp/47/index.php?action_kouhyou_detail_004_kani=true&JigyosyoCd=4760890188-00&ServiceCd=130&Type=search", "url2": "https://www.bimss.jp/" }, "geometry": { "type": "Point", "coordinates": [ 127.7118269, 26.2352379 ] } },
{ "type": "Feature", "properties": { "内容": "こもれび訪問看護【訪問看護】沖縄県浦添市西原1丁目35番14号２F", "url": "https://www.kaigokensaku.mhlw.go.jp/47/index.php?action_kouhyou_detail_004_kani=true&JigyosyoCd=4760890204-00&ServiceCd=130&Type=search", "url2": null }, "geometry": { "type": "Point", "coordinates": [ 127.743588, 26.2518387 ] } },
{ "type": "Feature", "properties": { "内容": "つるかめ訪問看護ステーション【訪問看護】沖縄県浦添市伊祖4丁目16番1号", "url": "https://www.kaigokensaku.mhlw.go.jp/47/index.php?action_kouhyou_detail_004_kani=true&JigyosyoCd=4760890014-00&ServiceCd=130&Type=search", "url2": "http://www.jin-aikai.com/" }, "geometry": { "type": "Point", "coordinates": [ 127.722970113795739, 26.254793588057399 ] } },
{ "type": "Feature", "properties": { "内容": "訪問看護ステーション　ぐしくま【訪問看護】沖縄県浦添市大平三丁目16番10号", "url": "https://www.kaigokensaku.mhlw.go.jp/47/index.php?action_kouhyou_detail_004_kani=true&JigyosyoCd=4760890022-00&ServiceCd=130&Type=search", "url2": null }, "geometry": { "type": "Point", "coordinates": [ 127.7174811026767, 26.243258528593969 ] } },
{ "type": "Feature", "properties": { "内容": "絆訪問看護ステーション【訪問看護】沖縄県浦添市宮城3-4-14", "url": "https://www.kaigokensaku.mhlw.go.jp/47/index.php?action_kouhyou_detail_004_kani=true&JigyosyoCd=4760890097-00&ServiceCd=130&Type=search", "url2": "https://www.kizunagroup.co.jp" }, "geometry": { "type": "Point", "coordinates": [ 127.70611370000006, 26.2453128 ] } },
{ "type": "Feature", "properties": { "内容": "訪問看護ステーション　いやしの邦【訪問看護】沖縄県浦添市西原5丁目45番2号有料老人ホームいやしの邦", "url": "https://www.kaigokensaku.mhlw.go.jp/47/index.php?action_kouhyou_detail_004_kani=true&JigyosyoCd=4760890113-00&ServiceCd=130&Type=search", "url2": "http://www.iyashinokuni.net.home.html" }, "geometry": { "type": "Point", "coordinates": [ 127.744467499999914, 26.2479971 ] } },
{ "type": "Feature", "properties": { "内容": "訪問看護ステーション　ケアリー【訪問看護】沖縄県浦添市宮城2-5-5（101）", "url": "https://www.kaigokensaku.mhlw.go.jp/47/index.php?action_kouhyou_detail_004_kani=true&JigyosyoCd=4760890287-00&ServiceCd=130&Type=search", "url2": null }, "geometry": { "type": "Point", "coordinates": [ 127.7062711, 26.2492436 ] } },
{ "type": "Feature", "properties": { "内容": "ぽぽらすほうもんかんごすてーしょん【訪問看護】沖縄県浦添市屋富祖2-31-23グランドシティ仲里１０５号室", "url": "https://www.kaigokensaku.mhlw.go.jp/47/index.php?action_kouhyou_detail_004_kani=true&JigyosyoCd=4760890303-00&ServiceCd=130&Type=search", "url2": null }, "geometry": { "type": "Point", "coordinates": [ 127.7071486, 26.250894 ] } },
{ "type": "Feature", "properties": { "内容": "訪問看護ステーションクラセル浦添【訪問看護】伊祖2-21-18イオンドラッグ2階", "url": "https://www.kaigokensaku.mhlw.go.jp/47/index.php?action_kouhyou_detail_004_kani=true&JigyosyoCd=4760890196-00&ServiceCd=130&Type=search", "url2": "https://bestlife-okinawa.co.jp/kuraseru" }, "geometry": { "type": "Point", "coordinates": [ 127.7168527, 26.2552953 ] } },
{ "type": "Feature", "properties": { "内容": "訪問看護リハビリステーション　walkersbaseMAO【訪問看護】沖縄県　浦添市前田862番地80", "url": "https://www.kaigokensaku.mhlw.go.jp/47/index.php?action_kouhyou_detail_004_kani=true&JigyosyoCd=4760890311-00&ServiceCd=130&Type=search", "url2": null }, "geometry": { "type": "Point", "coordinates": [ 127.7288133, 26.2397717 ] } },
{ "type": "Feature", "properties": { "内容": "イコル訪問看護ステーション【訪問看護】沖縄県浦添市字経塚608番地１ＥＳＴ　ＣＯＭＰＬＥＸ　２ndBLD６－Ｃ", "url": "https://www.kaigokensaku.mhlw.go.jp/47/index.php?action_kouhyou_detail_004_kani=true&JigyosyoCd=4760890162-00&ServiceCd=130&Type=search", "url2": "https://icolhomon.wixsite.com/my-site-1" }, "geometry": { "type": "Point", "coordinates": [ 127.722714396979313, 26.234171783218383 ] } },
{ "type": "Feature", "properties": { "内容": "訪問看護ステーションみねい【訪問看護】沖縄県浦添市大平467番地1高齢者住宅おおひら　2-B", "url": "https://www.kaigokensaku.mhlw.go.jp/47/index.php?action_kouhyou_detail_004_kani=true&JigyosyoCd=4760890246-00&ServiceCd=130&Type=search", "url2": "https://ohirakai.or.jp/" }, "geometry": { "type": "Point", "coordinates": [ 127.7124707, 26.2472344 ] } },
{ "type": "Feature", "properties": { "内容": "訪問看護ステーション名嘉村【訪問看護】沖縄県浦添市伊祖4丁目2番1号", "url": "https://www.kaigokensaku.mhlw.go.jp/47/index.php?action_kouhyou_detail_004_kani=true&JigyosyoCd=4760890071-00&ServiceCd=130&Type=search", "url2": "http://nsleep.com" }, "geometry": { "type": "Point", "coordinates": [ 127.720435921444476, 26.253990892198782 ] } },
{ "type": "Feature", "properties": { "内容": "訪問看護ステーションゆくい【訪問看護】沖縄県浦添市宮城２丁目８番３号1階", "url": "https://www.kaigokensaku.mhlw.go.jp/47/index.php?action_kouhyou_detail_004_kani=true&JigyosyoCd=4760890261-00&ServiceCd=130&Type=search", "url2": "https://yukui.link" }, "geometry": { "type": "Point", "coordinates": [ 127.7056279, 26.2491402 ] } },
{ "type": "Feature", "properties": { "内容": "ロータス訪問看護ステーション【訪問看護】沖縄県浦添市牧港2丁目46番12号メディカルプラザ牧港5階", "url": "https://www.kaigokensaku.mhlw.go.jp/47/index.php?action_kouhyou_detail_004_kani=true&JigyosyoCd=4760890279-00&ServiceCd=130&Type=search", "url2": "https://www.tokuyama.or.jp/" }, "geometry": { "type": "Point", "coordinates": [ 127.7258858, 26.265225599999983 ] } },
{ "type": "Feature", "properties": { "内容": "訪問看護ステーションにぬふぁぶし【訪問看護】沖縄県浦添市牧港一丁目10番1号", "url": "https://www.kaigokensaku.mhlw.go.jp/47/index.php?action_kouhyou_detail_004_kani=true&JigyosyoCd=4760890295-00&ServiceCd=130&Type=search", "url2": "https://haku-ai.or.jp/ninufabushi/service/visitingnurse/" }, "geometry": { "type": "Point", "coordinates": [ 127.7235898, 26.2661649 ] } },
{ "type": "Feature", "properties": { "内容": "涼風訪問看護ステーション【訪問看護】沖縄県名護市一丁目１番１号１０１号室", "url": "https://www.kaigokensaku.mhlw.go.jp/47/index.php?action_kouhyou_detail_004_kani=true&JigyosyoCd=4760990103-00&ServiceCd=130&Type=search", "url2": null }, "geometry": { "type": "Point", "coordinates": [ 127.981918700000037, 26.59158 ] } },
{ "type": "Feature", "properties": { "内容": "訪問看護ステーション　デューン名護【訪問看護】為又269-2シャトーユミザ1階101号", "url": "https://www.kaigokensaku.mhlw.go.jp/47/index.php?action_kouhyou_detail_004_kani=true&JigyosyoCd=4760990111-00&ServiceCd=130&Type=search", "url2": "https://www.nfield.co.jp/" }, "geometry": { "type": "Point", "coordinates": [ 127.976763539286821, 26.607570666717681 ] } },
{ "type": "Feature", "properties": { "内容": "こもれ陽訪問看護ステーション【訪問看護】字伊差川２４４番地１０３号室", "url": "https://www.kaigokensaku.mhlw.go.jp/47/index.php?action_kouhyou_detail_004_kani=true&JigyosyoCd=4760990061-00&ServiceCd=130&Type=search", "url2": null }, "geometry": { "type": "Point", "coordinates": [ 128.001370493496296, 26.607015937903544 ] } },
{ "type": "Feature", "properties": { "内容": "かりゆしぬ村指定訪問看護ステーション【訪問看護】沖縄県名護市字宇茂佐1873番地の1", "url": "https://www.kaigokensaku.mhlw.go.jp/47/index.php?action_kouhyou_detail_004_kani=true&JigyosyoCd=4760990087-00&ServiceCd=130&Type=search", "url2": "http://www.shoraikai.com" }, "geometry": { "type": "Point", "coordinates": [ 127.9662052, 26.6125221 ] } },
{ "type": "Feature", "properties": { "内容": "合同会社　はぴねす訪問看護ステーション【訪問看護】大北4丁目3番7号メゾン丸崎1階", "url": "https://www.kaigokensaku.mhlw.go.jp/47/index.php?action_kouhyou_detail_004_kani=true&JigyosyoCd=4760990095-00&ServiceCd=130&Type=search", "url2": null }, "geometry": { "type": "Point", "coordinates": [ 113.366778, 22.937121 ] } },
{ "type": "Feature", "properties": { "内容": "訪問看護リハビリステーションhappiness名護【訪問看護】沖縄県名護市宮里5-11-43", "url": "https://www.kaigokensaku.mhlw.go.jp/47/index.php?action_kouhyou_detail_004_kani=true&JigyosyoCd=4760990152-00&ServiceCd=130&Type=search", "url2": "https://www.social-action.group/" }, "geometry": { "type": "Point", "coordinates": [ 127.9741345, 26.5987384 ] } },
{ "type": "Feature", "properties": { "内容": "りゅうしん　訪問看護ステ－ション【訪問看護】沖縄県名護市字屋部４６８-１番地勝山病院内", "url": "https://www.kaigokensaku.mhlw.go.jp/47/index.php?action_kouhyou_detail_004_kani=true&JigyosyoCd=4760990038-00&ServiceCd=130&Type=search", "url2": "http://www.mco.ne.jp/~katuyama/" }, "geometry": { "type": "Point", "coordinates": [ 127.9458565, 26.6066081 ] } },
{ "type": "Feature", "properties": { "内容": "訪問看護ステーションクラセル名護【訪問看護】名護市宇茂佐16103登川ハイツ102", "url": "https://www.kaigokensaku.mhlw.go.jp/47/index.php?action_kouhyou_detail_004_kani=true&JigyosyoCd=4760990160-00&ServiceCd=130&Type=search", "url2": "https://bestlife-okinawa.co.jp/kuraseru" }, "geometry": { "type": "Point", "coordinates": [ 127.9652166, 26.6087067 ] } },
{ "type": "Feature", "properties": { "内容": "訪問看護ステーションむすび【訪問看護】沖縄県糸満市潮平７５４－１　１階", "url": "https://www.kaigokensaku.mhlw.go.jp/47/index.php?action_kouhyou_detail_004_kani=true&JigyosyoCd=4761090077-00&ServiceCd=130&Type=search", "url2": null }, "geometry": { "type": "Point", "coordinates": [ 127.6713338, 26.1488046 ] } },
{ "type": "Feature", "properties": { "内容": "医療法人以和貴会　訪問看護ステーション西崎【訪問看護】沖縄県糸満市西崎町３丁目３７９番地", "url": "https://www.kaigokensaku.mhlw.go.jp/47/index.php?action_kouhyou_detail_004_kani=true&JigyosyoCd=4761090036-00&ServiceCd=130&Type=search", "url2": "iwakikai.net" }, "geometry": { "type": "Point", "coordinates": [ 127.670298, 26.145549 ] } },
{ "type": "Feature", "properties": { "内容": "かぶしきがいしゃじんせいはればれ　ほうもんかんごすてーしょんはればれ【訪問看護】沖縄県糸満市字糸満1094番地1階", "url": "https://www.kaigokensaku.mhlw.go.jp/47/index.php?action_kouhyou_detail_004_kani=true&JigyosyoCd=4761090119-00&ServiceCd=130&Type=search", "url2": null }, "geometry": { "type": "Point", "coordinates": [ 127.6714825, 26.1277193 ] } },
{ "type": "Feature", "properties": { "内容": "訪問看護ステーション　つなぐ【訪問看護】沖縄県糸満市西崎町3丁目120番地ゴールドキャッスル1-A", "url": "https://www.kaigokensaku.mhlw.go.jp/47/index.php?action_kouhyou_detail_004_kani=true&JigyosyoCd=4761090051-00&ServiceCd=130&Type=search", "url2": null }, "geometry": { "type": "Point", "coordinates": [ 127.6645415, 26.1468943 ] } },
{ "type": "Feature", "properties": { "内容": "訪問看護ステーション　はいむ【訪問看護】沖縄県糸満市潮崎町2-1-4エフステージ潮崎1階　店舗1", "url": "https://www.kaigokensaku.mhlw.go.jp/47/index.php?action_kouhyou_detail_004_kani=true&JigyosyoCd=4761090069-00&ServiceCd=130&Type=search", "url2": null }, "geometry": { "type": "Point", "coordinates": [ 127.667727, 26.122559700000032 ] } },
{ "type": "Feature", "properties": { "内容": "訪問看護ステーション宙SORA【訪問看護】沖縄県糸満市西崎町５丁目8-10", "url": "https://www.kaigokensaku.mhlw.go.jp/47/index.php?action_kouhyou_detail_004_kani=true&JigyosyoCd=4761090085-00&ServiceCd=130&Type=search", "url2": null }, "geometry": { "type": "Point", "coordinates": [ 127.654087, 26.14366 ] } },
{ "type": "Feature", "properties": { "内容": "訪問看護ステーション　ちゃんぷるー【訪問看護】沖縄県糸満市字武富220ｰM", "url": "https://www.kaigokensaku.mhlw.go.jp/47/index.php?action_kouhyou_detail_004_kani=true&JigyosyoCd=4761090143-00&ServiceCd=130&Type=search", "url2": "https://27als.com/" }, "geometry": { "type": "Point", "coordinates": [ 127.695325431946515, 26.16271970706358 ] } },
{ "type": "Feature", "properties": { "内容": "くじら訪問看護ステーション【訪問看護】沖縄県糸満市阿波根1552-2", "url": "https://www.kaigokensaku.mhlw.go.jp/47/index.php?action_kouhyou_detail_004_kani=true&JigyosyoCd=4761090135-00&ServiceCd=130&Type=search", "url2": null }, "geometry": { "type": "Point", "coordinates": [ 127.672323452114881, 26.151508464069916 ] } },
{ "type": "Feature", "properties": { "内容": "訪問看護ステーションおおごちょう【訪問看護】沖縄県糸満市照屋1242-1Kアパート101号", "url": "https://www.kaigokensaku.mhlw.go.jp/47/index.php?action_kouhyou_detail_004_kani=true&JigyosyoCd=4761090127-00&ServiceCd=130&Type=search", "url2": null }, "geometry": { "type": "Point", "coordinates": [ 127.6864846, 26.134023 ] } },
{ "type": "Feature", "properties": { "内容": "訪問看護ステーションやえしま【訪問看護】沖縄県沖縄市八重島3丁目12番19号", "url": "https://www.kaigokensaku.mhlw.go.jp/47/index.php?action_kouhyou_detail_004_kani=true&JigyosyoCd=4760490286-00&ServiceCd=130&Type=search", "url2": "httpkantaki-yaeshima.okinawa" }, "geometry": { "type": "Point", "coordinates": [ 127.8055339, 26.3496164 ] } },
{ "type": "Feature", "properties": { "内容": "医療法人　翔南会　翔南病院【訪問看護】沖縄県沖縄市山内３丁目１４番２８号", "url": "https://www.kaigokensaku.mhlw.go.jp/47/index.php?action_kouhyou_detail_004_kani=true&JigyosyoCd=4710411853-00&ServiceCd=130&Type=search", "url2": "http://www.shonanhospital.com/" }, "geometry": { "type": "Point", "coordinates": [ 127.7819875, 26.3273227 ] } },
{ "type": "Feature", "properties": { "内容": "訪問看護ステーションいづも【訪問看護】美原１－23－1　１F", "url": "https://www.kaigokensaku.mhlw.go.jp/47/index.php?action_kouhyou_detail_004_kani=true&JigyosyoCd=4760490211-00&ServiceCd=130&Type=search", "url2": null }, "geometry": { "type": "Point", "coordinates": [ 127.82423434770044, 26.34893713373793 ] } },
{ "type": "Feature", "properties": { "内容": "訪問看護ニヘーデービル【訪問看護】沖縄県沖縄市大里３丁目１２番９号", "url": "https://www.kaigokensaku.mhlw.go.jp/47/index.php?action_kouhyou_detail_004_kani=true&JigyosyoCd=4760490385-00&ServiceCd=130&Type=search", "url2": "https://www.arigatou-okinawa.jp/" }, "geometry": { "type": "Point", "coordinates": [ 127.8249429, 26.3259182 ] } },
{ "type": "Feature", "properties": { "内容": "訪問看護ステーション三丁目【訪問看護】沖縄市松本3-19-11", "url": "https://www.kaigokensaku.mhlw.go.jp/47/index.php?action_kouhyou_detail_004_kani=true&JigyosyoCd=4760490088-00&ServiceCd=130&Type=search", "url2": "https://care-c-3tyome.com/" }, "geometry": { "type": "Point", "coordinates": [ 127.820084277909856, 26.356212415523128 ] } },
{ "type": "Feature", "properties": { "内容": "すてっぷ訪問看護ステーション【訪問看護】沖縄県沖縄市高原5丁目1番19号", "url": "https://www.kaigokensaku.mhlw.go.jp/47/index.php?action_kouhyou_detail_004_kani=true&JigyosyoCd=4760490336-00&ServiceCd=130&Type=search", "url2": "https://libertystep.net/" }, "geometry": { "type": "Point", "coordinates": [ 127.8236898, 26.3246862 ] } },
{ "type": "Feature", "properties": { "内容": "いきがいサポートステーション【訪問看護】沖縄県沖縄市美里6丁目15番16号夢元アパート1Ｆ", "url": "https://www.kaigokensaku.mhlw.go.jp/47/index.php?action_kouhyou_detail_004_kani=true&JigyosyoCd=4760490260-00&ServiceCd=130&Type=search", "url2": null }, "geometry": { "type": "Point", "coordinates": [ 127.8063427, 26.3530737 ] } },
{ "type": "Feature", "properties": { "内容": "訪問看護ステーション宙伸【訪問看護】沖縄県沖縄市照屋1丁目10番4号", "url": "https://www.kaigokensaku.mhlw.go.jp/47/index.php?action_kouhyou_detail_004_kani=true&JigyosyoCd=4760490294-00&ServiceCd=130&Type=search", "url2": "https://www.tyuushin.com/chuubu.php" }, "geometry": { "type": "Point", "coordinates": [ 127.8149391, 26.3381533 ] } },
{ "type": "Feature", "properties": { "内容": "訪問看護R＆B　PALACE【訪問看護】沖縄県沖縄市山里1-9-7", "url": "https://www.kaigokensaku.mhlw.go.jp/47/index.php?action_kouhyou_detail_004_kani=true&JigyosyoCd=4760490344-00&ServiceCd=130&Type=search", "url2": null }, "geometry": { "type": "Point", "coordinates": [ 127.789768400000042, 26.322941300000011 ] } },
{ "type": "Feature", "properties": { "内容": "セノーテ訪問看護那覇・沖縄エリア中部ステーション【訪問看護】沖縄県沖縄市山里1丁目1-1トラスト山里ヒルズ807号室", "url": "https://www.kaigokensaku.mhlw.go.jp/47/index.php?action_kouhyou_detail_004_kani=true&JigyosyoCd=4760490351-00&ServiceCd=130&Type=search", "url2": "https://www.bgmgroup.co.jp/fusion/okinawa/" }, "geometry": { "type": "Point", "coordinates": [ 127.7927584, 26.324516600000024 ] } },
{ "type": "Feature", "properties": { "内容": "ツクイ沖縄北訪問看護ステーション【訪問看護】沖縄県沖縄市東2丁目6-11", "url": "https://www.kaigokensaku.mhlw.go.jp/47/index.php?action_kouhyou_detail_004_kani=true&JigyosyoCd=4760490393-00&ServiceCd=130&Type=search", "url2": "https://corp.tsukui.net/" }, "geometry": { "type": "Point", "coordinates": [ 127.8242125, 26.3464836 ] } },
{ "type": "Feature", "properties": { "内容": "訪問看護ステーションクオーレ【訪問看護】沖縄県沖縄市美里1-11-1仲村アパート101号室", "url": "https://www.kaigokensaku.mhlw.go.jp/47/index.php?action_kouhyou_detail_004_kani=true&JigyosyoCd=4760490419-00&ServiceCd=130&Type=search", "url2": "https://www.kcmns.com/" }, "geometry": { "type": "Point", "coordinates": [ 127.815153730059393, 26.342072332653284 ] } },
{ "type": "Feature", "properties": { "内容": "ケアメド沖縄店【訪問看護】沖縄県沖縄市高原７丁目３３－２０諸見里店舗Ｂ店舗", "url": "https://www.kaigokensaku.mhlw.go.jp/47/index.php?action_kouhyou_detail_004_kani=true&JigyosyoCd=4760490401-00&ServiceCd=130&Type=search", "url2": "https://keamedo.jp" }, "geometry": { "type": "Point", "coordinates": [ 127.8243107, 26.3208399 ] } },
{ "type": "Feature", "properties": { "内容": "訪問看護ステーションなかがみ【訪問看護】沖縄県沖縄市字登川566番地なかがみ地域包括センター", "url": "https://www.kaigokensaku.mhlw.go.jp/47/index.php?action_kouhyou_detail_004_kani=true&JigyosyoCd=4760490021-00&ServiceCd=130&Type=search", "url2": "home-nursing.nakagami@nakagami.or.jp" }, "geometry": { "type": "Point", "coordinates": [ 127.826543668908897, 26.367846315585599 ] } },
{ "type": "Feature", "properties": { "内容": "訪問看護ステーション　こころのかて【訪問看護】沖縄県沖縄市比屋根6-10-11メゾンかりゆし１０１号", "url": "https://www.kaigokensaku.mhlw.go.jp/47/index.php?action_kouhyou_detail_004_kani=true&JigyosyoCd=4760490096-00&ServiceCd=130&Type=search", "url2": "https://rurihinagiku29.wixsite.com/kokoronokate" }, "geometry": { "type": "Point", "coordinates": [ 127.8156662, 26.3147204 ] } },
{ "type": "Feature", "properties": { "内容": "まなざし訪問看護ステーション【訪問看護】沖縄県沖縄市室川1丁目7番6号", "url": "https://www.kaigokensaku.mhlw.go.jp/47/index.php?action_kouhyou_detail_004_kani=true&JigyosyoCd=4760490104-00&ServiceCd=130&Type=search", "url2": "https://www.manazashi-okinawa.com/" }, "geometry": { "type": "Point", "coordinates": [ 127.8081581, 26.3307937 ] } },
{ "type": "Feature", "properties": { "内容": "あわせ訪問看護ステーション【訪問看護】沖縄県沖縄市比屋根二丁目1番22号", "url": "https://www.kaigokensaku.mhlw.go.jp/47/index.php?action_kouhyou_detail_004_kani=true&JigyosyoCd=4760490179-00&ServiceCd=130&Type=search", "url2": null }, "geometry": { "type": "Point", "coordinates": [ 127.824551139395126, 26.315341884332074 ] } },
{ "type": "Feature", "properties": { "内容": "一般社団法人中部地区医師会　訪問看護ステーション【訪問看護】沖縄市八重島2-11-12", "url": "https://www.kaigokensaku.mhlw.go.jp/47/index.php?action_kouhyou_detail_004_kani=true&JigyosyoCd=4760490187-00&ServiceCd=130&Type=search", "url2": "https://www.chubu-ishikai.or.jp" }, "geometry": { "type": "Point", "coordinates": [ 127.80520219999994, 26.3503641 ] } },
{ "type": "Feature", "properties": { "内容": "訪問看護ステーション　クララ【訪問看護】沖縄県沖縄市泡瀬２－３７－１５　１F", "url": "https://www.kaigokensaku.mhlw.go.jp/47/index.php?action_kouhyou_detail_004_kani=true&JigyosyoCd=4760490195-00&ServiceCd=130&Type=search", "url2": "https://clara-ruchia.com" }, "geometry": { "type": "Point", "coordinates": [ 127.835746200000017, 26.319759400000024 ] } },
{ "type": "Feature", "properties": { "内容": "訪問看護ステーション　えん【訪問看護】美里１ー６－１１０１号", "url": "https://www.kaigokensaku.mhlw.go.jp/47/index.php?action_kouhyou_detail_004_kani=true&JigyosyoCd=4760490278-00&ServiceCd=130&Type=search", "url2": "https://www.houkan-en.com" }, "geometry": { "type": "Point", "coordinates": [ 127.814545, 26.3412167 ] } },
{ "type": "Feature", "properties": { "内容": "生協訪問看護ステーションなないろ【訪問看護】沖縄県沖縄市美里1丁目31番15号中部協同病院7階", "url": "https://www.kaigokensaku.mhlw.go.jp/47/index.php?action_kouhyou_detail_004_kani=true&JigyosyoCd=4760490302-00&ServiceCd=130&Type=search", "url2": null }, "geometry": { "type": "Point", "coordinates": [ 127.8167978, 26.342489 ] } },
{ "type": "Feature", "properties": { "内容": "医療法人徳洲会　ちゅうとく訪問看護ステーション【訪問看護】沖縄県沖縄市安慶田3丁目11番30号　ソフィアクリニック内１階", "url": "https://www.kaigokensaku.mhlw.go.jp/47/index.php?action_kouhyou_detail_004_kani=true&JigyosyoCd=4760490310-00&ServiceCd=130&Type=search", "url2": "http://www.cyutoku.or.jp" }, "geometry": { "type": "Point", "coordinates": [ 127.812738, 26.330224 ] } },
{ "type": "Feature", "properties": { "内容": "訪問看護ナーシングプラス土屋沖縄【訪問看護】沖縄県沖縄市諸見里1丁目28‐10", "url": "https://www.kaigokensaku.mhlw.go.jp/47/index.php?action_kouhyou_detail_004_kani=true&JigyosyoCd=4760490328-00&ServiceCd=130&Type=search", "url2": "ns-tcy.com" }, "geometry": { "type": "Point", "coordinates": [ 127.792656570683206, 26.329095331940064 ] } },
{ "type": "Feature", "properties": { "内容": "訪問看護ステーションはな泡瀬【訪問看護】沖縄県沖縄市比屋根2-2-11サントピア泡瀬101", "url": "https://www.kaigokensaku.mhlw.go.jp/47/index.php?action_kouhyou_detail_004_kani=true&JigyosyoCd=4760490369-00&ServiceCd=130&Type=search", "url2": "https://hana-gr.com/" }, "geometry": { "type": "Point", "coordinates": [ 127.8272458, 26.3166957 ] } },
{ "type": "Feature", "properties": { "内容": "訪問看護ステーションクラセル登川【訪問看護】沖縄県沖縄市登川695番地1", "url": "https://www.kaigokensaku.mhlw.go.jp/47/index.php?action_kouhyou_detail_004_kani=true&JigyosyoCd=4760490427-00&ServiceCd=130&Type=search", "url2": "https://bestlife-okinawa.co.jp/rehabix" }, "geometry": { "type": "Point", "coordinates": [ 127.826076496171567, 26.369908805808699 ] } },
{ "type": "Feature", "properties": { "内容": "訪問看護フェアサポート【訪問看護】美里4-17-6", "url": "https://www.kaigokensaku.mhlw.go.jp/47/index.php?action_kouhyou_detail_004_kani=true&JigyosyoCd=4760490468-00&ServiceCd=130&Type=search", "url2": null }, "geometry": { "type": "Point", "coordinates": [ 127.813074, 26.3532965 ] } },
{ "type": "Feature", "properties": { "内容": "訪問看護ステーションあみゅ～ず【訪問看護】沖縄県沖縄市海邦2丁目22-15海邦店舗１階左", "url": "https://www.kaigokensaku.mhlw.go.jp/47/index.php?action_kouhyou_detail_004_kani=true&JigyosyoCd=4760490476-00&ServiceCd=130&Type=search", "url2": "https://care-station-amuse.com/" }, "geometry": { "type": "Point", "coordinates": [ 127.837351, 26.332994 ] } },
{ "type": "Feature", "properties": { "内容": "訪問看護ステーション　クラセル泡瀬【訪問看護】沖縄県沖縄市与儀3丁目17-7ブリランテ与儀103", "url": "https://www.kaigokensaku.mhlw.go.jp/47/index.php?action_kouhyou_detail_004_kani=true&JigyosyoCd=4760490492-00&ServiceCd=130&Type=search", "url2": "https://share.google/xdiwD2QAfGTiiKAZ" }, "geometry": { "type": "Point", "coordinates": [ 127.8160693, 26.3083169 ] } },
{ "type": "Feature", "properties": { "内容": "サンケアネット訪問看護ステーション【訪問看護】沖縄県沖縄市古謝津嘉山町24番3号原アパート102号室", "url": "https://www.kaigokensaku.mhlw.go.jp/47/index.php?action_kouhyou_detail_004_kani=true&JigyosyoCd=4760490435-00&ServiceCd=130&Type=search", "url2": "https://suncarenet.site/" }, "geometry": { "type": "Point", "coordinates": [ 127.8281581, 26.3422212 ] } },
{ "type": "Feature", "properties": { "内容": "訪問看護ステーションOKIKUMA（オキクマ）【訪問看護】沖縄県沖縄市八重島２丁目11番12号101号室", "url": "https://www.kaigokensaku.mhlw.go.jp/47/index.php?action_kouhyou_detail_004_kani=true&JigyosyoCd=4760490443-00&ServiceCd=130&Type=search", "url2": "https://okikuma.co.jp/" }, "geometry": { "type": "Point", "coordinates": [ 127.8049907, 26.3504754 ] } },
{ "type": "Feature", "properties": { "内容": "訪問看護ステーションとよさき【訪問看護】沖縄県豊見城市字翁長８６９番地", "url": "https://www.kaigokensaku.mhlw.go.jp/47/index.php?action_kouhyou_detail_004_kani=true&JigyosyoCd=4761390592-00&ServiceCd=130&Type=search", "url2": "kukuru.info" }, "geometry": { "type": "Point", "coordinates": [ 127.6668691, 26.1610381 ] } },
{ "type": "Feature", "properties": { "内容": "ナースケアステーションHOPE【訪問看護】沖縄県豊見城市座安338", "url": "https://www.kaigokensaku.mhlw.go.jp/47/index.php?action_kouhyou_detail_004_kani=true&JigyosyoCd=4761390444-00&ServiceCd=130&Type=search", "url2": null }, "geometry": { "type": "Point", "coordinates": [ 127.6681475, 26.1645621 ] } },
{ "type": "Feature", "properties": { "内容": "グリーン訪問看護ステーション【訪問看護】沖縄県豊見城市金良77-1　102号", "url": "https://www.kaigokensaku.mhlw.go.jp/47/index.php?action_kouhyou_detail_004_kani=true&JigyosyoCd=4761390287-00&ServiceCd=130&Type=search", "url2": "ｇreen.okinawa24" }, "geometry": { "type": "Point", "coordinates": [ 127.705232799999962, 26.179536200000019 ] } },
{ "type": "Feature", "properties": { "内容": "一般社団法人ホリスティク・エクスプロア【訪問看護】沖縄県豊見城市豊見城９７５番地の１０", "url": "https://www.kaigokensaku.mhlw.go.jp/47/index.php?action_kouhyou_detail_004_kani=true&JigyosyoCd=4761390139-00&ServiceCd=130&Type=search", "url2": null }, "geometry": { "type": "Point", "coordinates": [ 127.6833912, 26.1922671 ] } },
{ "type": "Feature", "properties": { "内容": "生協ケアセンター　訪問看護ステーションにじ【訪問看護】沖縄県豊見城市字真玉橋５９３番地４３とよみ生協病院別館３階", "url": "https://www.kaigokensaku.mhlw.go.jp/47/index.php?action_kouhyou_detail_004_kani=true&JigyosyoCd=4761390246-00&ServiceCd=130&Type=search", "url2": null }, "geometry": { "type": "Point", "coordinates": [ 127.687536241139242, 26.193234060768223 ] } },
{ "type": "Feature", "properties": { "内容": "訪問看護ステーション　エール～応援～【訪問看護】沖縄県豊見城市字高嶺361番地１マンション都美１F", "url": "https://www.kaigokensaku.mhlw.go.jp/47/index.php?action_kouhyou_detail_004_kani=true&JigyosyoCd=4761390279-00&ServiceCd=130&Type=search", "url2": "http://www.sw-oki.co.jp/yell" }, "geometry": { "type": "Point", "coordinates": [ 127.693332220168259, 26.166272039447396 ] } },
{ "type": "Feature", "properties": { "内容": "訪問ナースステーションHERO【訪問看護】沖縄県豊見城市真玉橋108番地1コーポ金城103号室", "url": "https://www.kaigokensaku.mhlw.go.jp/47/index.php?action_kouhyou_detail_004_kani=true&JigyosyoCd=4761390394-00&ServiceCd=130&Type=search", "url2": null }, "geometry": { "type": "Point", "coordinates": [ 127.6965603, 26.1952757 ] } },
{ "type": "Feature", "properties": { "内容": "ナースステーション豊見城【訪問看護】豊見城市高安337-1サンライズビュー平田102号", "url": "https://www.kaigokensaku.mhlw.go.jp/47/index.php?action_kouhyou_detail_004_kani=true&JigyosyoCd=4761390402-00&ServiceCd=130&Type=search", "url2": "https://www.nst-24tom.com" }, "geometry": { "type": "Point", "coordinates": [ 127.6857782, 26.1761229 ] } },
{ "type": "Feature", "properties": { "内容": "訪問看護オアシスサポート【訪問看護】沖縄県豊見城市字饒波1118番地", "url": "https://www.kaigokensaku.mhlw.go.jp/47/index.php?action_kouhyou_detail_004_kani=true&JigyosyoCd=4761390451-00&ServiceCd=130&Type=search", "url2": "https://www.famisapo.com/tuusyo.html" }, "geometry": { "type": "Point", "coordinates": [ 127.7001856, 26.1827208 ] } },
{ "type": "Feature", "properties": { "内容": "訪問看護ステーションいろどり【訪問看護】高安576番地1グレイスハイム101", "url": "https://www.kaigokensaku.mhlw.go.jp/47/index.php?action_kouhyou_detail_004_kani=true&JigyosyoCd=4761390741-00&ServiceCd=130&Type=search", "url2": null }, "geometry": { "type": "Point", "coordinates": [ 127.686406, 26.184214 ] } },
{ "type": "Feature", "properties": { "内容": "ウィル訪問看護ステーション豊見城【訪問看護】沖縄県豊見城市字根差部414-7１F", "url": "https://www.kaigokensaku.mhlw.go.jp/47/index.php?action_kouhyou_detail_004_kani=true&JigyosyoCd=4761390204-00&ServiceCd=130&Type=search", "url2": "http://www.wyl.co.jp/" }, "geometry": { "type": "Point", "coordinates": [ 127.691693827751564, 26.190389878329121 ] } },
{ "type": "Feature", "properties": { "内容": "友愛会訪問看護ステーション【訪問看護】沖縄県豊見城市字上田２５番地豊見城中央病院内1F", "url": "https://www.kaigokensaku.mhlw.go.jp/47/index.php?action_kouhyou_detail_004_kani=true&JigyosyoCd=4761390345-00&ServiceCd=130&Type=search", "url2": "https://www/yuuai.or.jp" }, "geometry": { "type": "Point", "coordinates": [ 127.6765741, 26.1758452 ] } },
{ "type": "Feature", "properties": { "内容": "訪問看護ステーション　おもととよみの杜【訪問看護】沖縄県豊見城市字渡嘉敷150番地", "url": "https://www.kaigokensaku.mhlw.go.jp/47/index.php?action_kouhyou_detail_004_kani=true&JigyosyoCd=4761390063-00&ServiceCd=130&Type=search", "url2": "http://www.omotokai.or.jp" }, "geometry": { "type": "Point", "coordinates": [ 127.683421, 26.1727698 ] } },
{ "type": "Feature", "properties": { "内容": "訪問看護リハビリステーションらいぶりー豊見城【訪問看護】沖縄県豊見城市字座安208-2SouthZAⅠ106", "url": "https://www.kaigokensaku.mhlw.go.jp/47/index.php?action_kouhyou_detail_004_kani=true&JigyosyoCd=4761390584-00&ServiceCd=130&Type=search", "url2": null }, "geometry": { "type": "Point", "coordinates": [ 127.6681087, 26.1677921 ] } },
{ "type": "Feature", "properties": { "内容": "訪問看護ステーション美ら【訪問看護】高嶺371番地の1", "url": "https://www.kaigokensaku.mhlw.go.jp/47/index.php?action_kouhyou_detail_004_kani=true&JigyosyoCd=4761390659-00&ServiceCd=130&Type=search", "url2": "https://kagayaki-tmsr.com/" }, "geometry": { "type": "Point", "coordinates": [ 127.69598, 26.166657 ] } },
{ "type": "Feature", "properties": { "内容": "訪問看護ステーション　ジーナス【訪問看護】沖縄県豊見城市高嶺368-25グリーンハウスA棟", "url": "https://www.kaigokensaku.mhlw.go.jp/47/index.php?action_kouhyou_detail_004_kani=true&JigyosyoCd=4761390675-00&ServiceCd=130&Type=search", "url2": "https://jinus.link/" }, "geometry": { "type": "Point", "coordinates": [ 127.6956294, 26.1668758 ] } },
{ "type": "Feature", "properties": { "内容": "ほうもんかんごすてーしょんえすわいえむ【訪問看護】具志川2436番地", "url": "https://www.kaigokensaku.mhlw.go.jp/47/index.php?action_kouhyou_detail_004_kani=true&JigyosyoCd=4760390122-00&ServiceCd=130&Type=search", "url2": null }, "geometry": { "type": "Point", "coordinates": [ 127.8697996, 26.3576026 ] } },
{ "type": "Feature", "properties": { "内容": "そるた訪問看護ステーション【訪問看護】沖縄県うるま市赤野807HappyRiver", "url": "https://www.kaigokensaku.mhlw.go.jp/47/index.php?action_kouhyou_detail_004_kani=true&JigyosyoCd=4760390148-00&ServiceCd=130&Type=search", "url2": "http://solta-kango.com" }, "geometry": { "type": "Point", "coordinates": [ 127.8675824, 26.3743809 ] } },
{ "type": "Feature", "properties": { "内容": "与勝病院訪問看護ステーション【訪問看護】沖縄県うるま市勝連南風原3584番地", "url": "https://www.kaigokensaku.mhlw.go.jp/47/index.php?action_kouhyou_detail_004_kani=true&JigyosyoCd=4760390130-00&ServiceCd=130&Type=search", "url2": null }, "geometry": { "type": "Point", "coordinates": [ 127.881691505340555, 26.327313155742356 ] } },
{ "type": "Feature", "properties": { "内容": "ナーシングホームまつぼっくり【訪問看護】沖縄県うるま市栄野比155-5", "url": "https://www.kaigokensaku.mhlw.go.jp/47/index.php?action_kouhyou_detail_004_kani=true&JigyosyoCd=4760390197-00&ServiceCd=130&Type=search", "url2": null }, "geometry": { "type": "Point", "coordinates": [ 127.8321552, 26.3931506 ] } },
{ "type": "Feature", "properties": { "内容": "訪問看護ステーション糸【訪問看護】沖縄県うるま市石川一丁目41番９号グランドコードティーダ２号", "url": "https://www.kaigokensaku.mhlw.go.jp/47/index.php?action_kouhyou_detail_004_kani=true&JigyosyoCd=4760390163-00&ServiceCd=130&Type=search", "url2": null }, "geometry": { "type": "Point", "coordinates": [ 127.82706, 26.4331872 ] } },
{ "type": "Feature", "properties": { "内容": "訪問看護ステーションRe:power（りぱわー）【訪問看護】沖縄県うるま市塩屋53番地Mansion2020-101", "url": "https://www.kaigokensaku.mhlw.go.jp/47/index.php?action_kouhyou_detail_004_kani=true&JigyosyoCd=4760390155-00&ServiceCd=130&Type=search", "url2": "repower80.com" }, "geometry": { "type": "Point", "coordinates": [ 127.8611182, 26.3506932 ] } },
{ "type": "Feature", "properties": { "内容": "訪問看護ステーション青空【訪問看護】沖縄県うるま市字大田７１８番地１", "url": "https://www.kaigokensaku.mhlw.go.jp/47/index.php?action_kouhyou_detail_004_kani=true&JigyosyoCd=4760390049-00&ServiceCd=130&Type=search", "url2": "https://hcs.-aozora.jp/" }, "geometry": { "type": "Point", "coordinates": [ 127.8703713, 26.3497407 ] } },
{ "type": "Feature", "properties": { "内容": "サクラ訪問看護ステーション　中部支店【訪問看護】沖縄県うるま市宮里201-6マルトクビル206", "url": "https://www.kaigokensaku.mhlw.go.jp/47/index.php?action_kouhyou_detail_004_kani=true&JigyosyoCd=4760390213-00&ServiceCd=130&Type=search", "url2": "https://sakura.thankslabyells.biz/" }, "geometry": { "type": "Point", "coordinates": [ 127.8347668, 26.3535554 ] } },
{ "type": "Feature", "properties": { "内容": "訪問看護ステーションのぞみ【訪問看護】沖縄県うるま市字宮里842番5", "url": "https://www.kaigokensaku.mhlw.go.jp/47/index.php?action_kouhyou_detail_004_kani=true&JigyosyoCd=4760390023-00&ServiceCd=130&Type=search", "url2": "http://www.oki-kango.or.jp/" }, "geometry": { "type": "Point", "coordinates": [ 127.833134447186723, 26.35445931853689 ] } },
{ "type": "Feature", "properties": { "内容": "訪問看護ステーションうるま【訪問看護】沖縄県うるま市みどり町5丁目14番7号", "url": "https://www.kaigokensaku.mhlw.go.jp/47/index.php?action_kouhyou_detail_004_kani=true&JigyosyoCd=4760390031-00&ServiceCd=130&Type=search", "url2": "https://www.carenet.okinawa/" }, "geometry": { "type": "Point", "coordinates": [ 127.8527691, 26.376783 ] } },
{ "type": "Feature", "properties": { "内容": "訪問看護ひまわり【訪問看護】沖縄県うるま市字具志川1345番地1", "url": "https://www.kaigokensaku.mhlw.go.jp/47/index.php?action_kouhyou_detail_004_kani=true&JigyosyoCd=4760390072-00&ServiceCd=130&Type=search", "url2": "http://www.happiness-himawari.com" }, "geometry": { "type": "Point", "coordinates": [ 127.873744026708323, 26.345245143731852 ] } },
{ "type": "Feature", "properties": { "内容": "訪問看護リハビリステーションhappiness【訪問看護】沖縄県うるま市江洲135-5　1F", "url": "https://www.kaigokensaku.mhlw.go.jp/47/index.php?action_kouhyou_detail_004_kani=true&JigyosyoCd=4760390114-00&ServiceCd=130&Type=search", "url2": "https://www.social-action.group/" }, "geometry": { "type": "Point", "coordinates": [ 127.83262999203076, 26.344175573288631 ] } },
{ "type": "Feature", "properties": { "内容": "ウィル訪問看護ステーションうるま【訪問看護】沖縄県うるま市石川東恩納642-1B", "url": "https://www.kaigokensaku.mhlw.go.jp/47/index.php?action_kouhyou_detail_004_kani=true&JigyosyoCd=4760390171-00&ServiceCd=130&Type=search", "url2": "https://www.a-and-s.okinawa" }, "geometry": { "type": "Point", "coordinates": [ 127.825857280211437, 26.411742716079196 ] } },
{ "type": "Feature", "properties": { "内容": "訪問看護ステーションこころ【訪問看護】沖縄県うるま市字塩屋４５番地２", "url": "https://www.kaigokensaku.mhlw.go.jp/47/index.php?action_kouhyou_detail_004_kani=true&JigyosyoCd=4760390288-00&ServiceCd=130&Type=search", "url2": null }, "geometry": { "type": "Point", "coordinates": [ 127.8620702, 26.3497413 ] } },
{ "type": "Feature", "properties": { "内容": "訪問看護teeoff中部【訪問看護】沖縄県うるま市兼箇段1353－1", "url": "https://www.kaigokensaku.mhlw.go.jp/47/index.php?action_kouhyou_detail_004_kani=true&JigyosyoCd=4760390189-00&ServiceCd=130&Type=search", "url2": null }, "geometry": { "type": "Point", "coordinates": [ 127.8408988, 26.3635449 ] } },
{ "type": "Feature", "properties": { "内容": "訪問看護ステーション　クラセル石川店【訪問看護】石川東山2-30-21", "url": "https://www.kaigokensaku.mhlw.go.jp/47/index.php?action_kouhyou_detail_004_kani=true&JigyosyoCd=4760390247-00&ServiceCd=130&Type=search", "url2": "https://bestlife-okinawa.co.jp/" }, "geometry": { "type": "Point", "coordinates": [ 127.8385215, 26.4349515 ] } },
{ "type": "Feature", "properties": { "内容": "医療法人ムサアザ会　いけむら小児科【訪問看護】沖縄県宮古島市平良字西里978番地2", "url": "https://www.kaigokensaku.mhlw.go.jp/47/index.php?action_kouhyou_detail_004_kani=true&JigyosyoCd=4710610702-00&ServiceCd=130&Type=search", "url2": null }, "geometry": { "type": "Point", "coordinates": [ 125.291724, 24.7983091 ] } },
{ "type": "Feature", "properties": { "内容": "プライマリー訪問看護リハビリステーション宮古【訪問看護】宮古島市平良久貝248-11ミラコスタ1-F", "url": "https://www.kaigokensaku.mhlw.go.jp/47/index.php?action_kouhyou_detail_004_kani=true&JigyosyoCd=4760690133-00&ServiceCd=130&Type=search", "url2": null }, "geometry": { "type": "Point", "coordinates": [ 125.2614663, 24.785144599999985 ] } },
{ "type": "Feature", "properties": { "内容": "多幸会訪問看護ステーション【訪問看護】沖縄県宮古島市平良字西里９８４－３　１０２", "url": "https://www.kaigokensaku.mhlw.go.jp/47/index.php?action_kouhyou_detail_004_kani=true&JigyosyoCd=4760690059-00&ServiceCd=130&Type=search", "url2": null }, "geometry": { "type": "Point", "coordinates": [ 125.291006732179767, 24.798409616181662 ] } },
{ "type": "Feature", "properties": { "内容": "訪問看護ステーションみやこ【訪問看護】沖縄県宮古島市平良字下里１１６５－４", "url": "https://www.kaigokensaku.mhlw.go.jp/47/index.php?action_kouhyou_detail_004_kani=true&JigyosyoCd=4760690018-00&ServiceCd=130&Type=search", "url2": null }, "geometry": { "type": "Point", "coordinates": [ 125.288477993254077, 24.793749679774788 ] } },
{ "type": "Feature", "properties": { "内容": "訪問看護ステーション　ドクターゴン【訪問看護】沖縄県宮古島市平良字西仲宗根1496-7", "url": "https://www.kaigokensaku.mhlw.go.jp/47/index.php?action_kouhyou_detail_004_kani=true&JigyosyoCd=4760690091-00&ServiceCd=130&Type=search", "url2": "https://www.drgon.net" }, "geometry": { "type": "Point", "coordinates": [ 125.30478770000002, 24.8095069 ] } },
{ "type": "Feature", "properties": { "内容": "訪問看護ステーション　ラポール【訪問看護】沖縄県宮古島市下地字川満1676-2", "url": "https://www.kaigokensaku.mhlw.go.jp/47/index.php?action_kouhyou_detail_004_kani=true&JigyosyoCd=4760690158-00&ServiceCd=130&Type=search", "url2": null }, "geometry": { "type": "Point", "coordinates": [ 125.2823768, 24.7653538 ] } },
{ "type": "Feature", "properties": { "内容": "訪問看護ステーション　幸【訪問看護】沖縄県宮古島市平良字西里978番地2", "url": "https://www.kaigokensaku.mhlw.go.jp/47/index.php?action_kouhyou_detail_004_kani=true&JigyosyoCd=4760690141-00&ServiceCd=130&Type=search", "url2": null }, "geometry": { "type": "Point", "coordinates": [ 125.291724, 24.7983091 ] } },
{ "type": "Feature", "properties": { "内容": "宮古島徳洲会病院　　訪問看護室【訪問看護】沖縄県宮古島市平良字松原５５２番地の1", "url": "https://www.kaigokensaku.mhlw.go.jp/47/index.php?action_kouhyou_detail_004_kani=true&JigyosyoCd=4710610918-00&ServiceCd=130&Type=search", "url2": "http://www.miyatoku.jp" }, "geometry": { "type": "Point", "coordinates": [ 125.2793626, 24.788811 ] } },
{ "type": "Feature", "properties": { "内容": "訪問看護すこやか【訪問看護】沖縄県宮古島市伊良部字長浜1320-1", "url": "https://www.kaigokensaku.mhlw.go.jp/47/index.php?action_kouhyou_detail_004_kani=true&JigyosyoCd=4760690125-00&ServiceCd=130&Type=search", "url2": "https://yasuragi-sukoyaka.com/" }, "geometry": { "type": "Point", "coordinates": [ 125.167952099999965, 24.8351061 ] } },
{ "type": "Feature", "properties": { "内容": "らいくゆー訪問看護ステーション【訪問看護】城辺比嘉880番地1", "url": "https://www.kaigokensaku.mhlw.go.jp/47/index.php?action_kouhyou_detail_004_kani=true&JigyosyoCd=4760690117-00&ServiceCd=130&Type=search", "url2": "https://likeyou-kango-kaigo.com/" }, "geometry": { "type": "Point", "coordinates": [ 125.379539578189807, 24.760153619179071 ] } },
{ "type": "Feature", "properties": { "内容": "訪問看護ようき【訪問看護】沖縄県南城市佐敷字津波古1074-20", "url": "https://www.kaigokensaku.mhlw.go.jp/47/index.php?action_kouhyou_detail_004_kani=true&JigyosyoCd=4761390527-00&ServiceCd=130&Type=search", "url2": null }, "geometry": { "type": "Point", "coordinates": [ 127.7757256, 26.1813617 ] } },
{ "type": "Feature", "properties": { "内容": "沖縄メディカル訪問看護ステーション【訪問看護】沖縄県南城市佐敷字津波古西原2309番地沖縄メディカル病院　　介護老人保健施設　真徳苑　1階", "url": "https://www.kaigokensaku.mhlw.go.jp/47/index.php?action_kouhyou_detail_004_kani=true&JigyosyoCd=4761390014-00&ServiceCd=130&Type=search", "url2": "http://www.o-medical.jp" }, "geometry": { "type": "Point", "coordinates": [ 127.775127502099622, 26.187813652653688 ] } },
{ "type": "Feature", "properties": { "内容": "えん訪問看護ステーションOkiShare【訪問看護】沖縄県南城市大里稲嶺101-1", "url": "https://www.kaigokensaku.mhlw.go.jp/47/index.php?action_kouhyou_detail_004_kani=true&JigyosyoCd=4761390691-00&ServiceCd=130&Type=search", "url2": "https://en-houkan.com/" }, "geometry": { "type": "Point", "coordinates": [ 127.7391426, 26.1683616 ] } },
{ "type": "Feature", "properties": { "内容": "訪問看護ステーションひなた【訪問看護】沖縄県南城市玉城字親慶原１５３番地２", "url": "https://www.kaigokensaku.mhlw.go.jp/47/index.php?action_kouhyou_detail_004_kani=true&JigyosyoCd=4761390154-00&ServiceCd=130&Type=search", "url2": "http://ks-hinata.com/" }, "geometry": { "type": "Point", "coordinates": [ 127.780834499999955, 26.1555235 ] } },
{ "type": "Feature", "properties": { "内容": "訪問看護ステーション縁【訪問看護】大里字仲間467-2", "url": "https://www.kaigokensaku.mhlw.go.jp/47/index.php?action_kouhyou_detail_004_kani=true&JigyosyoCd=4761390220-00&ServiceCd=130&Type=search", "url2": null }, "geometry": { "type": "Point", "coordinates": [ 127.738061512543879, 26.182131571890046 ] } },
{ "type": "Feature", "properties": { "内容": "ケアサイクルの駅訪問看護レインボー【訪問看護】沖縄県南城市大里字古堅820－6グランコート古堅Ⅰ　201", "url": "https://www.kaigokensaku.mhlw.go.jp/47/index.php?action_kouhyou_detail_004_kani=true&JigyosyoCd=4761390337-00&ServiceCd=130&Type=search", "url2": "https://www.rainbow-erythrina-okinawa.online/" }, "geometry": { "type": "Point", "coordinates": [ 127.740348556194022, 26.193211932074774 ] } },
{ "type": "Feature", "properties": { "内容": "訪問看護ステーションともき【訪問看護】大里仲間842番地３号", "url": "https://www.kaigokensaku.mhlw.go.jp/47/index.php?action_kouhyou_detail_004_kani=true&JigyosyoCd=4761390535-00&ServiceCd=130&Type=search", "url2": null }, "geometry": { "type": "Point", "coordinates": [ 127.744773264418043, 26.177782613502444 ] } },
{ "type": "Feature", "properties": { "内容": "ケアスリー訪問看護【訪問看護】沖縄県南城市大里字大城901番地", "url": "https://www.kaigokensaku.mhlw.go.jp/47/index.php?action_kouhyou_detail_004_kani=true&JigyosyoCd=4761390808-00&ServiceCd=130&Type=search", "url2": "https://carethree-c3.com/" }, "geometry": { "type": "Point", "coordinates": [ 127.755392, 26.1650505 ] } },
{ "type": "Feature", "properties": { "内容": "ナースステーションかふぅ（果報）【訪問看護】沖縄県南城市大里字稲嶺1901-5大悟開發ビル", "url": "https://www.kaigokensaku.mhlw.go.jp/47/index.php?action_kouhyou_detail_004_kani=true&JigyosyoCd=4761390600-00&ServiceCd=130&Type=search", "url2": "https://www.tamanoki.com/cont3/4.html" }, "geometry": { "type": "Point", "coordinates": [ 127.740099242327886, 26.163166837828658 ] } },
{ "type": "Feature", "properties": { "内容": "訪問看護ステーションJOINplus【訪問看護】南城市大里大城2349-1", "url": "https://www.kaigokensaku.mhlw.go.jp/47/index.php?action_kouhyou_detail_004_kani=true&JigyosyoCd=4761390683-00&ServiceCd=130&Type=search", "url2": "llc.oil.com" }, "geometry": { "type": "Point", "coordinates": [ 127.747835899999984, 26.172549300000025 ] } },
{ "type": "Feature", "properties": { "内容": "訪問看護ステーションおしん【訪問看護】沖縄県国頭郡大宜味村喜如嘉６０１番地", "url": "https://www.kaigokensaku.mhlw.go.jp/47/index.php?action_kouhyou_detail_004_kani=true&JigyosyoCd=4761190166-00&ServiceCd=130&Type=search", "url2": null }, "geometry": { "type": "Point", "coordinates": [ 128.1457627, 26.7040368 ] } },
{ "type": "Feature", "properties": { "内容": "在宅看護センターはなはな【訪問看護】沖縄県国頭郡今帰仁村字謝名173-8シエル今帰仁101", "url": "https://www.kaigokensaku.mhlw.go.jp/47/index.php?action_kouhyou_detail_004_kani=true&JigyosyoCd=4761190083-00&ServiceCd=130&Type=search", "url2": "https://www.shf.or.jp/community_health/home_nursing/home_nursing_center/在宅看護センターはなはな" }, "geometry": { "type": "Point", "coordinates": [ 127.971776840759077, 26.684960359980607 ] } },
{ "type": "Feature", "properties": { "内容": "一般社団法人ウェルフェアおきなわ【訪問看護】沖縄県今帰仁村字崎山1330‐1メゾンヒーロー１－５", "url": "https://www.kaigokensaku.mhlw.go.jp/47/index.php?action_kouhyou_detail_004_kani=true&JigyosyoCd=4761190125-00&ServiceCd=130&Type=search", "url2": null }, "geometry": { "type": "Point", "coordinates": [ 127.9552013, 26.6931235 ] } },
{ "type": "Feature", "properties": { "内容": "医療法人光風会　北山病院【訪問看護】沖縄県国頭郡今帰仁村今泊307番地", "url": "https://www.kaigokensaku.mhlw.go.jp/47/index.php?action_kouhyou_detail_004_kani=true&JigyosyoCd=4712110487-00&ServiceCd=130&Type=search", "url2": "www.oki-kofukai.or.jp" }, "geometry": { "type": "Point", "coordinates": [ 127.92528, 26.699165 ] } },
{ "type": "Feature", "properties": { "内容": "訪問看護ステーション　あいらんど【訪問看護】山川638-1グリーンヒルヤマウチⅣ　101号室", "url": "https://www.kaigokensaku.mhlw.go.jp/47/index.php?action_kouhyou_detail_004_kani=true&JigyosyoCd=4761190091-00&ServiceCd=130&Type=search", "url2": "https://www.ailand.okinawa" }, "geometry": { "type": "Point", "coordinates": [ 127.8804081, 26.6853031 ] } },
{ "type": "Feature", "properties": { "内容": "訪問看護ステーションぷくじ【訪問看護】沖縄県恩納村字恩納2858-3", "url": "https://www.kaigokensaku.mhlw.go.jp/47/index.php?action_kouhyou_detail_004_kani=true&JigyosyoCd=4761190067-00&ServiceCd=130&Type=search", "url2": null }, "geometry": { "type": "Point", "coordinates": [ 127.8527025, 26.5014409 ] } },
{ "type": "Feature", "properties": { "内容": "ひまわり訪問看護ステーション【訪問看護】沖縄県国頭郡恩納村字名嘉真2605番地", "url": "https://www.kaigokensaku.mhlw.go.jp/47/index.php?action_kouhyou_detail_004_kani=true&JigyosyoCd=4761190034-00&ServiceCd=130&Type=search", "url2": null }, "geometry": { "type": "Point", "coordinates": [ 127.929427300000043, 26.5297977 ] } },
{ "type": "Feature", "properties": { "内容": "訪問看護ステーションうんな【訪問看護】沖縄県国頭郡恩納村字恩納2405番地", "url": "https://www.kaigokensaku.mhlw.go.jp/47/index.php?action_kouhyou_detail_004_kani=true&JigyosyoCd=4761190018-00&ServiceCd=130&Type=search", "url2": null }, "geometry": { "type": "Point", "coordinates": [ 127.847037520068383, 26.491744523101435 ] } },
{ "type": "Feature", "properties": { "内容": "訪問看護ステーションぎのざ桑の実【訪問看護】沖縄県国頭郡宜野座村字漢那467あしとみアパート105", "url": "https://www.kaigokensaku.mhlw.go.jp/47/index.php?action_kouhyou_detail_004_kani=true&JigyosyoCd=4761190042-00&ServiceCd=130&Type=search", "url2": "https://ginozakuwanomi.com" }, "geometry": { "type": "Point", "coordinates": [ 127.968929001546641, 26.481170950856999 ] } },
{ "type": "Feature", "properties": { "内容": "訪問看護ステーション　かんなの里【訪問看護】沖縄県国頭郡宜野座村字惣慶1771-7", "url": "https://www.kaigokensaku.mhlw.go.jp/47/index.php?action_kouhyou_detail_004_kani=true&JigyosyoCd=4761190075-00&ServiceCd=130&Type=search", "url2": "http://okinawa-kanna.or.jp/kannano-sato/" }, "geometry": { "type": "Point", "coordinates": [ 127.97099897890746, 26.480867925418998 ] } },
{ "type": "Feature", "properties": { "内容": "おくまクリニック【訪問看護】金武4790番地1", "url": "https://www.kaigokensaku.mhlw.go.jp/47/index.php?action_kouhyou_detail_004_kani=true&JigyosyoCd=4712110677-00&ServiceCd=130&Type=search", "url2": "http://www.okumacl.jp/" }, "geometry": { "type": "Point", "coordinates": [ 127.920456300000083, 26.4546844 ] } },
{ "type": "Feature", "properties": { "内容": "どりーむ訪問看護ステーション【訪問看護】国頭郡金武町字金武１０８０５番地", "url": "https://www.kaigokensaku.mhlw.go.jp/47/index.php?action_kouhyou_detail_004_kani=true&JigyosyoCd=4761190026-00&ServiceCd=130&Type=search", "url2": "https://www.dream-kin.net" }, "geometry": { "type": "Point", "coordinates": [ 127.938655499490821, 26.463172768570463 ] } },
{ "type": "Feature", "properties": { "内容": "訪問看護ステーションまある【訪問看護】沖縄県国頭郡金武町字金武389-101", "url": "https://www.kaigokensaku.mhlw.go.jp/47/index.php?action_kouhyou_detail_004_kani=true&JigyosyoCd=4761190158-00&ServiceCd=130&Type=search", "url2": null }, "geometry": { "type": "Point", "coordinates": [ 127.9228449, 26.4534574 ] } },
{ "type": "Feature", "properties": { "内容": "訪問看護ステーションile【訪問看護】沖縄県国頭郡伊江村字東江前460-1", "url": "https://www.kaigokensaku.mhlw.go.jp/47/index.php?action_kouhyou_detail_004_kani=true&JigyosyoCd=4761190141-00&ServiceCd=130&Type=search", "url2": "https://reha-protec.jp/free/houkan" }, "geometry": { "type": "Point", "coordinates": [ 127.806770823942543, 26.711968981750552 ] } },
{ "type": "Feature", "properties": { "内容": "ライフケアクリニック長浜【訪問看護】沖縄県中頭郡読谷村字長浜1530番地の1", "url": "https://www.kaigokensaku.mhlw.go.jp/47/index.php?action_kouhyou_detail_004_kani=true&JigyosyoCd=4712211053-00&ServiceCd=130&Type=search", "url2": "http://www.lcy-mc.com" }, "geometry": { "type": "Point", "coordinates": [ 127.731119, 26.4166614 ] } },
{ "type": "Feature", "properties": { "内容": "訪問看護ステーション徳吉【訪問看護】沖縄県中頭郡読谷村字高志保1390番地", "url": "https://www.kaigokensaku.mhlw.go.jp/47/index.php?action_kouhyou_detail_004_kani=true&JigyosyoCd=4761290271-00&ServiceCd=130&Type=search", "url2": "https://www.tokuyosi102.com" }, "geometry": { "type": "Point", "coordinates": [ 127.734378, 26.4081885 ] } },
{ "type": "Feature", "properties": { "内容": "訪問看護ステーション健やか【訪問看護】沖縄県中頭郡読谷村字高志保402-5", "url": "https://www.kaigokensaku.mhlw.go.jp/47/index.php?action_kouhyou_detail_004_kani=true&JigyosyoCd=4761290115-00&ServiceCd=130&Type=search", "url2": null }, "geometry": { "type": "Point", "coordinates": [ 127.729387047180154, 26.412361690731679 ] } },
{ "type": "Feature", "properties": { "内容": "訪問看護ステーション日々【訪問看護】沖縄県中頭郡読谷村喜名2294-3ボヌール101号", "url": "https://www.kaigokensaku.mhlw.go.jp/47/index.php?action_kouhyou_detail_004_kani=true&JigyosyoCd=4761290263-00&ServiceCd=130&Type=search", "url2": "https://joint-sauce.com" }, "geometry": { "type": "Point", "coordinates": [ 127.7518988, 26.3975673 ] } },
{ "type": "Feature", "properties": { "内容": "訪問看護ステーションクラセル読谷【訪問看護】沖縄県読谷村字上地176-2", "url": "https://www.kaigokensaku.mhlw.go.jp/47/index.php?action_kouhyou_detail_004_kani=true&JigyosyoCd=4761290198-00&ServiceCd=130&Type=search", "url2": "https://bestlife-okinawa.co.jp" }, "geometry": { "type": "Point", "coordinates": [ 127.7356652, 26.4045736 ] } },
{ "type": "Feature", "properties": { "内容": "訪問看護ステーション花織【訪問看護】沖縄県中頭郡読谷村都屋245番地", "url": "https://www.kaigokensaku.mhlw.go.jp/47/index.php?action_kouhyou_detail_004_kani=true&JigyosyoCd=4761290065-00&ServiceCd=130&Type=search", "url2": "https://www.hanauicare.com/" }, "geometry": { "type": "Point", "coordinates": [ 127.7280453, 26.3927733 ] } },
{ "type": "Feature", "properties": { "内容": "訪問看護ステーション　えがおの種【訪問看護】伊良皆418番地3", "url": "https://www.kaigokensaku.mhlw.go.jp/47/index.php?action_kouhyou_detail_004_kani=true&JigyosyoCd=4761290214-00&ServiceCd=130&Type=search", "url2": null }, "geometry": { "type": "Point", "coordinates": [ 127.7498266, 26.3837722 ] } },
{ "type": "Feature", "properties": { "内容": "ライフケア読谷訪問看護ステーション【訪問看護】沖縄県中頭郡読谷村長浜1530番地の1", "url": "https://www.kaigokensaku.mhlw.go.jp/47/index.php?action_kouhyou_detail_004_kani=true&JigyosyoCd=4761290305-00&ServiceCd=130&Type=search", "url2": null }, "geometry": { "type": "Point", "coordinates": [ 127.7311084, 26.4168426 ] } },
{ "type": "Feature", "properties": { "内容": "聖隷訪問看護ステーションゆい【訪問看護】沖縄県中頭郡嘉手納町字嘉手納270-192Ｆ　南", "url": "https://www.kaigokensaku.mhlw.go.jp/47/index.php?action_kouhyou_detail_004_kani=true&JigyosyoCd=4761290099-00&ServiceCd=130&Type=search", "url2": "http://www.seirei.or.jp/hq/" }, "geometry": { "type": "Point", "coordinates": [ 127.755416299999979, 26.3656391 ] } },
{ "type": "Feature", "properties": { "内容": "訪問看護ステーションjuju【訪問看護】沖縄県中頭郡嘉手納町字嘉手納435番地　1階", "url": "https://www.kaigokensaku.mhlw.go.jp/47/index.php?action_kouhyou_detail_004_kani=true&JigyosyoCd=4761290180-00&ServiceCd=130&Type=search", "url2": "http://hp.kaipoke.biz/x2u" }, "geometry": { "type": "Point", "coordinates": [ 127.7512454, 26.3634675 ] } },
{ "type": "Feature", "properties": { "内容": "徳洲会ハンビークリニック　訪問看護事業所【訪問看護】沖縄県中頭郡北谷町北前1丁目21番1号", "url": "https://www.kaigokensaku.mhlw.go.jp/47/index.php?action_kouhyou_detail_004_kani=true&JigyosyoCd=4712211319-00&ServiceCd=130&Type=search", "url2": "http://www.tokushukai.or.jp/hsp/c_hanbi/" }, "geometry": { "type": "Point", "coordinates": [ 127.75832919999992, 26.3016846 ] } },
{ "type": "Feature", "properties": { "内容": "訪問看護ライオンラビット【訪問看護】沖縄県中頭郡北谷町桃原1-3-2UHハウス", "url": "https://www.kaigokensaku.mhlw.go.jp/47/index.php?action_kouhyou_detail_004_kani=true&JigyosyoCd=4761290255-00&ServiceCd=130&Type=search", "url2": "https://www.lion-rabbit.jp/" }, "geometry": { "type": "Point", "coordinates": [ 127.778501120901495, 26.319720244162561 ] } },
{ "type": "Feature", "properties": { "内容": "訪問看護ステーション北中城【訪問看護】沖縄県中頭郡北中城村字大城３１１番地", "url": "https://www.kaigokensaku.mhlw.go.jp/47/index.php?action_kouhyou_detail_004_kani=true&JigyosyoCd=4761290230-00&ServiceCd=130&Type=search", "url2": null }, "geometry": { "type": "Point", "coordinates": [ 127.8006414, 26.2887284 ] } },
{ "type": "Feature", "properties": { "内容": "訪問看護ステーション若松【訪問看護】沖縄県中頭郡北中城村字喜舎場　３６０番地１Ｂ１", "url": "https://www.kaigokensaku.mhlw.go.jp/47/index.php?action_kouhyou_detail_004_kani=true&JigyosyoCd=4761290008-00&ServiceCd=130&Type=search", "url2": "http://www.agape-wakamatsu.or.jp" }, "geometry": { "type": "Point", "coordinates": [ 127.793695016532865, 26.300165271277404 ] } },
{ "type": "Feature", "properties": { "内容": "はぴなす訪問看護ステーション北中城【訪問看護】沖縄県中頭郡北中城村仲順209番地1（2F）", "url": "https://www.kaigokensaku.mhlw.go.jp/47/index.php?action_kouhyou_detail_004_kani=true&JigyosyoCd=4761290313-00&ServiceCd=130&Type=search", "url2": "https//www.hapinasu.co.jp" }, "geometry": { "type": "Point", "coordinates": [ 127.7977062, 26.3022453 ] } },
{ "type": "Feature", "properties": { "内容": "訪問看護ステーションUlu【訪問看護】島袋260-1コンフォール77　1-B", "url": "https://www.kaigokensaku.mhlw.go.jp/47/index.php?action_kouhyou_detail_004_kani=true&JigyosyoCd=4761290354-00&ServiceCd=130&Type=search", "url2": null }, "geometry": { "type": "Point", "coordinates": [ 127.8015723, 26.3192005 ] } },
{ "type": "Feature", "properties": { "内容": "訪問看護ステーション　デューン沖縄【訪問看護】沖縄県中頭郡中城村字南上原624-1Ma．サンビスカ102", "url": "https://www.kaigokensaku.mhlw.go.jp/47/index.php?action_kouhyou_detail_004_kani=true&JigyosyoCd=4761290156-00&ServiceCd=130&Type=search", "url2": "https://www.nfield.co.jp/" }, "geometry": { "type": "Point", "coordinates": [ 127.771979139672823, 26.251391943518872 ] } },
{ "type": "Feature", "properties": { "内容": "グリーンハウス訪問看護中城【訪問看護】沖縄県中頭郡中城村当間961番地コーポ比嘉101号室", "url": "https://www.kaigokensaku.mhlw.go.jp/47/index.php?action_kouhyou_detail_004_kani=true&JigyosyoCd=4761290339-00&ServiceCd=130&Type=search", "url2": "https://www.otowakai.com/" }, "geometry": { "type": "Point", "coordinates": [ 127.7905457, 26.2656036 ] } },
{ "type": "Feature", "properties": { "内容": "訪問看護みずほ【訪問看護】沖縄県中頭郡中城村北上原８７９番地", "url": "https://www.kaigokensaku.mhlw.go.jp/47/index.php?action_kouhyou_detail_004_kani=true&JigyosyoCd=4761290289-00&ServiceCd=130&Type=search", "url2": null }, "geometry": { "type": "Point", "coordinates": [ 127.7773286, 26.2616974 ] } },
{ "type": "Feature", "properties": { "内容": "訪問看護リハビリステーションhappiness中城【訪問看護】沖縄県中城村字南上原202-1ディーフロイデ比嘉　101号", "url": "https://www.kaigokensaku.mhlw.go.jp/47/index.php?action_kouhyou_detail_004_kani=true&JigyosyoCd=4761290321-00&ServiceCd=130&Type=search", "url2": "https://www.social-action.group/" }, "geometry": { "type": "Point", "coordinates": [ 127.7749613, 26.2540221 ] } },
{ "type": "Feature", "properties": { "内容": "がじゅまる訪問看護ステーション【訪問看護】沖縄県中頭郡西原町兼久１７１番地１宮平アパート102", "url": "https://www.kaigokensaku.mhlw.go.jp/47/index.php?action_kouhyou_detail_004_kani=true&JigyosyoCd=4761290222-00&ServiceCd=130&Type=search", "url2": "https://gajumal-kango.okinawa/" }, "geometry": { "type": "Point", "coordinates": [ 127.7658004, 26.2197412 ] } },
{ "type": "Feature", "properties": { "内容": "訪問看護か～さ【訪問看護】沖縄県中頭郡西原町棚原1丁目11番地の3", "url": "https://www.kaigokensaku.mhlw.go.jp/47/index.php?action_kouhyou_detail_004_kani=true&JigyosyoCd=4761290164-00&ServiceCd=130&Type=search", "url2": null }, "geometry": { "type": "Point", "coordinates": [ 127.754754400000024, 26.244211800000016 ] } },
{ "type": "Feature", "properties": { "内容": "訪問看護ステーション　トパーズ【訪問看護】沖縄県中頭郡西原町上原1丁目16番2号サンヒルズYARA1階(101)", "url": "https://www.kaigokensaku.mhlw.go.jp/47/index.php?action_kouhyou_detail_004_kani=true&JigyosyoCd=4761290362-00&ServiceCd=130&Type=search", "url2": "https://www.hrykikaku.com/" }, "geometry": { "type": "Point", "coordinates": [ 127.7628113, 26.2400459 ] } },
{ "type": "Feature", "properties": { "内容": "訪問看護ステーション　はーとらいふ【訪問看護】沖縄県中頭郡西原町字小那覇1606番地ハートライフ地域包括ケアセンター１F", "url": "https://www.kaigokensaku.mhlw.go.jp/47/index.php?action_kouhyou_detail_004_kani=true&JigyosyoCd=4761290123-00&ServiceCd=130&Type=search", "url2": "http:www.heartlife.or.jp/care/" }, "geometry": { "type": "Point", "coordinates": [ 127.772826512966958, 26.237552629331784 ] } },
{ "type": "Feature", "properties": { "内容": "訪問看護ステーション　おおきな輪【訪問看護】沖縄県中頭郡西原町東﨑22番3ムーンテラスC棟205号室", "url": "https://www.kaigokensaku.mhlw.go.jp/47/index.php?action_kouhyou_detail_004_kani=true&JigyosyoCd=4761290297-00&ServiceCd=130&Type=search", "url2": "kango.ookinawa@gmail.com" }, "geometry": { "type": "Point", "coordinates": [ 127.7689657, 26.2216696 ] } },
{ "type": "Feature", "properties": { "内容": "訪問看護ステーション　ルミライズ【訪問看護】沖縄県島尻郡与那原町字東浜78番地の62SKY･TERRACE601", "url": "https://www.kaigokensaku.mhlw.go.jp/47/index.php?action_kouhyou_detail_004_kani=true&JigyosyoCd=4761390360-00&ServiceCd=130&Type=search", "url2": null }, "geometry": { "type": "Point", "coordinates": [ 127.7654308, 26.2029706 ] } },
{ "type": "Feature", "properties": { "内容": "訪問看護ステーションおおきな輪【訪問看護】沖縄県島尻郡与那原町東浜106番地3", "url": "https://www.kaigokensaku.mhlw.go.jp/47/index.php?action_kouhyou_detail_004_kani=true&JigyosyoCd=4761390410-00&ServiceCd=130&Type=search", "url2": "kango.ookinawa@gmail.com" }, "geometry": { "type": "Point", "coordinates": [ 127.7599352, 26.2029478 ] } },
{ "type": "Feature", "properties": { "内容": "訪問看護ステーション　アトレケア【訪問看護】沖縄県島尻郡与那原町与那原1065古堅ビル2F", "url": "https://www.kaigokensaku.mhlw.go.jp/47/index.php?action_kouhyou_detail_004_kani=true&JigyosyoCd=4761390618-00&ServiceCd=130&Type=search", "url2": null }, "geometry": { "type": "Point", "coordinates": [ 127.7584616, 26.2101408 ] } },
{ "type": "Feature", "properties": { "内容": "訪問看護ステーション　ALOALO【訪問看護】沖縄県島尻郡与那原町東浜78-15-103サウスポートヒル", "url": "https://www.kaigokensaku.mhlw.go.jp/47/index.php?action_kouhyou_detail_004_kani=true&JigyosyoCd=4761390634-00&ServiceCd=130&Type=search", "url2": null }, "geometry": { "type": "Point", "coordinates": [ 127.76235279496764, 26.203257747464367 ] } },
{ "type": "Feature", "properties": { "内容": "訪問看護ステーションちゅらぐくる　与那原店【訪問看護】沖縄県島尻郡与那原町字上与那原385-4次郎工業ビル2階", "url": "https://www.kaigokensaku.mhlw.go.jp/47/index.php?action_kouhyou_detail_004_kani=true&JigyosyoCd=4761390436-00&ServiceCd=130&Type=search", "url2": null }, "geometry": { "type": "Point", "coordinates": [ 127.7526038, 26.2008877 ] } },
{ "type": "Feature", "properties": { "内容": "訪問看護リハビリステーションFUKUROU【訪問看護】沖縄県島尻郡与那原町上与那原399-1神谷アパート1F", "url": "https://www.kaigokensaku.mhlw.go.jp/47/index.php?action_kouhyou_detail_004_kani=true&JigyosyoCd=4761390758-00&ServiceCd=130&Type=search", "url2": "http://senju-fukurou.jp/temp.html" }, "geometry": { "type": "Point", "coordinates": [ 127.7508194, 26.201722 ] } },
{ "type": "Feature", "properties": { "内容": "株式会社ちむぐくる【訪問看護】沖縄県南風原町字兼城717-6満天ビル1-105号", "url": "https://www.kaigokensaku.mhlw.go.jp/47/index.php?action_kouhyou_detail_004_kani=true&JigyosyoCd=4761390477-00&ServiceCd=130&Type=search", "url2": null }, "geometry": { "type": "Point", "coordinates": [ 127.7300027, 26.1907446 ] } },
{ "type": "Feature", "properties": { "内容": "訪問看護ステーションゆいゆい【訪問看護】沖縄県島尻郡南風原町照屋20-5野原店舗102号", "url": "https://www.kaigokensaku.mhlw.go.jp/47/index.php?action_kouhyou_detail_004_kani=true&JigyosyoCd=4761390386-00&ServiceCd=130&Type=search", "url2": "https://www.yuiyui-okinawa.com/houmon.php" }, "geometry": { "type": "Point", "coordinates": [ 127.72835670000002, 26.1896032 ] } },
{ "type": "Feature", "properties": { "内容": "アルメリア訪問看護ステーション【訪問看護】沖縄県島尻郡南風原町宮平494番地北ハイツ303号室", "url": "https://www.kaigokensaku.mhlw.go.jp/47/index.php?action_kouhyou_detail_004_kani=true&JigyosyoCd=4761390667-00&ServiceCd=130&Type=search", "url2": null }, "geometry": { "type": "Point", "coordinates": [ 127.7329688, 26.199732900000011 ] } },
{ "type": "Feature", "properties": { "内容": "訪問看護ステーション　リアン【訪問看護】沖縄県島尻郡南風原町兼城298番地2F", "url": "https://www.kaigokensaku.mhlw.go.jp/47/index.php?action_kouhyou_detail_004_kani=true&JigyosyoCd=4761390717-00&ServiceCd=130&Type=search", "url2": "https://www.caresupport-kizuna.com/" }, "geometry": { "type": "Point", "coordinates": [ 127.7271109, 26.1988604 ] } },
{ "type": "Feature", "properties": { "内容": "こつよししょうにぼしほうもんかんごすてーしょん【訪問看護】沖縄県島尻郡南風原町津嘉山1711番地", "url": "https://www.kaigokensaku.mhlw.go.jp/47/index.php?action_kouhyou_detail_004_kani=true&JigyosyoCd=4761390733-00&ServiceCd=130&Type=search", "url2": "https://kotuyosi.com" }, "geometry": { "type": "Point", "coordinates": [ 127.71528182023772, 26.181269696621047 ] } },
{ "type": "Feature", "properties": { "内容": "訪問看護ステーションナチュレ南風原【訪問看護】沖縄県島尻郡南風原町津嘉山1103-8", "url": "https://www.kaigokensaku.mhlw.go.jp/47/index.php?action_kouhyou_detail_004_kani=true&JigyosyoCd=4761390576-00&ServiceCd=130&Type=search", "url2": "https://www.bimss.jp/" }, "geometry": { "type": "Point", "coordinates": [ 127.717951, 26.193079499999971 ] } },
{ "type": "Feature", "properties": { "内容": "訪問看護ステーション　アザレア【訪問看護】沖縄県島尻郡南風原町宮平71", "url": "https://www.kaigokensaku.mhlw.go.jp/47/index.php?action_kouhyou_detail_004_kani=true&JigyosyoCd=4761390543-00&ServiceCd=130&Type=search", "url2": null }, "geometry": { "type": "Point", "coordinates": [ 127.734260023942554, 26.196447801259428 ] } },
{ "type": "Feature", "properties": { "内容": "訪問看護リハビリステーションらいぶりー【訪問看護】沖縄県島尻郡南風原町字宮平308番地１階", "url": "https://www.kaigokensaku.mhlw.go.jp/47/index.php?action_kouhyou_detail_004_kani=true&JigyosyoCd=4761390493-00&ServiceCd=130&Type=search", "url2": "https://www.lively-houmonkanngo.com/" }, "geometry": { "type": "Point", "coordinates": [ 127.7342943, 26.1999439 ] } },
{ "type": "Feature", "properties": { "内容": "訪問看護ステーションはえばる【訪問看護】沖縄県島尻郡南風原町字新川272-17", "url": "https://www.kaigokensaku.mhlw.go.jp/47/index.php?action_kouhyou_detail_004_kani=true&JigyosyoCd=4761390030-00&ServiceCd=130&Type=search", "url2": "http://www.oki-kango.or.jp" }, "geometry": { "type": "Point", "coordinates": [ 127.725688302594023, 26.207875310750744 ] } },
{ "type": "Feature", "properties": { "内容": "ふれあい訪問看護ステーション【訪問看護】沖縄県島尻郡南風原町字兼城642-1", "url": "https://www.kaigokensaku.mhlw.go.jp/47/index.php?action_kouhyou_detail_004_kani=true&JigyosyoCd=4761390048-00&ServiceCd=130&Type=search", "url2": null }, "geometry": { "type": "Point", "coordinates": [ 127.725995799999964, 26.1949075 ] } },
{ "type": "Feature", "properties": { "内容": "ふたば訪問看護ステーション【訪問看護】沖縄県南風原町字兼城２７４番地の１", "url": "https://www.kaigokensaku.mhlw.go.jp/47/index.php?action_kouhyou_detail_004_kani=true&JigyosyoCd=4761390105-00&ServiceCd=130&Type=search", "url2": "http://www.futaba.okinawa/index.php" }, "geometry": { "type": "Point", "coordinates": [ 127.729476, 26.196799 ] } },
{ "type": "Feature", "properties": { "内容": "訪問看護ステーション　はっぴー【訪問看護】沖縄県島尻郡南風原町山川9番地", "url": "https://www.kaigokensaku.mhlw.go.jp/47/index.php?action_kouhyou_detail_004_kani=true&JigyosyoCd=4761390188-00&ServiceCd=130&Type=search", "url2": null }, "geometry": { "type": "Point", "coordinates": [ 127.725846600000082, 26.1820895 ] } },
{ "type": "Feature", "properties": { "内容": "訪問看護ステーション　ベストかねぐすく【訪問看護】兼城265-10ベストかねぐすく", "url": "https://www.kaigokensaku.mhlw.go.jp/47/index.php?action_kouhyou_detail_004_kani=true&JigyosyoCd=4761390212-00&ServiceCd=130&Type=search", "url2": null }, "geometry": { "type": "Point", "coordinates": [ 127.7287761, 26.1962241 ] } },
{ "type": "Feature", "properties": { "内容": "訪問看護ステーション琉新の風【訪問看護】沖縄県島尻郡南風原町照屋28-1", "url": "https://www.kaigokensaku.mhlw.go.jp/47/index.php?action_kouhyou_detail_004_kani=true&JigyosyoCd=4761390485-00&ServiceCd=130&Type=search", "url2": "http://www.ryushinnokaze.com" }, "geometry": { "type": "Point", "coordinates": [ 127.727134342327886, 26.188075223864256 ] } },
{ "type": "Feature", "properties": { "内容": "訪問看護ステーションカルペディエム南部事業所【訪問看護】津嘉山1593番地SKビル301号", "url": "https://www.kaigokensaku.mhlw.go.jp/47/index.php?action_kouhyou_detail_004_kani=true&JigyosyoCd=4761390774-00&ServiceCd=130&Type=search", "url2": "http://carpediem24.studio.site" }, "geometry": { "type": "Point", "coordinates": [ 127.7123345, 26.1841128 ] } },
{ "type": "Feature", "properties": { "内容": "訪問看護ステーションLifeFreeはえばる【訪問看護】沖縄県南風原町新川197‐7", "url": "https://www.kaigokensaku.mhlw.go.jp/47/index.php?action_kouhyou_detail_004_kani=true&JigyosyoCd=4761390816-00&ServiceCd=130&Type=search", "url2": "https://www.lifefree-llc.com/" }, "geometry": { "type": "Point", "coordinates": [ 127.729999, 26.2030966 ] } },
{ "type": "Feature", "properties": { "内容": "訪問看護つむぎ【訪問看護】沖縄県島尻郡久米島町字嘉手刈572番地3", "url": "https://www.kaigokensaku.mhlw.go.jp/47/index.php?action_kouhyou_detail_004_kani=true&JigyosyoCd=4718110168-00&ServiceCd=130&Type=search", "url2": "https://www.kph-kumejima-jadecom.jp/" }, "geometry": { "type": "Point", "coordinates": [ 126.8050422, 26.34051 ] } },
{ "type": "Feature", "properties": { "内容": "訪問看護ステーション歩み【訪問看護】沖縄県島尻郡八重瀬町字安里297番地31階", "url": "https://www.kaigokensaku.mhlw.go.jp/47/index.php?action_kouhyou_detail_004_kani=true&JigyosyoCd=4761390352-00&ServiceCd=130&Type=search", "url2": "https://www.ayumi0901.net/" }, "geometry": { "type": "Point", "coordinates": [ 127.729078589657263, 26.121651536368372 ] } },
{ "type": "Feature", "properties": { "内容": "訪問看護ステーションふくる【訪問看護】沖縄県島尻郡八重瀬町新城987-1", "url": "https://www.kaigokensaku.mhlw.go.jp/47/index.php?action_kouhyou_detail_004_kani=true&JigyosyoCd=4761390725-00&ServiceCd=130&Type=search", "url2": null }, "geometry": { "type": "Point", "coordinates": [ 127.7410626, 26.1411184 ] } },
{ "type": "Feature", "properties": { "内容": "訪問看護　新緑の里【訪問看護】沖縄県島尻郡八重瀬町字伊覇434番地8丸新コーポ103号室", "url": "https://www.kaigokensaku.mhlw.go.jp/47/index.php?action_kouhyou_detail_004_kani=true&JigyosyoCd=4761390501-00&ServiceCd=130&Type=search", "url2": null }, "geometry": { "type": "Point", "coordinates": [ 127.723091914541257, 26.161081564770484 ] } },
{ "type": "Feature", "properties": { "内容": "訪問看護ステーションいこい【訪問看護】沖縄県島尻郡八重瀬町字外間８０番地介護棟　かふう　1階", "url": "https://www.kaigokensaku.mhlw.go.jp/47/index.php?action_kouhyou_detail_004_kani=true&JigyosyoCd=4761390428-00&ServiceCd=130&Type=search", "url2": "http://www.nantoku.org" }, "geometry": { "type": "Point", "coordinates": [ 127.7144541, 26.1778666 ] } },
{ "type": "Feature", "properties": { "内容": "訪問看護リハビリステーションライフ【訪問看護】沖縄県島尻郡八重瀬町友寄821-1コーポR　102号室", "url": "https://www.kaigokensaku.mhlw.go.jp/47/index.php?action_kouhyou_detail_004_kani=true&JigyosyoCd=4761390469-00&ServiceCd=130&Type=search", "url2": "https://www.hacnamatata.com/" }, "geometry": { "type": "Point", "coordinates": [ 127.7215623, 26.1697622 ] } },
{ "type": "Feature", "properties": { "内容": "訪問看護リハビリステーションwalkers　base【訪問看護】沖縄県島尻郡八重瀬町字友寄903番地38", "url": "https://www.kaigokensaku.mhlw.go.jp/47/index.php?action_kouhyou_detail_004_kani=true&JigyosyoCd=4761390568-00&ServiceCd=130&Type=search", "url2": "http://walkers-base.sun.bindcloud.jp" }, "geometry": { "type": "Point", "coordinates": [ 127.72028814232786, 26.1737553866102 ] } },
{ "type": "Feature", "properties": { "内容": "株式会社ケアサポートほがらか訪問看護ステーション【訪問看護】沖縄県島尻郡与那原町与那原1122番地4階", "url": "https://www.kaigokensaku.mhlw.go.jp/47/index.php?action_kouhyou_detail_004_kani=true&JigyosyoCd=4761390329-00&ServiceCd=130&Type=search", "url2": "http://hogarakagroup.jp" }, "geometry": { "type": "Point", "coordinates": [ 127.7598273, 26.2105398 ] } }
]
}
