{
"type": "FeatureCollection",
"name": "geo_47_3",
"crs": { "type": "name", "properties": { "name": "urn:ogc:def:crs:OGC:1.3:CRS84" } },
"features": [
{ "type": "Feature", "properties": { "ID": "4731007", "正式名称": "そべ歯科クリニック", "機関区分": 3, "都道府県コード": 47, "市区町村コード": 324, "所在地": "沖縄県中頭郡読谷村楚辺", "緯度": 26.385313, "経度": 127.73942, "url": "https://www.iryou.teikyouseido.mhlw.go.jp/znk-web/juminkanja/S2430/initialize?prefCd=47&kikanCd=1007&kikanKbn=3", "url2": null, "内容": "そべ歯科クリニック【3:歯科】沖縄県中頭郡読谷村楚辺" }, "geometry": { "type": "Point", "coordinates": [ 127.73942, 26.385313 ] } },
{ "type": "Feature", "properties": { "ID": "4731010", "正式名称": "ファミリ－歯科クリニック", "機関区分": 3, "都道府県コード": 47, "市区町村コード": 213, "所在地": "沖縄県うるま市みどり町", "緯度": 26.376167, "経度": 127.853697, "url": "https://www.iryou.teikyouseido.mhlw.go.jp/znk-web/juminkanja/S2430/initialize?prefCd=47&kikanCd=1010&kikanKbn=3", "url2": null, "内容": "ファミリ－歯科クリニック【3:歯科】沖縄県うるま市みどり町" }, "geometry": { "type": "Point", "coordinates": [ 127.853697, 26.376167 ] } },
{ "type": "Feature", "properties": { "ID": "4731015", "正式名称": "たなか歯科医院", "機関区分": 3, "都道府県コード": 47, "市区町村コード": 213, "所在地": "沖縄県うるま市田場１８１７－１", "緯度": 26.372008, "経度": 127.860111, "url": "https://www.iryou.teikyouseido.mhlw.go.jp/znk-web/juminkanja/S2430/initialize?prefCd=47&kikanCd=1015&kikanKbn=3", "url2": "http://www.tanaka-shikaiin.net/", "内容": "たなか歯科医院【3:歯科】沖縄県うるま市田場１８１７－１" }, "geometry": { "type": "Point", "coordinates": [ 127.860111, 26.372008 ] } },
{ "type": "Feature", "properties": { "ID": "4731019", "正式名称": "わかば歯科医院", "機関区分": 3, "都道府県コード": 47, "市区町村コード": 213, "所在地": "沖縄県うるま市石川東恩納７３３", "緯度": 26.412717, "経度": 127.824153, "url": "https://www.iryou.teikyouseido.mhlw.go.jp/znk-web/juminkanja/S2430/initialize?prefCd=47&kikanCd=1019&kikanKbn=3", "url2": "http://www.cosmos.ne,jp/~seiaikai/", "内容": "わかば歯科医院【3:歯科】沖縄県うるま市石川東恩納７３３" }, "geometry": { "type": "Point", "coordinates": [ 127.824153, 26.412717 ] } },
{ "type": "Feature", "properties": { "ID": "4731033", "正式名称": "しんざと歯科", "機関区分": 3, "都道府県コード": 47, "市区町村コード": 201, "所在地": "沖縄県那覇市安里", "緯度": 26.216335, "経度": 127.69563, "url": "https://www.iryou.teikyouseido.mhlw.go.jp/znk-web/juminkanja/S2430/initialize?prefCd=47&kikanCd=1033&kikanKbn=3", "url2": null, "内容": "しんざと歯科【3:歯科】沖縄県那覇市安里" }, "geometry": { "type": "Point", "coordinates": [ 127.69563, 26.216335 ] } },
{ "type": "Feature", "properties": { "ID": "4731044", "正式名称": "医療法人恵歯会具志川歯科医院", "機関区分": 3, "都道府県コード": 47, "市区町村コード": 361, "所在地": "沖縄県島尻郡久米島町大田", "緯度": 26.345288, "経度": 126.751564, "url": "https://www.iryou.teikyouseido.mhlw.go.jp/znk-web/juminkanja/S2430/initialize?prefCd=47&kikanCd=1044&kikanKbn=3", "url2": "https://www.omisejiman.net/kumejimadental/", "内容": "医療法人恵歯会具志川歯科医院【3:歯科】沖縄県島尻郡久米島町大田" }, "geometry": { "type": "Point", "coordinates": [ 126.751564, 26.345288 ] } },
{ "type": "Feature", "properties": { "ID": "4731047", "正式名称": "伊江歯科医院", "機関区分": 3, "都道府県コード": 47, "市区町村コード": 315, "所在地": "沖縄県国頭郡伊江村東江前４５９－３Ｆ", "緯度": 26.711992, "経度": 127.806636, "url": "https://www.iryou.teikyouseido.mhlw.go.jp/znk-web/juminkanja/S2430/initialize?prefCd=47&kikanCd=1047&kikanKbn=3", "url2": null, "内容": "伊江歯科医院【3:歯科】沖縄県国頭郡伊江村東江前４５９－３Ｆ" }, "geometry": { "type": "Point", "coordinates": [ 127.806636, 26.711992 ] } },
{ "type": "Feature", "properties": { "ID": "4731048", "正式名称": "浜口歯科医院", "機関区分": 3, "都道府県コード": 47, "市区町村コード": 201, "所在地": "沖縄県那覇市久茂地１－４－９", "緯度": 26.213964, "経度": 127.679644, "url": "https://www.iryou.teikyouseido.mhlw.go.jp/znk-web/juminkanja/S2430/initialize?prefCd=47&kikanCd=1048&kikanKbn=3", "url2": null, "内容": "浜口歯科医院【3:歯科】沖縄県那覇市久茂地１－４－９" }, "geometry": { "type": "Point", "coordinates": [ 127.679644, 26.213964 ] } },
{ "type": "Feature", "properties": { "ID": "4731050", "正式名称": "パレット歯科", "機関区分": 3, "都道府県コード": 47, "市区町村コード": 201, "所在地": "沖縄県那覇市久茂地", "緯度": 26.215841, "経度": 127.68072, "url": "https://www.iryou.teikyouseido.mhlw.go.jp/znk-web/juminkanja/S2430/initialize?prefCd=47&kikanCd=1050&kikanKbn=3", "url2": null, "内容": "パレット歯科【3:歯科】沖縄県那覇市久茂地" }, "geometry": { "type": "Point", "coordinates": [ 127.68072, 26.215841 ] } },
{ "type": "Feature", "properties": { "ID": "4731082", "正式名称": "知花歯科医院", "機関区分": 3, "都道府県コード": 47, "市区町村コード": 325, "所在地": "沖縄県中頭郡嘉手納町字嘉手納２８１", "緯度": 26.364628, "経度": 127.755633, "url": "https://www.iryou.teikyouseido.mhlw.go.jp/znk-web/juminkanja/S2430/initialize?prefCd=47&kikanCd=1082&kikanKbn=3", "url2": null, "内容": "知花歯科医院【3:歯科】沖縄県中頭郡嘉手納町字嘉手納２８１" }, "geometry": { "type": "Point", "coordinates": [ 127.755633, 26.364628 ] } },
{ "type": "Feature", "properties": { "ID": "4731083", "正式名称": "カルシウム歯科", "機関区分": 3, "都道府県コード": 47, "市区町村コード": 208, "所在地": "沖縄県浦添市経塚４６７番地", "緯度": 26.238253, "経度": 127.72198, "url": "https://www.iryou.teikyouseido.mhlw.go.jp/znk-web/juminkanja/S2430/initialize?prefCd=47&kikanCd=1083&kikanKbn=3", "url2": null, "内容": "カルシウム歯科【3:歯科】沖縄県浦添市経塚４６７番地" }, "geometry": { "type": "Point", "coordinates": [ 127.72198, 26.238253 ] } },
{ "type": "Feature", "properties": { "ID": "4731084", "正式名称": "バークレー歯科", "機関区分": 3, "都道府県コード": 47, "市区町村コード": 208, "所在地": "沖縄県浦添市当２丁目２番２ー４号バークレーズコートサービスコート内", "緯度": 26.252745, "経度": 127.73712, "url": "https://www.iryou.teikyouseido.mhlw.go.jp/znk-web/juminkanja/S2430/initialize?prefCd=47&kikanCd=1084&kikanKbn=3", "url2": null, "内容": "バークレー歯科【3:歯科】沖縄県浦添市当２丁目２番２ー４号バークレーズコートサービスコート内" }, "geometry": { "type": "Point", "coordinates": [ 127.73712, 26.252745 ] } },
{ "type": "Feature", "properties": { "ID": "4731085", "正式名称": "医療法人社団秋桜会ファーストデンタルクリニックさくら", "機関区分": 3, "都道府県コード": 47, "市区町村コード": 208, "所在地": "沖縄県浦添市宮城３－３－１", "緯度": 26.245926, "経度": 127.706489, "url": "https://www.iryou.teikyouseido.mhlw.go.jp/znk-web/juminkanja/S2430/initialize?prefCd=47&kikanCd=1085&kikanKbn=3", "url2": "http://sakurashika-clinic.jp/index.html", "内容": "医療法人社団秋桜会ファーストデンタルクリニックさくら【3:歯科】沖縄県浦添市宮城３－３－１" }, "geometry": { "type": "Point", "coordinates": [ 127.706489, 26.245926 ] } },
{ "type": "Feature", "properties": { "ID": "4731122", "正式名称": "カントリー歯科クリニック", "機関区分": 3, "都道府県コード": 47, "市区町村コード": 211, "所在地": "沖縄県沖縄市高原６丁目１３番６号", "緯度": 26.31883, "経度": 127.825918, "url": "https://www.iryou.teikyouseido.mhlw.go.jp/znk-web/juminkanja/S2430/initialize?prefCd=47&kikanCd=1122&kikanKbn=3", "url2": null, "内容": "カントリー歯科クリニック【3:歯科】沖縄県沖縄市高原６丁目１３番６号" }, "geometry": { "type": "Point", "coordinates": [ 127.825918, 26.31883 ] } },
{ "type": "Feature", "properties": { "ID": "4731139", "正式名称": "いしみね歯科クリニック", "機関区分": 3, "都道府県コード": 47, "市区町村コード": 211, "所在地": "沖縄県沖縄市山里２－２－９", "緯度": 26.322445, "経度": 127.793087, "url": "https://www.iryou.teikyouseido.mhlw.go.jp/znk-web/juminkanja/S2430/initialize?prefCd=47&kikanCd=1139&kikanKbn=3", "url2": null, "内容": "いしみね歯科クリニック【3:歯科】沖縄県沖縄市山里２－２－９" }, "geometry": { "type": "Point", "coordinates": [ 127.793087, 26.322445 ] } },
{ "type": "Feature", "properties": { "ID": "4731145", "正式名称": "こうげん歯科医院", "機関区分": 3, "都道府県コード": 47, "市区町村コード": 209, "所在地": "沖縄県名護市宮里", "緯度": 26.605127, "経度": 127.97054, "url": "https://www.iryou.teikyouseido.mhlw.go.jp/znk-web/juminkanja/S2430/initialize?prefCd=47&kikanCd=1145&kikanKbn=3", "url2": null, "内容": "こうげん歯科医院【3:歯科】沖縄県名護市宮里" }, "geometry": { "type": "Point", "coordinates": [ 127.97054, 26.605127 ] } },
{ "type": "Feature", "properties": { "ID": "4731146", "正式名称": "本部マリン歯科", "機関区分": 3, "都道府県コード": 47, "市区町村コード": 308, "所在地": "沖縄県国頭郡本部町渡久地７９９－１", "緯度": 26.662252, "経度": 127.89109, "url": "https://www.iryou.teikyouseido.mhlw.go.jp/znk-web/juminkanja/S2430/initialize?prefCd=47&kikanCd=1146&kikanKbn=3", "url2": null, "内容": "本部マリン歯科【3:歯科】沖縄県国頭郡本部町渡久地７９９－１" }, "geometry": { "type": "Point", "coordinates": [ 127.89109, 26.662252 ] } },
{ "type": "Feature", "properties": { "ID": "4731150", "正式名称": "オアシス歯科医院", "機関区分": 3, "都道府県コード": 47, "市区町村コード": 209, "所在地": "沖縄県名護市東江１－２５－１４", "緯度": 26.586292, "経度": 127.985683, "url": "https://www.iryou.teikyouseido.mhlw.go.jp/znk-web/juminkanja/S2430/initialize?prefCd=47&kikanCd=1150&kikanKbn=3", "url2": null, "内容": "オアシス歯科医院【3:歯科】沖縄県名護市東江１－２５－１４" }, "geometry": { "type": "Point", "coordinates": [ 127.985683, 26.586292 ] } },
{ "type": "Feature", "properties": { "ID": "4731177", "正式名称": "くまがい歯科クリニック", "機関区分": 3, "都道府県コード": 47, "市区町村コード": 209, "所在地": "沖縄県名護市宇茂佐の森四丁目７－１０", "緯度": 26.60047, "経度": 127.96383, "url": "https://www.iryou.teikyouseido.mhlw.go.jp/znk-web/juminkanja/S2430/initialize?prefCd=47&kikanCd=1177&kikanKbn=3", "url2": null, "内容": "くまがい歯科クリニック【3:歯科】沖縄県名護市宇茂佐の森四丁目７－１０" }, "geometry": { "type": "Point", "coordinates": [ 127.96383, 26.60047 ] } },
{ "type": "Feature", "properties": { "ID": "4731179", "正式名称": "歯科口腔外科クリニック", "機関区分": 3, "都道府県コード": 47, "市区町村コード": 209, "所在地": "沖縄県名護市城１－１－１９", "緯度": 26.588761, "経度": 127.98265, "url": "https://www.iryou.teikyouseido.mhlw.go.jp/znk-web/juminkanja/S2430/initialize?prefCd=47&kikanCd=1179&kikanKbn=3", "url2": null, "内容": "歯科口腔外科クリニック【3:歯科】沖縄県名護市城１－１－１９" }, "geometry": { "type": "Point", "coordinates": [ 127.98265, 26.588761 ] } },
{ "type": "Feature", "properties": { "ID": "4731186", "正式名称": "仲尾歯科医院", "機関区分": 3, "都道府県コード": 47, "市区町村コード": 205, "所在地": "沖縄県宜野湾市真栄原１丁目１０ー５", "緯度": 26.240183, "経度": 127.760572, "url": "https://www.iryou.teikyouseido.mhlw.go.jp/znk-web/juminkanja/S2430/initialize?prefCd=47&kikanCd=1186&kikanKbn=3", "url2": null, "内容": "仲尾歯科医院【3:歯科】沖縄県宜野湾市真栄原１丁目１０ー５" }, "geometry": { "type": "Point", "coordinates": [ 127.760572, 26.240183 ] } },
{ "type": "Feature", "properties": { "ID": "4731188", "正式名称": "比嘉歯科医院新城診療所", "機関区分": 3, "都道府県コード": 47, "市区町村コード": 205, "所在地": "沖縄県宜野湾市新城", "緯度": 26.289447, "経度": 127.771158, "url": "https://www.iryou.teikyouseido.mhlw.go.jp/znk-web/juminkanja/S2430/initialize?prefCd=47&kikanCd=1188&kikanKbn=3", "url2": "https://www.kenyukai-dental.com", "内容": "比嘉歯科医院新城診療所【3:歯科】沖縄県宜野湾市新城" }, "geometry": { "type": "Point", "coordinates": [ 127.771158, 26.289447 ] } },
{ "type": "Feature", "properties": { "ID": "4731194", "正式名称": "なかざと歯科医院", "機関区分": 3, "都道府県コード": 47, "市区町村コード": 205, "所在地": "沖縄県宜野湾市宇地泊３－１１－１　２", "緯度": 26.273531, "経度": 127.775875, "url": "https://www.iryou.teikyouseido.mhlw.go.jp/znk-web/juminkanja/S2430/initialize?prefCd=47&kikanCd=1194&kikanKbn=3", "url2": null, "内容": "なかざと歯科医院【3:歯科】沖縄県宜野湾市宇地泊３－１１－１　２" }, "geometry": { "type": "Point", "coordinates": [ 127.775875, 26.273531 ] } },
{ "type": "Feature", "properties": { "ID": "4731204", "正式名称": "砂辺スマイル歯科医院", "機関区分": 3, "都道府県コード": 47, "市区町村コード": 326, "所在地": "沖縄県中頭郡北谷町宮城１ー１０５", "緯度": 26.328039, "経度": 127.745965, "url": "https://www.iryou.teikyouseido.mhlw.go.jp/znk-web/juminkanja/S2430/initialize?prefCd=47&kikanCd=1204&kikanKbn=3", "url2": null, "内容": "砂辺スマイル歯科医院【3:歯科】沖縄県中頭郡北谷町宮城１ー１０５" }, "geometry": { "type": "Point", "coordinates": [ 127.745965, 26.328039 ] } },
{ "type": "Feature", "properties": { "ID": "4731207", "正式名称": "ハンビー歯科クリニック", "機関区分": 3, "都道府県コード": 47, "市区町村コード": 326, "所在地": "沖縄県中頭郡北谷町北前", "緯度": 26.30011, "経度": 127.759081, "url": "https://www.iryou.teikyouseido.mhlw.go.jp/znk-web/juminkanja/S2430/initialize?prefCd=47&kikanCd=1207&kikanKbn=3", "url2": "https://www.hamby-dc.com/", "内容": "ハンビー歯科クリニック【3:歯科】沖縄県中頭郡北谷町北前" }, "geometry": { "type": "Point", "coordinates": [ 127.759081, 26.30011 ] } },
{ "type": "Feature", "properties": { "ID": "4731209", "正式名称": "まつしま歯科・矯正歯科", "機関区分": 3, "都道府県コード": 47, "市区町村コード": 326, "所在地": "沖縄県中頭郡北谷町美浜１－１－１０", "緯度": 26.310136, "経度": 127.762411, "url": "https://www.iryou.teikyouseido.mhlw.go.jp/znk-web/juminkanja/S2430/initialize?prefCd=47&kikanCd=1209&kikanKbn=3", "url2": null, "内容": "まつしま歯科・矯正歯科【3:歯科】沖縄県中頭郡北谷町美浜１－１－１０" }, "geometry": { "type": "Point", "coordinates": [ 127.762411, 26.310136 ] } },
{ "type": "Feature", "properties": { "ID": "4731211", "正式名称": "アイ歯科医院", "機関区分": 3, "都道府県コード": 47, "市区町村コード": 326, "所在地": "沖縄県中頭郡北谷町桑江６２０番地の１０", "緯度": 26.321472, "経度": 127.771531, "url": "https://www.iryou.teikyouseido.mhlw.go.jp/znk-web/juminkanja/S2430/initialize?prefCd=47&kikanCd=1211&kikanKbn=3", "url2": null, "内容": "アイ歯科医院【3:歯科】沖縄県中頭郡北谷町桑江６２０番地の１０" }, "geometry": { "type": "Point", "coordinates": [ 127.771531, 26.321472 ] } },
{ "type": "Feature", "properties": { "ID": "4731227", "正式名称": "デイゴ歯科医院", "機関区分": 3, "都道府県コード": 47, "市区町村コード": 205, "所在地": "沖縄県宜野湾市野嵩４－１－１３", "緯度": 26.289694, "経度": 127.783836, "url": "https://www.iryou.teikyouseido.mhlw.go.jp/znk-web/juminkanja/S2430/initialize?prefCd=47&kikanCd=1227&kikanKbn=3", "url2": null, "内容": "デイゴ歯科医院【3:歯科】沖縄県宜野湾市野嵩４－１－１３" }, "geometry": { "type": "Point", "coordinates": [ 127.783836, 26.289694 ] } },
{ "type": "Feature", "properties": { "ID": "4731251", "正式名称": "あさひ歯科医院", "機関区分": 3, "都道府県コード": 47, "市区町村コード": 205, "所在地": "沖縄県宜野湾市我如古２－３２－１８", "緯度": 26.254026, "経度": 127.763031, "url": "https://www.iryou.teikyouseido.mhlw.go.jp/znk-web/juminkanja/S2430/initialize?prefCd=47&kikanCd=1251&kikanKbn=3", "url2": null, "内容": "あさひ歯科医院【3:歯科】沖縄県宜野湾市我如古２－３２－１８" }, "geometry": { "type": "Point", "coordinates": [ 127.763031, 26.254026 ] } },
{ "type": "Feature", "properties": { "ID": "4731258", "正式名称": "アトール歯科", "機関区分": 3, "都道府県コード": 47, "市区町村コード": 215, "所在地": "沖縄県南城市大里仲間１１５５", "緯度": 26.174546, "経度": 127.747209, "url": "https://www.iryou.teikyouseido.mhlw.go.jp/znk-web/juminkanja/S2430/initialize?prefCd=47&kikanCd=1258&kikanKbn=3", "url2": null, "内容": "アトール歯科【3:歯科】沖縄県南城市大里仲間１１５５" }, "geometry": { "type": "Point", "coordinates": [ 127.747209, 26.174546 ] } },
{ "type": "Feature", "properties": { "ID": "4731259", "正式名称": "船越歯科医院", "機関区分": 3, "都道府県コード": 47, "市区町村コード": 215, "所在地": "沖縄県南城市玉城船越", "緯度": 26.148752, "経度": 127.75571, "url": "https://www.iryou.teikyouseido.mhlw.go.jp/znk-web/juminkanja/S2430/initialize?prefCd=47&kikanCd=1259&kikanKbn=3", "url2": null, "内容": "船越歯科医院【3:歯科】沖縄県南城市玉城船越" }, "geometry": { "type": "Point", "coordinates": [ 127.75571, 26.148752 ] } },
{ "type": "Feature", "properties": { "ID": "4731262", "正式名称": "高橋歯科医院", "機関区分": 3, "都道府県コード": 47, "市区町村コード": 350, "所在地": "沖縄県島尻郡南風原町兼城", "緯度": 26.193186, "経度": 127.72801, "url": "https://www.iryou.teikyouseido.mhlw.go.jp/znk-web/juminkanja/S2430/initialize?prefCd=47&kikanCd=1262&kikanKbn=3", "url2": null, "内容": "高橋歯科医院【3:歯科】沖縄県島尻郡南風原町兼城" }, "geometry": { "type": "Point", "coordinates": [ 127.72801, 26.193186 ] } },
{ "type": "Feature", "properties": { "ID": "4731268", "正式名称": "みなみ歯科医院", "機関区分": 3, "都道府県コード": 47, "市区町村コード": 350, "所在地": "沖縄県島尻郡南風原町宮平２４８－５", "緯度": 26.198689, "経度": 127.735908, "url": "https://www.iryou.teikyouseido.mhlw.go.jp/znk-web/juminkanja/S2430/initialize?prefCd=47&kikanCd=1268&kikanKbn=3", "url2": null, "内容": "みなみ歯科医院【3:歯科】沖縄県島尻郡南風原町宮平２４８－５" }, "geometry": { "type": "Point", "coordinates": [ 127.735908, 26.198689 ] } },
{ "type": "Feature", "properties": { "ID": "4731273", "正式名称": "松山歯科", "機関区分": 3, "都道府県コード": 47, "市区町村コード": 215, "所在地": "沖縄県南城市佐敷津波古１００６", "緯度": 26.179772, "経度": 127.774203, "url": "https://www.iryou.teikyouseido.mhlw.go.jp/znk-web/juminkanja/S2430/initialize?prefCd=47&kikanCd=1273&kikanKbn=3", "url2": null, "内容": "松山歯科【3:歯科】沖縄県南城市佐敷津波古１００６" }, "geometry": { "type": "Point", "coordinates": [ 127.774203, 26.179772 ] } },
{ "type": "Feature", "properties": { "ID": "4731279", "正式名称": "ざは歯科クリニック", "機関区分": 3, "都道府県コード": 47, "市区町村コード": 212, "所在地": "沖縄県豊見城市高安４１３－１", "緯度": 26.176525, "経度": 127.682603, "url": "https://www.iryou.teikyouseido.mhlw.go.jp/znk-web/juminkanja/S2430/initialize?prefCd=47&kikanCd=1279&kikanKbn=3", "url2": null, "内容": "ざは歯科クリニック【3:歯科】沖縄県豊見城市高安４１３－１" }, "geometry": { "type": "Point", "coordinates": [ 127.682603, 26.176525 ] } },
{ "type": "Feature", "properties": { "ID": "4731285", "正式名称": "ムーミン歯科", "機関区分": 3, "都道府県コード": 47, "市区町村コード": 350, "所在地": "沖縄県島尻郡南風原町津嘉山１７０９－３　フラッツ・ユキ１Ｆ", "緯度": 26.181714, "経度": 127.714825, "url": "https://www.iryou.teikyouseido.mhlw.go.jp/znk-web/juminkanja/S2430/initialize?prefCd=47&kikanCd=1285&kikanKbn=3", "url2": null, "内容": "ムーミン歯科【3:歯科】沖縄県島尻郡南風原町津嘉山１７０９－３　フラッツ・ユキ１Ｆ" }, "geometry": { "type": "Point", "coordinates": [ 127.714825, 26.181714 ] } },
{ "type": "Feature", "properties": { "ID": "4731286", "正式名称": "医療法人　上智会　上地歯科医院", "機関区分": 3, "都道府県コード": 47, "市区町村コード": 362, "所在地": "沖縄県島尻郡八重瀬町宜次７０６－４", "緯度": 26.175548, "経度": 127.718659, "url": "https://www.iryou.teikyouseido.mhlw.go.jp/znk-web/juminkanja/S2430/initialize?prefCd=47&kikanCd=1286&kikanKbn=3", "url2": "www.uechi-dental.com", "内容": "医療法人　上智会　上地歯科医院【3:歯科】沖縄県島尻郡八重瀬町宜次７０６－４" }, "geometry": { "type": "Point", "coordinates": [ 127.718659, 26.175548 ] } },
{ "type": "Feature", "properties": { "ID": "4731288", "正式名称": "ナガシマ歯科医院", "機関区分": 3, "都道府県コード": 47, "市区町村コード": 362, "所在地": "沖縄県島尻郡八重瀬町具志頭３４２－９", "緯度": 26.120642, "経度": 127.743586, "url": "https://www.iryou.teikyouseido.mhlw.go.jp/znk-web/juminkanja/S2430/initialize?prefCd=47&kikanCd=1288&kikanKbn=3", "url2": null, "内容": "ナガシマ歯科医院【3:歯科】沖縄県島尻郡八重瀬町具志頭３４２－９" }, "geometry": { "type": "Point", "coordinates": [ 127.743586, 26.120642 ] } },
{ "type": "Feature", "properties": { "ID": "4731289", "正式名称": "医療法人社団恵仁会エンジェル歯科", "機関区分": 3, "都道府県コード": 47, "市区町村コード": 328, "所在地": "沖縄県中頭郡中城村津覇", "緯度": 26.245412, "経度": 127.781597, "url": "https://www.iryou.teikyouseido.mhlw.go.jp/znk-web/juminkanja/S2430/initialize?prefCd=47&kikanCd=1289&kikanKbn=3", "url2": "http://www.keijinkai.info/angel/index.html", "内容": "医療法人社団恵仁会エンジェル歯科【3:歯科】沖縄県中頭郡中城村津覇" }, "geometry": { "type": "Point", "coordinates": [ 127.781597, 26.245412 ] } },
{ "type": "Feature", "properties": { "ID": "4731290", "正式名称": "よなみね歯科クリニック", "機関区分": 3, "都道府県コード": 47, "市区町村コード": 350, "所在地": "沖縄県島尻郡南風原町宮平５９－２　１－１", "緯度": 26.197753, "経度": 127.733729, "url": "https://www.iryou.teikyouseido.mhlw.go.jp/znk-web/juminkanja/S2430/initialize?prefCd=47&kikanCd=1290&kikanKbn=3", "url2": "https://www.ydc.okinawa", "内容": "よなみね歯科クリニック【3:歯科】沖縄県島尻郡南風原町宮平５９－２　１－１" }, "geometry": { "type": "Point", "coordinates": [ 127.733729, 26.197753 ] } },
{ "type": "Feature", "properties": { "ID": "4731293", "正式名称": "トムこども歯科クリニック", "機関区分": 3, "都道府県コード": 47, "市区町村コード": 350, "所在地": "沖縄県島尻郡南風原町兼城", "緯度": 26.193186, "経度": 127.72801, "url": "https://www.iryou.teikyouseido.mhlw.go.jp/znk-web/juminkanja/S2430/initialize?prefCd=47&kikanCd=1293&kikanKbn=3", "url2": null, "内容": "トムこども歯科クリニック【3:歯科】沖縄県島尻郡南風原町兼城" }, "geometry": { "type": "Point", "coordinates": [ 127.72801, 26.193186 ] } },
{ "type": "Feature", "properties": { "ID": "4731296", "正式名称": "上原歯科クリニック", "機関区分": 3, "都道府県コード": 47, "市区町村コード": 210, "所在地": "沖縄県糸満市西崎６－１５－２", "緯度": 26.143767, "経度": 127.668756, "url": "https://www.iryou.teikyouseido.mhlw.go.jp/znk-web/juminkanja/S2430/initialize?prefCd=47&kikanCd=1296&kikanKbn=3", "url2": null, "内容": "上原歯科クリニック【3:歯科】沖縄県糸満市西崎６－１５－２" }, "geometry": { "type": "Point", "coordinates": [ 127.668756, 26.143767 ] } },
{ "type": "Feature", "properties": { "ID": "4731312", "正式名称": "山城歯科医院", "機関区分": 3, "都道府県コード": 47, "市区町村コード": 201, "所在地": "沖縄県那覇市与儀３７３－７　メゾン城間１階", "緯度": 26.201514, "経度": 127.694733, "url": "https://www.iryou.teikyouseido.mhlw.go.jp/znk-web/juminkanja/S2430/initialize?prefCd=47&kikanCd=1312&kikanKbn=3", "url2": null, "内容": "山城歯科医院【3:歯科】沖縄県那覇市与儀３７３－７　メゾン城間１階" }, "geometry": { "type": "Point", "coordinates": [ 127.694733, 26.201514 ] } },
{ "type": "Feature", "properties": { "ID": "4731316", "正式名称": "サンユー歯科", "機関区分": 3, "都道府県コード": 47, "市区町村コード": 329, "所在地": "沖縄県中頭郡西原町小橋川１５４－５　玉那覇ビル１Ｆ", "緯度": 26.225544, "経度": 127.764803, "url": "https://www.iryou.teikyouseido.mhlw.go.jp/znk-web/juminkanja/S2430/initialize?prefCd=47&kikanCd=1316&kikanKbn=3", "url2": null, "内容": "サンユー歯科【3:歯科】沖縄県中頭郡西原町小橋川１５４－５　玉那覇ビル１Ｆ" }, "geometry": { "type": "Point", "coordinates": [ 127.764803, 26.225544 ] } },
{ "type": "Feature", "properties": { "ID": "4731329", "正式名称": "かなばやし歯科", "機関区分": 3, "都道府県コード": 47, "市区町村コード": 210, "所在地": "沖縄県糸満市賀数", "緯度": 26.147306, "経度": 127.69277, "url": "https://www.iryou.teikyouseido.mhlw.go.jp/znk-web/juminkanja/S2430/initialize?prefCd=47&kikanCd=1329&kikanKbn=3", "url2": null, "内容": "かなばやし歯科【3:歯科】沖縄県糸満市賀数" }, "geometry": { "type": "Point", "coordinates": [ 127.69277, 26.147306 ] } },
{ "type": "Feature", "properties": { "ID": "4731333", "正式名称": "備瀬歯科医院", "機関区分": 3, "都道府県コード": 47, "市区町村コード": 329, "所在地": "沖縄県中頭郡西原町兼久４番地の２", "緯度": 26.217647, "経度": 127.763736, "url": "https://www.iryou.teikyouseido.mhlw.go.jp/znk-web/juminkanja/S2430/initialize?prefCd=47&kikanCd=1333&kikanKbn=3", "url2": null, "内容": "備瀬歯科医院【3:歯科】沖縄県中頭郡西原町兼久４番地の２" }, "geometry": { "type": "Point", "coordinates": [ 127.763736, 26.217647 ] } },
{ "type": "Feature", "properties": { "ID": "4731340", "正式名称": "新城歯科医院", "機関区分": 3, "都道府県コード": 47, "市区町村コード": 207, "所在地": "沖縄県石垣市大川２７３番地", "緯度": 24.340256, "経度": 124.156975, "url": "https://www.iryou.teikyouseido.mhlw.go.jp/znk-web/juminkanja/S2430/initialize?prefCd=47&kikanCd=1340&kikanKbn=3", "url2": null, "内容": "新城歯科医院【3:歯科】沖縄県石垣市大川２７３番地" }, "geometry": { "type": "Point", "coordinates": [ 124.156975, 24.340256 ] } },
{ "type": "Feature", "properties": { "ID": "4731361", "正式名称": "大山歯科医院", "機関区分": 3, "都道府県コード": 47, "市区町村コード": 207, "所在地": "沖縄県石垣市新栄町１２番地９", "緯度": 24.342964, "経度": 124.154206, "url": "https://www.iryou.teikyouseido.mhlw.go.jp/znk-web/juminkanja/S2430/initialize?prefCd=47&kikanCd=1361&kikanKbn=3", "url2": null, "内容": "大山歯科医院【3:歯科】沖縄県石垣市新栄町１２番地９" }, "geometry": { "type": "Point", "coordinates": [ 124.154206, 24.342964 ] } },
{ "type": "Feature", "properties": { "ID": "4731372", "正式名称": "医療法人社団恵仁会　きらら歯科クリニック", "機関区分": 3, "都道府県コード": 47, "市区町村コード": 212, "所在地": "沖縄県豊見城市宜保２丁目７番地７", "緯度": 26.178689, "経度": 127.676222, "url": "https://www.iryou.teikyouseido.mhlw.go.jp/znk-web/juminkanja/S2430/initialize?prefCd=47&kikanCd=1372&kikanKbn=3", "url2": "http://keijinkai.info/kirara/index.html", "内容": "医療法人社団恵仁会　きらら歯科クリニック【3:歯科】沖縄県豊見城市宜保２丁目７番地７" }, "geometry": { "type": "Point", "coordinates": [ 127.676222, 26.178689 ] } },
{ "type": "Feature", "properties": { "ID": "4731382", "正式名称": "ひまわり歯科医院", "機関区分": 3, "都道府県コード": 47, "市区町村コード": 348, "所在地": "沖縄県島尻郡与那原町与那原１１０７", "緯度": 26.203409, "経度": 127.756312, "url": "https://www.iryou.teikyouseido.mhlw.go.jp/znk-web/juminkanja/S2430/initialize?prefCd=47&kikanCd=1382&kikanKbn=3", "url2": null, "内容": "ひまわり歯科医院【3:歯科】沖縄県島尻郡与那原町与那原１１０７" }, "geometry": { "type": "Point", "coordinates": [ 127.756312, 26.203409 ] } },
{ "type": "Feature", "properties": { "ID": "4731383", "正式名称": "トヨミ歯科", "機関区分": 3, "都道府県コード": 47, "市区町村コード": 212, "所在地": "沖縄県豊見城市根差部７１０番地　マックスバリュとよみ店", "緯度": 26.189928, "経度": 127.687968, "url": "https://www.iryou.teikyouseido.mhlw.go.jp/znk-web/juminkanja/S2430/initialize?prefCd=47&kikanCd=1383&kikanKbn=3", "url2": null, "内容": "トヨミ歯科【3:歯科】沖縄県豊見城市根差部７１０番地　マックスバリュとよみ店" }, "geometry": { "type": "Point", "coordinates": [ 127.687968, 26.189928 ] } },
{ "type": "Feature", "properties": { "ID": "4731389", "正式名称": "ＹＹマリンデンタルクリニック", "機関区分": 3, "都道府県コード": 47, "市区町村コード": 201, "所在地": "沖縄県那覇市銘苅", "緯度": 26.231144, "経度": 127.700584, "url": "https://www.iryou.teikyouseido.mhlw.go.jp/znk-web/juminkanja/S2430/initialize?prefCd=47&kikanCd=1389&kikanKbn=3", "url2": "http://yy-marine.com/", "内容": "ＹＹマリンデンタルクリニック【3:歯科】沖縄県那覇市銘苅" }, "geometry": { "type": "Point", "coordinates": [ 127.700584, 26.231144 ] } },
{ "type": "Feature", "properties": { "ID": "4731403", "正式名称": "医療法人英秀会岡村歯科医院", "機関区分": 3, "都道府県コード": 47, "市区町村コード": 214, "所在地": "沖縄県宮古島市平良下里９２１番地", "緯度": 24.803955, "経度": 125.27907, "url": "https://www.iryou.teikyouseido.mhlw.go.jp/znk-web/juminkanja/S2430/initialize?prefCd=47&kikanCd=1403&kikanKbn=3", "url2": null, "内容": "医療法人英秀会岡村歯科医院【3:歯科】沖縄県宮古島市平良下里９２１番地" }, "geometry": { "type": "Point", "coordinates": [ 125.27907, 24.803955 ] } },
{ "type": "Feature", "properties": { "ID": "4731416", "正式名称": "ミッキ－歯科クリニック", "機関区分": 3, "都道府県コード": 47, "市区町村コード": 201, "所在地": "沖縄県那覇市首里石嶺町２－７０－１５　１０１号", "緯度": 26.227536, "経度": 127.733124, "url": "https://www.iryou.teikyouseido.mhlw.go.jp/znk-web/juminkanja/S2430/initialize?prefCd=47&kikanCd=1416&kikanKbn=3", "url2": null, "内容": "ミッキ－歯科クリニック【3:歯科】沖縄県那覇市首里石嶺町２－７０－１５　１０１号" }, "geometry": { "type": "Point", "coordinates": [ 127.733124, 26.227536 ] } },
{ "type": "Feature", "properties": { "ID": "4731419", "正式名称": "知花歯科医院", "機関区分": 3, "都道府県コード": 47, "市区町村コード": 201, "所在地": "沖縄県那覇市首里当蔵町２－１７", "緯度": 26.219714, "経度": 127.721213, "url": "https://www.iryou.teikyouseido.mhlw.go.jp/znk-web/juminkanja/S2430/initialize?prefCd=47&kikanCd=1419&kikanKbn=3", "url2": null, "内容": "知花歯科医院【3:歯科】沖縄県那覇市首里当蔵町２－１７" }, "geometry": { "type": "Point", "coordinates": [ 127.721213, 26.219714 ] } },
{ "type": "Feature", "properties": { "ID": "4731427", "正式名称": "ＲＩＯ歯科クリニック", "機関区分": 3, "都道府県コード": 47, "市区町村コード": 201, "所在地": "沖縄県那覇市首里儀保町", "緯度": 26.225016, "経度": 127.71828, "url": "https://www.iryou.teikyouseido.mhlw.go.jp/znk-web/juminkanja/S2430/initialize?prefCd=47&kikanCd=1427&kikanKbn=3", "url2": null, "内容": "ＲＩＯ歯科クリニック【3:歯科】沖縄県那覇市首里儀保町" }, "geometry": { "type": "Point", "coordinates": [ 127.71828, 26.225016 ] } },
{ "type": "Feature", "properties": { "ID": "4731433", "正式名称": "たかみね歯科クリニック", "機関区分": 3, "都道府県コード": 47, "市区町村コード": 201, "所在地": "沖縄県那覇市松山", "緯度": 26.218221, "経度": 127.680747, "url": "https://www.iryou.teikyouseido.mhlw.go.jp/znk-web/juminkanja/S2430/initialize?prefCd=47&kikanCd=1433&kikanKbn=3", "url2": "http://www.takaminedc.jp/", "内容": "たかみね歯科クリニック【3:歯科】沖縄県那覇市松山" }, "geometry": { "type": "Point", "coordinates": [ 127.680747, 26.218221 ] } },
{ "type": "Feature", "properties": { "ID": "4731441", "正式名称": "いしはら歯科医院", "機関区分": 3, "都道府県コード": 47, "市区町村コード": 201, "所在地": "沖縄県那覇市小禄２－３－１３－１階", "緯度": 26.190403, "経度": 127.675072, "url": "https://www.iryou.teikyouseido.mhlw.go.jp/znk-web/juminkanja/S2430/initialize?prefCd=47&kikanCd=1441&kikanKbn=3", "url2": null, "内容": "いしはら歯科医院【3:歯科】沖縄県那覇市小禄２－３－１３－１階" }, "geometry": { "type": "Point", "coordinates": [ 127.675072, 26.190403 ] } },
{ "type": "Feature", "properties": { "ID": "4731463", "正式名称": "くめ歯科クリニック", "機関区分": 3, "都道府県コード": 47, "市区町村コード": 201, "所在地": "沖縄県那覇市久茂地３－１１－６", "緯度": 26.215217, "経度": 127.683242, "url": "https://www.iryou.teikyouseido.mhlw.go.jp/znk-web/juminkanja/S2430/initialize?prefCd=47&kikanCd=1463&kikanKbn=3", "url2": null, "内容": "くめ歯科クリニック【3:歯科】沖縄県那覇市久茂地３－１１－６" }, "geometry": { "type": "Point", "coordinates": [ 127.683242, 26.215217 ] } },
{ "type": "Feature", "properties": { "ID": "4731475", "正式名称": "えいさく歯科医院", "機関区分": 3, "都道府県コード": 47, "市区町村コード": 201, "所在地": "沖縄県那覇市国場７０８－２", "緯度": 26.203394, "経度": 127.698853, "url": "https://www.iryou.teikyouseido.mhlw.go.jp/znk-web/juminkanja/S2430/initialize?prefCd=47&kikanCd=1475&kikanKbn=3", "url2": null, "内容": "えいさく歯科医院【3:歯科】沖縄県那覇市国場７０８－２" }, "geometry": { "type": "Point", "coordinates": [ 127.698853, 26.203394 ] } },
{ "type": "Feature", "properties": { "ID": "4731477", "正式名称": "あいあい歯科医院", "機関区分": 3, "都道府県コード": 47, "市区町村コード": 201, "所在地": "沖縄県那覇市国場１３番地", "緯度": 26.196923, "経度": 127.703683, "url": "https://www.iryou.teikyouseido.mhlw.go.jp/znk-web/juminkanja/S2430/initialize?prefCd=47&kikanCd=1477&kikanKbn=3", "url2": null, "内容": "あいあい歯科医院【3:歯科】沖縄県那覇市国場１３番地" }, "geometry": { "type": "Point", "coordinates": [ 127.703683, 26.196923 ] } },
{ "type": "Feature", "properties": { "ID": "4731497", "正式名称": "ともよせ歯科医院", "機関区分": 3, "都道府県コード": 47, "市区町村コード": 201, "所在地": "沖縄県那覇市田原４－７－３", "緯度": 26.194897, "経度": 127.668267, "url": "https://www.iryou.teikyouseido.mhlw.go.jp/znk-web/juminkanja/S2430/initialize?prefCd=47&kikanCd=1497&kikanKbn=3", "url2": "http://tomoyosedc.sakura.ne.jp/", "内容": "ともよせ歯科医院【3:歯科】沖縄県那覇市田原４－７－３" }, "geometry": { "type": "Point", "coordinates": [ 127.668267, 26.194897 ] } },
{ "type": "Feature", "properties": { "ID": "4731508", "正式名称": "医療法人健歯会わかばの森歯科医院", "機関区分": 3, "都道府県コード": 47, "市区町村コード": 205, "所在地": "沖縄県宜野湾市赤道", "緯度": 26.272841, "経度": 127.772258, "url": "https://www.iryou.teikyouseido.mhlw.go.jp/znk-web/juminkanja/S2430/initialize?prefCd=47&kikanCd=1508&kikanKbn=3", "url2": null, "内容": "医療法人健歯会わかばの森歯科医院【3:歯科】沖縄県宜野湾市赤道" }, "geometry": { "type": "Point", "coordinates": [ 127.772258, 26.272841 ] } },
{ "type": "Feature", "properties": { "ID": "4731542", "正式名称": "新城歯科医院", "機関区分": 3, "都道府県コード": 47, "市区町村コード": 201, "所在地": "沖縄県那覇市松川２７８－３", "緯度": 26.216034, "経度": 127.700124, "url": "https://www.iryou.teikyouseido.mhlw.go.jp/znk-web/juminkanja/S2430/initialize?prefCd=47&kikanCd=1542&kikanKbn=3", "url2": null, "内容": "新城歯科医院【3:歯科】沖縄県那覇市松川２７８－３" }, "geometry": { "type": "Point", "coordinates": [ 127.700124, 26.216034 ] } },
{ "type": "Feature", "properties": { "ID": "4731550", "正式名称": "太田歯科医院", "機関区分": 3, "都道府県コード": 47, "市区町村コード": 201, "所在地": "沖縄県那覇市長田１－２４－１１", "緯度": 26.201009, "経度": 127.700735, "url": "https://www.iryou.teikyouseido.mhlw.go.jp/znk-web/juminkanja/S2430/initialize?prefCd=47&kikanCd=1550&kikanKbn=3", "url2": null, "内容": "太田歯科医院【3:歯科】沖縄県那覇市長田１－２４－１１" }, "geometry": { "type": "Point", "coordinates": [ 127.700735, 26.201009 ] } },
{ "type": "Feature", "properties": { "ID": "4731552", "正式名称": "アイリス歯科", "機関区分": 3, "都道府県コード": 47, "市区町村コード": 201, "所在地": "沖縄県那覇市長田１－１－１　２階", "緯度": 26.264522, "経度": 127.766478, "url": "https://www.iryou.teikyouseido.mhlw.go.jp/znk-web/juminkanja/S2430/initialize?prefCd=47&kikanCd=1552&kikanKbn=3", "url2": null, "内容": "アイリス歯科【3:歯科】沖縄県那覇市長田１－１－１　２階" }, "geometry": { "type": "Point", "coordinates": [ 127.766478, 26.264522 ] } },
{ "type": "Feature", "properties": { "ID": "4731560", "正式名称": "おおた歯科", "機関区分": 3, "都道府県コード": 47, "市区町村コード": 201, "所在地": "沖縄県那覇市泉崎２－１－６", "緯度": 26.210583, "経度": 127.683478, "url": "https://www.iryou.teikyouseido.mhlw.go.jp/znk-web/juminkanja/S2430/initialize?prefCd=47&kikanCd=1560&kikanKbn=3", "url2": null, "内容": "おおた歯科【3:歯科】沖縄県那覇市泉崎２－１－６" }, "geometry": { "type": "Point", "coordinates": [ 127.683478, 26.210583 ] } },
{ "type": "Feature", "properties": { "ID": "4732132", "正式名称": "あいち歯科クリニック", "機関区分": 3, "都道府県コード": 47, "市区町村コード": 205, "所在地": "沖縄県宜野湾市愛知１－２－１５－２階", "緯度": 26.269951, "経度": 127.768958, "url": "https://www.iryou.teikyouseido.mhlw.go.jp/znk-web/juminkanja/S2430/initialize?prefCd=47&kikanCd=2132&kikanKbn=3", "url2": "https://www.aichi-shikaclinic.biz/", "内容": "あいち歯科クリニック【3:歯科】沖縄県宜野湾市愛知１－２－１５－２階" }, "geometry": { "type": "Point", "coordinates": [ 127.768958, 26.269951 ] } },
{ "type": "Feature", "properties": { "ID": "4732185", "正式名称": "３０矯正歯科", "機関区分": 3, "都道府県コード": 47, "市区町村コード": 213, "所在地": "沖縄県うるま市江洲５４９－１", "緯度": 26.349903, "経度": 127.829864, "url": "https://www.iryou.teikyouseido.mhlw.go.jp/znk-web/juminkanja/S2430/initialize?prefCd=47&kikanCd=2185&kikanKbn=3", "url2": null, "内容": "３０矯正歯科【3:歯科】沖縄県うるま市江洲５４９－１" }, "geometry": { "type": "Point", "coordinates": [ 127.829864, 26.349903 ] } },
{ "type": "Feature", "properties": { "ID": "4732239", "正式名称": "あおぞら歯科", "機関区分": 3, "都道府県コード": 47, "市区町村コード": 326, "所在地": "沖縄県中頭郡北谷町美浜３丁目６－５－２Ｆ", "緯度": 26.324486, "経度": 127.755322, "url": "https://www.iryou.teikyouseido.mhlw.go.jp/znk-web/juminkanja/S2430/initialize?prefCd=47&kikanCd=2239&kikanKbn=3", "url2": null, "内容": "あおぞら歯科【3:歯科】沖縄県中頭郡北谷町美浜３丁目６－５－２Ｆ" }, "geometry": { "type": "Point", "coordinates": [ 127.755322, 26.324486 ] } },
{ "type": "Feature", "properties": { "ID": "4732259", "正式名称": "医療法人健歯会　珀美歯科", "機関区分": 3, "都道府県コード": 47, "市区町村コード": 324, "所在地": "沖縄県中頭郡読谷村古堅", "緯度": 26.369353, "経度": 127.746356, "url": "https://www.iryou.teikyouseido.mhlw.go.jp/znk-web/juminkanja/S2430/initialize?prefCd=47&kikanCd=2259&kikanKbn=3", "url2": null, "内容": "医療法人健歯会　珀美歯科【3:歯科】沖縄県中頭郡読谷村古堅" }, "geometry": { "type": "Point", "coordinates": [ 127.746356, 26.369353 ] } },
{ "type": "Feature", "properties": { "ID": "4732341", "正式名称": "マリーナ歯科クリニック", "機関区分": 3, "都道府県コード": 47, "市区町村コード": 205, "所在地": "沖縄県宜野湾市真志喜５－３－５　ルビア１階", "緯度": 26.270465, "経度": 127.735706, "url": "https://www.iryou.teikyouseido.mhlw.go.jp/znk-web/juminkanja/S2430/initialize?prefCd=47&kikanCd=2341&kikanKbn=3", "url2": "https://www.marina-dc.net/", "内容": "マリーナ歯科クリニック【3:歯科】沖縄県宜野湾市真志喜５－３－５　ルビア１階" }, "geometry": { "type": "Point", "coordinates": [ 127.735706, 26.270465 ] } },
{ "type": "Feature", "properties": { "ID": "4732382", "正式名称": "プラス　デンタル　クリニック", "機関区分": 3, "都道府県コード": 47, "市区町村コード": 201, "所在地": "沖縄県那覇市首里鳥堀町３－６７－２１", "緯度": 26.21587, "経度": 127.725454, "url": "https://www.iryou.teikyouseido.mhlw.go.jp/znk-web/juminkanja/S2430/initialize?prefCd=47&kikanCd=2382&kikanKbn=3", "url2": null, "内容": "プラス　デンタル　クリニック【3:歯科】沖縄県那覇市首里鳥堀町３－６７－２１" }, "geometry": { "type": "Point", "coordinates": [ 127.725454, 26.21587 ] } },
{ "type": "Feature", "properties": { "ID": "4732383", "正式名称": "泊ポート歯科", "機関区分": 3, "都道府県コード": 47, "市区町村コード": 201, "所在地": "沖縄県那覇市泊１－４－１０", "緯度": 26.222322, "経度": 127.687356, "url": "https://www.iryou.teikyouseido.mhlw.go.jp/znk-web/juminkanja/S2430/initialize?prefCd=47&kikanCd=2383&kikanKbn=3", "url2": null, "内容": "泊ポート歯科【3:歯科】沖縄県那覇市泊１－４－１０" }, "geometry": { "type": "Point", "coordinates": [ 127.687356, 26.222322 ] } },
{ "type": "Feature", "properties": { "ID": "4732418", "正式名称": "はごろもファミリー歯科", "機関区分": 3, "都道府県コード": 47, "市区町村コード": 205, "所在地": "沖縄県宜野湾市真志喜２－１３－１３", "緯度": 26.274278, "経度": 127.739875, "url": "https://www.iryou.teikyouseido.mhlw.go.jp/znk-web/juminkanja/S2430/initialize?prefCd=47&kikanCd=2418&kikanKbn=3", "url2": "http://www.hagoromo-family.com/", "内容": "はごろもファミリー歯科【3:歯科】沖縄県宜野湾市真志喜２－１３－１３" }, "geometry": { "type": "Point", "coordinates": [ 127.739875, 26.274278 ] } },
{ "type": "Feature", "properties": { "ID": "4732700", "正式名称": "医療法人　琉心　サクラデンタルクリニック", "機関区分": 3, "都道府県コード": 47, "市区町村コード": 211, "所在地": "沖縄県沖縄市美原４－７－９", "緯度": 26.349528, "経度": 127.822312, "url": "https://www.iryou.teikyouseido.mhlw.go.jp/znk-web/juminkanja/S2430/initialize?prefCd=47&kikanCd=2700&kikanKbn=3", "url2": null, "内容": "医療法人　琉心　サクラデンタルクリニック【3:歯科】沖縄県沖縄市美原４－７－９" }, "geometry": { "type": "Point", "coordinates": [ 127.822312, 26.349528 ] } },
{ "type": "Feature", "properties": { "ID": "4732875", "正式名称": "たなだ歯科", "機関区分": 3, "都道府県コード": 47, "市区町村コード": 208, "所在地": "沖縄県浦添市牧港２ー４６ー１２メディカルプラザ牧港４階", "緯度": 26.255947, "経度": 127.729872, "url": "https://www.iryou.teikyouseido.mhlw.go.jp/znk-web/juminkanja/S2430/initialize?prefCd=47&kikanCd=2875&kikanKbn=3", "url2": "http://tanada-dental.com/", "内容": "たなだ歯科【3:歯科】沖縄県浦添市牧港２ー４６ー１２メディカルプラザ牧港４階" }, "geometry": { "type": "Point", "coordinates": [ 127.729872, 26.255947 ] } },
{ "type": "Feature", "properties": { "ID": "4732882", "正式名称": "てぃーだ歯科クリニック", "機関区分": 3, "都道府県コード": 47, "市区町村コード": 208, "所在地": "沖縄県浦添市城間２－５－１－１０２", "緯度": 26.254287, "経度": 127.713737, "url": "https://www.iryou.teikyouseido.mhlw.go.jp/znk-web/juminkanja/S2430/initialize?prefCd=47&kikanCd=2882&kikanKbn=3", "url2": null, "内容": "てぃーだ歯科クリニック【3:歯科】沖縄県浦添市城間２－５－１－１０２" }, "geometry": { "type": "Point", "coordinates": [ 127.713737, 26.254287 ] } },
{ "type": "Feature", "properties": { "ID": "4732940", "正式名称": "サン歯科こども歯科クリニック", "機関区分": 3, "都道府県コード": 47, "市区町村コード": 205, "所在地": "沖縄県宜野湾市伊佐３丁目８番１４号グランメール１Ｆ", "緯度": 26.291041, "経度": 127.757046, "url": "https://www.iryou.teikyouseido.mhlw.go.jp/znk-web/juminkanja/S2430/initialize?prefCd=47&kikanCd=2940&kikanKbn=3", "url2": "https://sun-dental-okinawa.com", "内容": "サン歯科こども歯科クリニック【3:歯科】沖縄県宜野湾市伊佐３丁目８番１４号グランメール１Ｆ" }, "geometry": { "type": "Point", "coordinates": [ 127.757046, 26.291041 ] } },
{ "type": "Feature", "properties": { "ID": "4732941", "正式名称": "みやらデンタルクリニック", "機関区分": 3, "都道府県コード": 47, "市区町村コード": 207, "所在地": "沖縄県石垣市新川３１－２", "緯度": 24.344523, "経度": 124.154445, "url": "https://www.iryou.teikyouseido.mhlw.go.jp/znk-web/juminkanja/S2430/initialize?prefCd=47&kikanCd=2941&kikanKbn=3", "url2": null, "内容": "みやらデンタルクリニック【3:歯科】沖縄県石垣市新川３１－２" }, "geometry": { "type": "Point", "coordinates": [ 124.154445, 24.344523 ] } },
{ "type": "Feature", "properties": { "ID": "4732972", "正式名称": "メイプル歯科", "機関区分": 3, "都道府県コード": 47, "市区町村コード": 350, "所在地": "沖縄県島尻郡南風原町津嘉山", "緯度": 26.187742, "経度": 127.71007, "url": "https://www.iryou.teikyouseido.mhlw.go.jp/znk-web/juminkanja/S2430/initialize?prefCd=47&kikanCd=2972&kikanKbn=3", "url2": "https://maple-dental-clinic.jimdofree.com/", "内容": "メイプル歯科【3:歯科】沖縄県島尻郡南風原町津嘉山" }, "geometry": { "type": "Point", "coordinates": [ 127.71007, 26.187742 ] } },
{ "type": "Feature", "properties": { "ID": "4733034", "正式名称": "サンエー宜野湾コンベンションシティオレンジ歯科", "機関区分": 3, "都道府県コード": 47, "市区町村コード": 205, "所在地": "沖縄県宜野湾市宇地泊３丁目６－１", "緯度": 26.274892, "経度": 127.729841, "url": "https://www.iryou.teikyouseido.mhlw.go.jp/znk-web/juminkanja/S2430/initialize?prefCd=47&kikanCd=3034&kikanKbn=3", "url2": null, "内容": "サンエー宜野湾コンベンションシティオレンジ歯科【3:歯科】沖縄県宜野湾市宇地泊３丁目６－１" }, "geometry": { "type": "Point", "coordinates": [ 127.729841, 26.274892 ] } },
{ "type": "Feature", "properties": { "ID": "4733040", "正式名称": "サンエー経塚シティオレンジ歯科", "機関区分": 3, "都道府県コード": 47, "市区町村コード": 208, "所在地": "沖縄県浦添市経塚６５２－１", "緯度": 26.237718, "経度": 127.722742, "url": "https://www.iryou.teikyouseido.mhlw.go.jp/znk-web/juminkanja/S2430/initialize?prefCd=47&kikanCd=3040&kikanKbn=3", "url2": "https://www.okinawa-orange.com/", "内容": "サンエー経塚シティオレンジ歯科【3:歯科】沖縄県浦添市経塚６５２－１" }, "geometry": { "type": "Point", "coordinates": [ 127.722742, 26.237718 ] } },
{ "type": "Feature", "properties": { "ID": "4733041", "正式名称": "サンエーしおざきシティオレンジ歯科", "機関区分": 3, "都道府県コード": 47, "市区町村コード": 210, "所在地": "沖縄県糸満市潮崎町２丁目２番地", "緯度": 26.124622, "経度": 127.668692, "url": "https://www.iryou.teikyouseido.mhlw.go.jp/znk-web/juminkanja/S2430/initialize?prefCd=47&kikanCd=3041&kikanKbn=3", "url2": "https://www.itoman-orange.com/", "内容": "サンエーしおざきシティオレンジ歯科【3:歯科】沖縄県糸満市潮崎町２丁目２番地" }, "geometry": { "type": "Point", "coordinates": [ 127.668692, 26.124622 ] } },
{ "type": "Feature", "properties": { "ID": "4733152", "正式名称": "アガチャ歯科", "機関区分": 3, "都道府県コード": 47, "市区町村コード": 213, "所在地": "沖縄県うるま市兼箇段１７５２ー１", "緯度": 26.360362, "経度": 127.835953, "url": "https://www.iryou.teikyouseido.mhlw.go.jp/znk-web/juminkanja/S2430/initialize?prefCd=47&kikanCd=3152&kikanKbn=3", "url2": "http://agacha-dental.com", "内容": "アガチャ歯科【3:歯科】沖縄県うるま市兼箇段１７５２ー１" }, "geometry": { "type": "Point", "coordinates": [ 127.835953, 26.360362 ] } },
{ "type": "Feature", "properties": { "ID": "4734730", "正式名称": "とよはら歯科医院", "機関区分": 3, "都道府県コード": 47, "市区町村コード": 209, "所在地": "沖縄県名護市豊原１６９－１", "緯度": 26.519184, "経度": 128.024164, "url": "https://www.iryou.teikyouseido.mhlw.go.jp/znk-web/juminkanja/S2430/initialize?prefCd=47&kikanCd=4730&kikanKbn=3", "url2": null, "内容": "とよはら歯科医院【3:歯科】沖縄県名護市豊原１６９－１" }, "geometry": { "type": "Point", "coordinates": [ 128.024164, 26.519184 ] } },
{ "type": "Feature", "properties": { "ID": "473959", "正式名称": "ほんだ歯科", "機関区分": 3, "都道府県コード": 47, "市区町村コード": 213, "所在地": "沖縄県うるま市与那城９４－１　２Ｆ", "緯度": 26.314783, "経度": 127.909397, "url": "https://www.iryou.teikyouseido.mhlw.go.jp/znk-web/juminkanja/S2430/initialize?prefCd=47&kikanCd=959&kikanKbn=3", "url2": null, "内容": "ほんだ歯科【3:歯科】沖縄県うるま市与那城９４－１　２Ｆ" }, "geometry": { "type": "Point", "coordinates": [ 127.909397, 26.314783 ] } },
{ "type": "Feature", "properties": { "ID": "473978", "正式名称": "屋慶名歯科医院", "機関区分": 3, "都道府県コード": 47, "市区町村コード": 213, "所在地": "沖縄県うるま市与那城屋慶名１１０３", "緯度": 26.323111, "経度": 127.908217, "url": "https://www.iryou.teikyouseido.mhlw.go.jp/znk-web/juminkanja/S2430/initialize?prefCd=47&kikanCd=978&kikanKbn=3", "url2": "https://www.yakenashika.com/", "内容": "屋慶名歯科医院【3:歯科】沖縄県うるま市与那城屋慶名１１０３" }, "geometry": { "type": "Point", "coordinates": [ 127.908217, 26.323111 ] } },
{ "type": "Feature", "properties": { "ID": "473979", "正式名称": "みのり歯科クリニック", "機関区分": 3, "都道府県コード": 47, "市区町村コード": 208, "所在地": "沖縄県浦添市伊祖２－２１－１６", "緯度": 26.25506, "経度": 127.717084, "url": "https://www.iryou.teikyouseido.mhlw.go.jp/znk-web/juminkanja/S2430/initialize?prefCd=47&kikanCd=979&kikanKbn=3", "url2": null, "内容": "みのり歯科クリニック【3:歯科】沖縄県浦添市伊祖２－２１－１６" }, "geometry": { "type": "Point", "coordinates": [ 127.717084, 26.25506 ] } },
{ "type": "Feature", "properties": { "ID": "473986", "正式名称": "仲村歯科", "機関区分": 3, "都道府県コード": 47, "市区町村コード": 205, "所在地": "沖縄県宜野湾市我如古４－５－６", "緯度": 26.253631, "経度": 127.74985, "url": "https://www.iryou.teikyouseido.mhlw.go.jp/znk-web/juminkanja/S2430/initialize?prefCd=47&kikanCd=986&kikanKbn=3", "url2": null, "内容": "仲村歯科【3:歯科】沖縄県宜野湾市我如古４－５－６" }, "geometry": { "type": "Point", "coordinates": [ 127.74985, 26.253631 ] } },
{ "type": "Feature", "properties": { "ID": "473989", "正式名称": "読谷歯科医院", "機関区分": 3, "都道府県コード": 47, "市区町村コード": 324, "所在地": "沖縄県中頭郡読谷村高志保１３１５－１", "緯度": 26.408091, "経度": 127.732072, "url": "https://www.iryou.teikyouseido.mhlw.go.jp/znk-web/juminkanja/S2430/initialize?prefCd=47&kikanCd=989&kikanKbn=3", "url2": "http://www5b.biglobe.ne.jp/~onituka/", "内容": "読谷歯科医院【3:歯科】沖縄県中頭郡読谷村高志保１３１５－１" }, "geometry": { "type": "Point", "coordinates": [ 127.732072, 26.408091 ] } },
{ "type": "Feature", "properties": { "ID": "473990", "正式名称": "アップル歯科", "機関区分": 3, "都道府県コード": 47, "市区町村コード": 201, "所在地": "沖縄県那覇市小禄９０２－３　ゆがふ商事ビル２Ｆ", "緯度": 26.18968, "経度": 127.669055, "url": "https://www.iryou.teikyouseido.mhlw.go.jp/znk-web/juminkanja/S2430/initialize?prefCd=47&kikanCd=990&kikanKbn=3", "url2": null, "内容": "アップル歯科【3:歯科】沖縄県那覇市小禄９０２－３　ゆがふ商事ビル２Ｆ" }, "geometry": { "type": "Point", "coordinates": [ 127.669055, 26.18968 ] } },
{ "type": "Feature", "properties": { "ID": "473995", "正式名称": "サンセット歯科クリニック", "機関区分": 3, "都道府県コード": 47, "市区町村コード": 324, "所在地": "沖縄県中頭郡読谷村古堅６３７－３", "緯度": 26.370014, "経度": 127.747332, "url": "https://www.iryou.teikyouseido.mhlw.go.jp/znk-web/juminkanja/S2430/initialize?prefCd=47&kikanCd=995&kikanKbn=3", "url2": "https://www.sunset-shikaclinic.com/", "内容": "サンセット歯科クリニック【3:歯科】沖縄県中頭郡読谷村古堅６３７－３" }, "geometry": { "type": "Point", "coordinates": [ 127.747332, 26.370014 ] } },
{ "type": "Feature", "properties": { "ID": "473996", "正式名称": "医療法人健歯会ふるげん歯科クリニック", "機関区分": 3, "都道府県コード": 47, "市区町村コード": 324, "所在地": "沖縄県中頭郡読谷村古堅", "緯度": 26.367716, "経度": 127.747024, "url": "https://www.iryou.teikyouseido.mhlw.go.jp/znk-web/juminkanja/S2430/initialize?prefCd=47&kikanCd=996&kikanKbn=3", "url2": null, "内容": "医療法人健歯会ふるげん歯科クリニック【3:歯科】沖縄県中頭郡読谷村古堅" }, "geometry": { "type": "Point", "coordinates": [ 127.747024, 26.367716 ] } },
{ "type": "Feature", "properties": { "ID": "473a0026", "正式名称": "グリーンデンタルクリニック", "機関区分": 3, "都道府県コード": 47, "市区町村コード": 209, "所在地": "沖縄県名護市大西４－４－１４", "緯度": 26.600928, "経度": 127.979019, "url": "https://www.iryou.teikyouseido.mhlw.go.jp/znk-web/juminkanja/S2430/initialize?prefCd=47&kikanCd=a0026&kikanKbn=3", "url2": null, "内容": "グリーンデンタルクリニック【3:歯科】沖縄県名護市大西４－４－１４" }, "geometry": { "type": "Point", "coordinates": [ 127.979019, 26.600928 ] } },
{ "type": "Feature", "properties": { "ID": "473b3005", "正式名称": "へんとな歯科医院", "機関区分": 3, "都道府県コード": 47, "市区町村コード": 326, "所在地": "沖縄県中頭郡北谷町美浜３－３－５", "緯度": 26.321675, "経度": 127.757075, "url": "https://www.iryou.teikyouseido.mhlw.go.jp/znk-web/juminkanja/S2430/initialize?prefCd=47&kikanCd=b3005&kikanKbn=3", "url2": "www.dc-hentona.com", "内容": "へんとな歯科医院【3:歯科】沖縄県中頭郡北谷町美浜３－３－５" }, "geometry": { "type": "Point", "coordinates": [ 127.757075, 26.321675 ] } },
{ "type": "Feature", "properties": { "ID": "473b3009", "正式名称": "安谷屋歯科医院", "機関区分": 3, "都道府県コード": 47, "市区町村コード": 205, "所在地": "沖縄県宜野湾市真志喜２－２－１１松本ビル１階", "緯度": 26.272124, "経度": 127.738908, "url": "https://www.iryou.teikyouseido.mhlw.go.jp/znk-web/juminkanja/S2430/initialize?prefCd=47&kikanCd=b3009&kikanKbn=3", "url2": "https://adaniya-dental-clinic.com/access/", "内容": "安谷屋歯科医院【3:歯科】沖縄県宜野湾市真志喜２－２－１１松本ビル１階" }, "geometry": { "type": "Point", "coordinates": [ 127.738908, 26.272124 ] } },
{ "type": "Feature", "properties": { "ID": "473b3010", "正式名称": "アップル歯科医院", "機関区分": 3, "都道府県コード": 47, "市区町村コード": 213, "所在地": "沖縄県うるま市豊原４２５－１シュシュＴＯＹＯＨＡＲＡ　２０１", "緯度": 26.345774, "経度": 127.855441, "url": "https://www.iryou.teikyouseido.mhlw.go.jp/znk-web/juminkanja/S2430/initialize?prefCd=47&kikanCd=b3010&kikanKbn=3", "url2": null, "内容": "アップル歯科医院【3:歯科】沖縄県うるま市豊原４２５－１シュシュＴＯＹＯＨＡＲＡ　２０１" }, "geometry": { "type": "Point", "coordinates": [ 127.855441, 26.345774 ] } },
{ "type": "Feature", "properties": { "ID": "473b3014", "正式名称": "なかわか歯科医院", "機関区分": 3, "都道府県コード": 47, "市区町村コード": 211, "所在地": "沖縄県沖縄市古謝津嘉山町２８番７号グレース２１　１階", "緯度": 26.343949, "経度": 127.827753, "url": "https://www.iryou.teikyouseido.mhlw.go.jp/znk-web/juminkanja/S2430/initialize?prefCd=47&kikanCd=b3014&kikanKbn=3", "url2": "https://nakawaka.jp/", "内容": "なかわか歯科医院【3:歯科】沖縄県沖縄市古謝津嘉山町２８番７号グレース２１　１階" }, "geometry": { "type": "Point", "coordinates": [ 127.827753, 26.343949 ] } },
{ "type": "Feature", "properties": { "ID": "473b3018", "正式名称": "スマイル歯科医院", "機関区分": 3, "都道府県コード": 47, "市区町村コード": 213, "所在地": "沖縄県うるま市高江洲１０８０−１スマイルビル２階", "緯度": 26.357758, "経度": 127.83933, "url": "https://www.iryou.teikyouseido.mhlw.go.jp/znk-web/juminkanja/S2430/initialize?prefCd=47&kikanCd=b3018&kikanKbn=3", "url2": null, "内容": "スマイル歯科医院【3:歯科】沖縄県うるま市高江洲１０８０−１スマイルビル２階" }, "geometry": { "type": "Point", "coordinates": [ 127.83933, 26.357758 ] } },
{ "type": "Feature", "properties": { "ID": "473C0006", "正式名称": "おきなわ矯正歯科", "機関区分": 3, "都道府県コード": 47, "市区町村コード": 212, "所在地": "沖縄県豊見城市真玉橋１３５ＮＰＫビル２－Ｂ", "緯度": 26.192181, "経度": 127.693194, "url": "https://www.iryou.teikyouseido.mhlw.go.jp/znk-web/juminkanja/S2430/initialize?prefCd=47&kikanCd=C0006&kikanKbn=3", "url2": "https://www.okinawa-mouthpiece.com/", "内容": "おきなわ矯正歯科【3:歯科】沖縄県豊見城市真玉橋１３５ＮＰＫビル２－Ｂ" }, "geometry": { "type": "Point", "coordinates": [ 127.693194, 26.192181 ] } },
{ "type": "Feature", "properties": { "ID": "473c0069", "正式名称": "医療法人社団恵仁会　東浜アクア歯科", "機関区分": 3, "都道府県コード": 47, "市区町村コード": 348, "所在地": "沖縄県島尻郡与那原町東浜９９番の３ネクステージエビス", "緯度": 26.203588, "経度": 127.757713, "url": "https://www.iryou.teikyouseido.mhlw.go.jp/znk-web/juminkanja/S2430/initialize?prefCd=47&kikanCd=c0069&kikanKbn=3", "url2": "http://www.keijinkai.info>agarihama", "内容": "医療法人社団恵仁会　東浜アクア歯科【3:歯科】沖縄県島尻郡与那原町東浜９９番の３ネクステージエビス" }, "geometry": { "type": "Point", "coordinates": [ 127.757713, 26.203588 ] } },
{ "type": "Feature", "properties": { "ID": "473c0076", "正式名称": "ハッピー歯科小児歯科", "機関区分": 3, "都道府県コード": 47, "市区町村コード": 212, "所在地": "沖縄県豊見城市字豊見城８０－２Ｆ", "緯度": 26.187081, "経度": 127.680011, "url": "https://www.iryou.teikyouseido.mhlw.go.jp/znk-web/juminkanja/S2430/initialize?prefCd=47&kikanCd=c0076&kikanKbn=3", "url2": null, "内容": "ハッピー歯科小児歯科【3:歯科】沖縄県豊見城市字豊見城８０－２Ｆ" }, "geometry": { "type": "Point", "coordinates": [ 127.680011, 26.187081 ] } },
{ "type": "Feature", "properties": { "ID": "473c0077", "正式名称": "おおひら歯科クリニック", "機関区分": 3, "都道府県コード": 47, "市区町村コード": 208, "所在地": "沖縄県浦添市安波茶１－２７－８大翔ビル", "緯度": 26.246706, "経度": 127.718528, "url": "https://www.iryou.teikyouseido.mhlw.go.jp/znk-web/juminkanja/S2430/initialize?prefCd=47&kikanCd=c0077&kikanKbn=3", "url2": null, "内容": "おおひら歯科クリニック【3:歯科】沖縄県浦添市安波茶１－２７－８大翔ビル" }, "geometry": { "type": "Point", "coordinates": [ 127.718528, 26.246706 ] } },
{ "type": "Feature", "properties": { "ID": "473c0096", "正式名称": "医療法人芽依美会　浦西にこにこ歯科", "機関区分": 3, "都道府県コード": 47, "市区町村コード": 208, "所在地": "沖縄県浦添市当山二丁目９番３号", "緯度": 26.248697, "経度": 127.737886, "url": "https://www.iryou.teikyouseido.mhlw.go.jp/znk-web/juminkanja/S2430/initialize?prefCd=47&kikanCd=c0096&kikanKbn=3", "url2": "https://meibikai.or.jp/", "内容": "医療法人芽依美会　浦西にこにこ歯科【3:歯科】沖縄県浦添市当山二丁目９番３号" }, "geometry": { "type": "Point", "coordinates": [ 127.737886, 26.248697 ] } },
{ "type": "Feature", "properties": { "ID": "473d0012", "正式名称": "高輪アイランドクリニック", "機関区分": 3, "都道府県コード": 47, "市区町村コード": 214, "所在地": "沖縄県宮古島市平良下里５３５−５セレブラム　２Ｆ", "緯度": 24.802964, "経度": 125.278381, "url": "https://www.iryou.teikyouseido.mhlw.go.jp/znk-web/juminkanja/S2430/initialize?prefCd=47&kikanCd=d0012&kikanKbn=3", "url2": null, "内容": "高輪アイランドクリニック【3:歯科】沖縄県宮古島市平良下里５３５−５セレブラム　２Ｆ" }, "geometry": { "type": "Point", "coordinates": [ 125.278381, 24.802964 ] } }
]
}
