{
"type": "FeatureCollection",
"name": "geo_47_短期入所生活介護",
"crs": { "type": "name", "properties": { "name": "urn:ogc:def:crs:OGC:1.3:CRS84" } },
"features": [
{ "type": "Feature", "properties": { "内容": "ショートステイ大名【短期入所生活介護】沖縄県那覇市首里大名町１丁目４３番地2", "url": "https://www.kaigokensaku.mhlw.go.jp/47/index.php?action_kouhyou_detail_004_kani=true&JigyosyoCd=4770100024-00&ServiceCd=210&Type=search", "url2": "http://www.yuunanokai.or.jp" }, "geometry": { "type": "Point", "coordinates": [ 127.711036299999918, 26.2322253 ] } },
{ "type": "Feature", "properties": { "内容": "地域密着型特別養護老人ホーム和【短期入所生活介護】沖縄県那覇市繁多川5丁目20番12号", "url": "https://www.kaigokensaku.mhlw.go.jp/47/index.php?action_kouhyou_detail_004_kani=true&JigyosyoCd=4770103804-00&ServiceCd=210&Type=search", "url2": "https://nankurugroup.com/" }, "geometry": { "type": "Point", "coordinates": [ 127.7113157, 26.2090277 ] } },
{ "type": "Feature", "properties": { "内容": "小禄偕生園指定短期入所生活介護事業所【短期入所生活介護】沖縄県那覇市宮城１丁目１８番１号　５Fエスタジオ小禄　５F", "url": "https://www.kaigokensaku.mhlw.go.jp/47/index.php?action_kouhyou_detail_004_kani=true&JigyosyoCd=4770103754-00&ServiceCd=210&Type=search", "url2": "http://www.kaiseikai.org/" }, "geometry": { "type": "Point", "coordinates": [ 127.657944, 26.187753 ] } },
{ "type": "Feature", "properties": { "内容": "地域密着型特別養護老人ホーム皇【短期入所生活介護】沖縄県那覇市長田1丁目18-10福祉複合共生施設なんくる", "url": "https://www.kaigokensaku.mhlw.go.jp/47/index.php?action_kouhyou_detail_004_kani=true&JigyosyoCd=4770104513-00&ServiceCd=210&Type=search", "url2": "https://nankurugroup.com" }, "geometry": { "type": "Point", "coordinates": [ 127.7011917, 26.2029518 ] } },
{ "type": "Feature", "properties": { "内容": "ｼｮｰﾄｽﾃｲｾﾝﾀｰおもと園【短期入所生活介護】那覇市1000番地あめくの杜　ｼｮｰﾄｽﾃｲｾﾝﾀｰおもと園", "url": "https://www.kaigokensaku.mhlw.go.jp/47/index.php?action_kouhyou_detail_004_kani=true&JigyosyoCd=4770101816-00&ServiceCd=210&Type=search", "url2": "omotokai/jp" }, "geometry": { "type": "Point", "coordinates": [ 127.6790208, 26.2125758 ] } },
{ "type": "Feature", "properties": { "内容": "首里偕生園　指定短期入所生活介護事業所【短期入所生活介護】沖縄県那覇市首里石嶺町4丁目389番地", "url": "https://www.kaigokensaku.mhlw.go.jp/47/index.php?action_kouhyou_detail_004_kani=true&JigyosyoCd=4770101766-00&ServiceCd=210&Type=search", "url2": "https://kaiseikai.org" }, "geometry": { "type": "Point", "coordinates": [ 127.734051974205059, 26.231632124346007 ] } },
{ "type": "Feature", "properties": { "内容": "特別養護老人ホームゆがふ苑【短期入所生活介護】沖縄県那覇市山下町5番30", "url": "https://www.kaigokensaku.mhlw.go.jp/47/index.php?action_kouhyou_detail_004_kani=true&JigyosyoCd=4770103382-00&ServiceCd=210&Type=search", "url2": "http://okiniji.or.jp" }, "geometry": { "type": "Point", "coordinates": [ 127.665488800000034, 26.2054239 ] } },
{ "type": "Feature", "properties": { "内容": "グリーンハウス国場　短期入所生活介護（介護予防短期入所生活介護）【短期入所生活介護】沖縄県那覇市国場326番地", "url": "https://www.kaigokensaku.mhlw.go.jp/47/index.php?action_kouhyou_detail_004_kani=true&JigyosyoCd=4770103614-00&ServiceCd=210&Type=search", "url2": "http://www.otowakai.com/" }, "geometry": { "type": "Point", "coordinates": [ 127.698453400000062, 26.2034279 ] } },
{ "type": "Feature", "properties": { "内容": "医療法人沖縄徳洲会　ショートステイこくら【短期入所生活介護】沖縄県那覇市古波蔵3丁目8番28号", "url": "https://www.kaigokensaku.mhlw.go.jp/47/index.php?action_kouhyou_detail_004_kani=true&JigyosyoCd=4710115215-00&ServiceCd=210&Type=search", "url2": "http://www.nantoku.org/kokura/" }, "geometry": { "type": "Point", "coordinates": [ 127.684849100000065, 26.2006722 ] } },
{ "type": "Feature", "properties": { "内容": "短期入所生活介護事業所つじまち【短期入所生活介護】沖縄県那覇市辻２丁目２７番１号", "url": "https://www.kaigokensaku.mhlw.go.jp/47/index.php?action_kouhyou_detail_004_kani=true&JigyosyoCd=4770103390-00&ServiceCd=210&Type=search", "url2": "http://www.reihoukai.or.jp" }, "geometry": { "type": "Point", "coordinates": [ 127.668970119573956, 26.217914185698767 ] } },
{ "type": "Feature", "properties": { "内容": "地域密着型複合百穂苑【短期入所生活介護】沖縄県那覇市安里51番地", "url": "https://www.kaigokensaku.mhlw.go.jp/47/index.php?action_kouhyou_detail_004_kani=true&JigyosyoCd=4770103861-00&ServiceCd=210&Type=search", "url2": "https://saisei-kai.or.jp/" }, "geometry": { "type": "Point", "coordinates": [ 127.694073399999979, 26.2203505 ] } },
{ "type": "Feature", "properties": { "内容": "安謝特別養護老人ホーム【短期入所生活介護】沖縄県那覇市安謝2－15－2", "url": "https://www.kaigokensaku.mhlw.go.jp/47/index.php?action_kouhyou_detail_004_kani=true&JigyosyoCd=4770100057-00&ServiceCd=210&Type=search", "url2": "http://www.ajafukushi.join-us.jp" }, "geometry": { "type": "Point", "coordinates": [ 127.688015100000044, 26.2374819 ] } },
{ "type": "Feature", "properties": { "内容": "特別養護老人ホーム白浜の里愛誠園【短期入所生活介護】沖縄県宜野湾市宇地泊１丁目20番7号", "url": "https://www.kaigokensaku.mhlw.go.jp/47/index.php?action_kouhyou_detail_004_kani=true&JigyosyoCd=4770500520-00&ServiceCd=210&Type=search", "url2": "http://aiseien-okinawa.com/" }, "geometry": { "type": "Point", "coordinates": [ 127.732265900000044, 26.272094700000011 ] } },
{ "type": "Feature", "properties": { "内容": "指定介護老人福祉施設愛誠園【短期入所生活介護】沖縄県宜野湾市伊佐3丁目26番8号", "url": "https://www.kaigokensaku.mhlw.go.jp/47/index.php?action_kouhyou_detail_004_kani=true&JigyosyoCd=4770500041-00&ServiceCd=210&Type=search", "url2": "aiseien@forest.ocn.ne.jp" }, "geometry": { "type": "Point", "coordinates": [ 127.758190811732902, 26.293043732863936 ] } },
{ "type": "Feature", "properties": { "内容": "福寿園ショートステイ【短期入所生活介護】沖縄県宜野湾市赤道2丁目７番２号", "url": "https://www.kaigokensaku.mhlw.go.jp/47/index.php?action_kouhyou_detail_004_kani=true&JigyosyoCd=4770500736-00&ServiceCd=210&Type=search", "url2": null }, "geometry": { "type": "Point", "coordinates": [ 127.772338100000084, 26.2710869 ] } },
{ "type": "Feature", "properties": { "内容": "八重山厚生園短期入所生活介護【短期入所生活介護】沖縄県石垣市字新川１７４０－２", "url": "https://www.kaigokensaku.mhlw.go.jp/47/index.php?action_kouhyou_detail_004_kani=true&JigyosyoCd=4770700237-00&ServiceCd=210&Type=search", "url2": "http://www.okinawa-j.jp" }, "geometry": { "type": "Point", "coordinates": [ 124.123018900000034, 24.359491 ] } },
{ "type": "Feature", "properties": { "内容": "特別養護老人ホーム　まえさと茶寿苑【短期入所生活介護】沖縄県石垣市字真栄里２０４番地の３８２", "url": "https://www.kaigokensaku.mhlw.go.jp/47/index.php?action_kouhyou_detail_004_kani=true&JigyosyoCd=4770700559-00&ServiceCd=210&Type=search", "url2": "http://ayapani.net/" }, "geometry": { "type": "Point", "coordinates": [ 124.174461699999938, 24.3323727 ] } },
{ "type": "Feature", "properties": { "内容": "なごみの里指定短期入所生活介護事業所【短期入所生活介護】沖縄県石垣市字宮良1131-2", "url": "https://www.kaigokensaku.mhlw.go.jp/47/index.php?action_kouhyou_detail_004_kani=true&JigyosyoCd=4770700013-00&ServiceCd=210&Type=search", "url2": "www.nagomi-ishigaki.com/" }, "geometry": { "type": "Point", "coordinates": [ 124.215512499999917, 24.363766 ] } },
{ "type": "Feature", "properties": { "内容": "介護老人保健施設エメロードてだこ苑【短期入所生活介護】沖縄県浦添市牧港３－１－１", "url": "https://www.kaigokensaku.mhlw.go.jp/47/index.php?action_kouhyou_detail_004_kani=true&JigyosyoCd=4750880009-00&ServiceCd=210&Type=search", "url2": "http://tedakoen.or.jp" }, "geometry": { "type": "Point", "coordinates": [ 127.728686779901182, 26.258649102067434 ] } },
{ "type": "Feature", "properties": { "内容": "ありあけの里短期入所生活介護事業【短期入所生活介護】沖縄県浦添市字前田９９７番地", "url": "https://www.kaigokensaku.mhlw.go.jp/47/index.php?action_kouhyou_detail_004_kani=true&JigyosyoCd=4770800029-00&ServiceCd=210&Type=search", "url2": "http://okicolo.or.jp" }, "geometry": { "type": "Point", "coordinates": [ 127.738655600000016, 26.2460473 ] } },
{ "type": "Feature", "properties": { "内容": "社会福祉法人翠泉会　在宅複合型施設　羽地苑【短期入所生活介護】沖縄県名護市字我部祖河829番地", "url": "https://www.kaigokensaku.mhlw.go.jp/47/index.php?action_kouhyou_detail_004_kani=true&JigyosyoCd=4770900167-00&ServiceCd=210&Type=search", "url2": null }, "geometry": { "type": "Point", "coordinates": [ 127.993650200000033, 26.627539 ] } },
{ "type": "Feature", "properties": { "内容": "かりゆしぬ村　短期入所介護事業所【短期入所生活介護】沖縄県名護市字宇茂佐１８７３番地１", "url": "https://www.kaigokensaku.mhlw.go.jp/47/index.php?action_kouhyou_detail_004_kani=true&JigyosyoCd=4770900027-00&ServiceCd=210&Type=search", "url2": "http://www.ｓｈｏｒａｉｋａｉ．com/" }, "geometry": { "type": "Point", "coordinates": [ 127.9658374, 26.612230800000017 ] } },
{ "type": "Feature", "properties": { "内容": "久辺の里短期入所生活介護【短期入所生活介護】字豊原２１６番地", "url": "https://www.kaigokensaku.mhlw.go.jp/47/index.php?action_kouhyou_detail_004_kani=true&JigyosyoCd=4770901108-00&ServiceCd=210&Type=search", "url2": "https://t.co/T8yMi5dr7a" }, "geometry": { "type": "Point", "coordinates": [ 128.022439883467086, 26.521599710588728 ] } },
{ "type": "Feature", "properties": { "内容": "羽地苑短期入所生活介護事業所【短期入所生活介護】沖縄県名護市我部祖河829番地", "url": "https://www.kaigokensaku.mhlw.go.jp/47/index.php?action_kouhyou_detail_004_kani=true&JigyosyoCd=4770901181-00&ServiceCd=210&Type=search", "url2": null }, "geometry": { "type": "Point", "coordinates": [ 127.9937662, 26.6280315 ] } },
{ "type": "Feature", "properties": { "内容": "名護厚生園指定短期入所生活介護事業所【短期入所生活介護】沖縄県名護市宮里５丁目４番地２９", "url": "https://www.kaigokensaku.mhlw.go.jp/47/index.php?action_kouhyou_detail_004_kani=true&JigyosyoCd=4770900381-00&ServiceCd=210&Type=search", "url2": "http://www.okinawa-j.jp/index.html" }, "geometry": { "type": "Point", "coordinates": [ 127.971363600000018, 26.5999567 ] } },
{ "type": "Feature", "properties": { "内容": "指定短期入所生活介護事業所　瑞穂の郷【短期入所生活介護】沖縄県名護市字親川571番地", "url": "https://www.kaigokensaku.mhlw.go.jp/47/index.php?action_kouhyou_detail_004_kani=true&JigyosyoCd=4770900548-00&ServiceCd=210&Type=search", "url2": "http://www.suijukai.com" }, "geometry": { "type": "Point", "coordinates": [ 128.015109700000039, 26.6165018 ] } },
{ "type": "Feature", "properties": { "内容": "かりゆしぬ村　ショートステイ　アンジェラ【短期入所生活介護】沖繩県名護市字宇茂佐1705-1シルバーハウスアンジェラ　１F", "url": "https://www.kaigokensaku.mhlw.go.jp/47/index.php?action_kouhyou_detail_004_kani=true&JigyosyoCd=4770900696-00&ServiceCd=210&Type=search", "url2": "http://www.shoraikai.com/" }, "geometry": { "type": "Point", "coordinates": [ 127.968860700000036, 26.6069588 ] } },
{ "type": "Feature", "properties": { "内容": "特別養護老人ホーム　沖縄偕生園【短期入所生活介護】沖縄県糸満市字小波蔵321番地", "url": "https://www.kaigokensaku.mhlw.go.jp/47/index.php?action_kouhyou_detail_004_kani=true&JigyosyoCd=4771000017-00&ServiceCd=210&Type=search", "url2": "http://www.kaiseikai.org/index.jsp" }, "geometry": { "type": "Point", "coordinates": [ 127.668764799999963, 26.1073495 ] } },
{ "type": "Feature", "properties": { "内容": "いとまんシャトーショートスティ【短期入所生活介護】沖縄県糸満市字大里927番地の２", "url": "https://www.kaigokensaku.mhlw.go.jp/47/index.php?action_kouhyou_detail_004_kani=true&JigyosyoCd=4771000033-00&ServiceCd=210&Type=search", "url2": "http://www.ai-itoman.or.jp" }, "geometry": { "type": "Point", "coordinates": [ 127.69172920000004, 26.1353393 ] } },
{ "type": "Feature", "properties": { "内容": "社会福祉法人　希愛会　短期入所生活介護　琉和の森【短期入所生活介護】沖縄県沖縄市美里6丁目25番", "url": "https://www.kaigokensaku.mhlw.go.jp/47/index.php?action_kouhyou_detail_004_kani=true&JigyosyoCd=4770400879-00&ServiceCd=210&Type=search", "url2": "http://www.ans.co.jp/u/kiaikai/tokuyou/" }, "geometry": { "type": "Point", "coordinates": [ 127.808276964418042, 26.351529325719287 ] } },
{ "type": "Feature", "properties": { "内容": "緑樹苑短期入所生活介護【短期入所生活介護】沖縄県沖縄市胡屋７丁目２番１０号", "url": "https://www.kaigokensaku.mhlw.go.jp/47/index.php?action_kouhyou_detail_004_kani=true&JigyosyoCd=4770400028-00&ServiceCd=210&Type=search", "url2": "http//www.ryokujukai.or.jp" }, "geometry": { "type": "Point", "coordinates": [ 127.8113829, 26.3258331 ] } },
{ "type": "Feature", "properties": { "内容": "短期入所生活介護事業所おきなわ長寿苑【短期入所生活介護】沖縄県沖縄市字登川1403番地", "url": "https://www.kaigokensaku.mhlw.go.jp/47/index.php?action_kouhyou_detail_004_kani=true&JigyosyoCd=4770400085-00&ServiceCd=210&Type=search", "url2": "http://www.chojyuen.com" }, "geometry": { "type": "Point", "coordinates": [ 127.819353200000023, 26.3671657 ] } },
{ "type": "Feature", "properties": { "内容": "沖縄一条園短期入所生活介護事業所【短期入所生活介護】沖縄県沖縄市与儀３丁目５番１０号", "url": "https://www.kaigokensaku.mhlw.go.jp/47/index.php?action_kouhyou_detail_004_kani=true&JigyosyoCd=4770402537-00&ServiceCd=210&Type=search", "url2": "https://www.reihoukai.or.jp/" }, "geometry": { "type": "Point", "coordinates": [ 127.8162766, 26.3100966 ] } },
{ "type": "Feature", "properties": { "内容": "良長園短期入所生活介護事業所【短期入所生活介護】沖縄県豊見城市字金良88番地", "url": "https://www.kaigokensaku.mhlw.go.jp/47/index.php?action_kouhyou_detail_004_kani=true&JigyosyoCd=4772800019-00&ServiceCd=210&Type=search", "url2": "http://yoshinagaen.jp" }, "geometry": { "type": "Point", "coordinates": [ 127.703518700000018, 26.179467 ] } },
{ "type": "Feature", "properties": { "内容": "短期入所生活介護施設すみれ【短期入所生活介護】沖縄県豊見城市字渡嘉敷１５０番地おもととよみの杜", "url": "https://www.kaigokensaku.mhlw.go.jp/47/index.php?action_kouhyou_detail_004_kani=true&JigyosyoCd=4772800035-00&ServiceCd=210&Type=search", "url2": "http://www.omotokai.or.jp" }, "geometry": { "type": "Point", "coordinates": [ 127.683421, 26.1727698 ] } },
{ "type": "Feature", "properties": { "内容": "グリーンハウス長堂短期入所生活介護【短期入所生活介護】豊見城市字長堂376", "url": "https://www.kaigokensaku.mhlw.go.jp/47/index.php?action_kouhyou_detail_004_kani=true&JigyosyoCd=4775407499-00&ServiceCd=210&Type=search", "url2": null }, "geometry": { "type": "Point", "coordinates": [ 127.7071559, 26.1857978 ] } },
{ "type": "Feature", "properties": { "内容": "特別養護老人ホーム　平和の村【短期入所生活介護】沖縄県うるま市字昆布1832番地637", "url": "https://www.kaigokensaku.mhlw.go.jp/47/index.php?action_kouhyou_detail_004_kani=true&JigyosyoCd=4770300012-00&ServiceCd=210&Type=search", "url2": "http://www." }, "geometry": { "type": "Point", "coordinates": [ 127.837853799999962, 26.3970988 ] } },
{ "type": "Feature", "properties": { "内容": "ショートステイあやはし苑【短期入所生活介護】沖縄県うるま市与那城屋慶名１４１０番地", "url": "https://www.kaigokensaku.mhlw.go.jp/47/index.php?action_kouhyou_detail_004_kani=true&JigyosyoCd=4772000016-00&ServiceCd=210&Type=search", "url2": "http://ayahashien.com/" }, "geometry": { "type": "Point", "coordinates": [ 127.9089652, 26.3270275 ] } },
{ "type": "Feature", "properties": { "内容": "短期入所生活介護事業所与勝の里【短期入所生活介護】沖縄県うるま市勝連南風原4902番地", "url": "https://www.kaigokensaku.mhlw.go.jp/47/index.php?action_kouhyou_detail_004_kani=true&JigyosyoCd=4772100022-00&ServiceCd=210&Type=search", "url2": "http://www.yokatsu.jp/" }, "geometry": { "type": "Point", "coordinates": [ 127.8770789, 26.3421501 ] } },
{ "type": "Feature", "properties": { "内容": "楽寿園指定短期生活介護事業所【短期入所生活介護】沖縄県うるま市石川嘉手苅961番地17", "url": "https://www.kaigokensaku.mhlw.go.jp/47/index.php?action_kouhyou_detail_004_kani=true&JigyosyoCd=4770200014-00&ServiceCd=210&Type=search", "url2": "http://www.ikusan-k.com" }, "geometry": { "type": "Point", "coordinates": [ 127.797589499999958, 26.4254036 ] } },
{ "type": "Feature", "properties": { "内容": "具志川厚生園　指定短期入所生活介護事業所【短期入所生活介護】沖縄県うるま市字天願１９８３番地具志川厚生園", "url": "https://www.kaigokensaku.mhlw.go.jp/47/index.php?action_kouhyou_detail_004_kani=true&JigyosyoCd=4770300319-00&ServiceCd=210&Type=search", "url2": "http://www.okinawa-j.jp" }, "geometry": { "type": "Point", "coordinates": [ 127.850850199999954, 26.3833171 ] } },
{ "type": "Feature", "properties": { "内容": "うるまケアセンター短期入所生活介護【短期入所生活介護】沖縄県うるま市みどり町5-14-7", "url": "https://www.kaigokensaku.mhlw.go.jp/47/index.php?action_kouhyou_detail_004_kani=true&JigyosyoCd=4770300426-00&ServiceCd=210&Type=search", "url2": "http://www.cyutoku.or.jp/groups/carenet/offices/uruma.html" }, "geometry": { "type": "Point", "coordinates": [ 127.852722299999982, 26.3765983 ] } },
{ "type": "Feature", "properties": { "内容": "宮古の里指定短期入所生活介護事業所（介護予防含む）【短期入所生活介護】沖縄県宮古島市平良字東仲宗根添1800番地", "url": "https://www.kaigokensaku.mhlw.go.jp/47/index.php?action_kouhyou_detail_004_kani=true&JigyosyoCd=4774700019-00&ServiceCd=210&Type=search", "url2": "http://yuuikai-miyakonosatojp/" }, "geometry": { "type": "Point", "coordinates": [ 125.314714399999957, 24.8004221 ] } },
{ "type": "Feature", "properties": { "内容": "指定短期入所介護事業所　松風園【短期入所生活介護】沖縄県宮古島市伊良部字長浜１０２５－３", "url": "https://www.kaigokensaku.mhlw.go.jp/47/index.php?action_kouhyou_detail_004_kani=true&JigyosyoCd=4775000021-00&ServiceCd=210&Type=search", "url2": "http://tokuyousyoufuen.com/" }, "geometry": { "type": "Point", "coordinates": [ 125.183234399999947, 24.8316013 ] } },
{ "type": "Feature", "properties": { "内容": "宮古厚生園短期入所生活介護事業所【短期入所生活介護】沖縄県宮古島市平良字西仲宗根７４５番地の７", "url": "https://www.kaigokensaku.mhlw.go.jp/47/index.php?action_kouhyou_detail_004_kani=true&JigyosyoCd=4775500020-00&ServiceCd=210&Type=search", "url2": "https://www.okinawa-j.jp/" }, "geometry": { "type": "Point", "coordinates": [ 125.293880400000035, 24.8157225 ] } },
{ "type": "Feature", "properties": { "内容": "介護老人福祉施設　しもじ長生園【短期入所生活介護】沖縄県宮古島市下地字嘉手苅660-2", "url": "https://www.kaigokensaku.mhlw.go.jp/47/index.php?action_kouhyou_detail_004_kani=true&JigyosyoCd=4774800017-00&ServiceCd=210&Type=search", "url2": "http://www.tyouseien.com" }, "geometry": { "type": "Point", "coordinates": [ 125.310993199999984, 24.7379494 ] } },
{ "type": "Feature", "properties": { "内容": "朝日の家　短期入所生活介護【短期入所生活介護】沖縄県南城市玉城字喜良原５２６番地", "url": "https://www.kaigokensaku.mhlw.go.jp/47/index.php?action_kouhyou_detail_004_kani=true&JigyosyoCd=4773100039-00&ServiceCd=210&Type=search", "url2": "http://www.iwakikai.net/" }, "geometry": { "type": "Point", "coordinates": [ 127.772094099197361, 26.159920778607663 ] } },
{ "type": "Feature", "properties": { "内容": "しらゆりの園指定短期入所生活介護事業所【短期入所生活介護】沖縄県南城市知念字久手堅275-1", "url": "https://www.kaigokensaku.mhlw.go.jp/47/index.php?action_kouhyou_detail_004_kani=true&JigyosyoCd=4773200029-00&ServiceCd=210&Type=search", "url2": "http://www.sirayuri.or.jp" }, "geometry": { "type": "Point", "coordinates": [ 127.826157800000047, 26.1712514 ] } },
{ "type": "Feature", "properties": { "内容": "小谷園ショートステイ【短期入所生活介護】沖縄県南城市佐敷字小谷２３８－１", "url": "https://www.kaigokensaku.mhlw.go.jp/47/index.php?action_kouhyou_detail_004_kani=true&JigyosyoCd=4773300019-00&ServiceCd=210&Type=search", "url2": "http://kijukai.com/" }, "geometry": { "type": "Point", "coordinates": [ 127.763391, 26.1734297 ] } },
{ "type": "Feature", "properties": { "内容": "東雲の丘指定短期入所生活介護事業所【短期入所生活介護】沖縄県南城市大里字大城１３９２番地", "url": "https://www.kaigokensaku.mhlw.go.jp/47/index.php?action_kouhyou_detail_004_kani=true&JigyosyoCd=4773500014-00&ServiceCd=210&Type=search", "url2": "http://www.kenshoukai.or.jp/" }, "geometry": { "type": "Point", "coordinates": [ 127.765113299999939, 26.1674137 ] } },
{ "type": "Feature", "properties": { "内容": "しらゆりの園短期入所生活介護事業所おおざと【短期入所生活介護】沖縄県南城市大里字古堅820番地１", "url": "https://www.kaigokensaku.mhlw.go.jp/47/index.php?action_kouhyou_detail_004_kani=true&JigyosyoCd=4775600226-00&ServiceCd=210&Type=search", "url2": "http://www.sirayuri.or.jp" }, "geometry": { "type": "Point", "coordinates": [ 127.740583499999957, 26.1929941 ] } },
{ "type": "Feature", "properties": { "内容": "特別養護老人ホーム　北斗園【短期入所生活介護】沖縄県国頭郡国頭村字辺土名１６９２番地", "url": "https://www.kaigokensaku.mhlw.go.jp/47/index.php?action_kouhyou_detail_004_kani=true&JigyosyoCd=4771100015-00&ServiceCd=210&Type=search", "url2": "http://www.h0kutoen.org/" }, "geometry": { "type": "Point", "coordinates": [ 128.174974499999962, 26.7407936 ] } },
{ "type": "Feature", "properties": { "内容": "特別養護老人ホームやんばるの家【短期入所生活介護】沖縄県国頭郡大宜味村字津波1971番地762", "url": "https://www.kaigokensaku.mhlw.go.jp/47/index.php?action_kouhyou_detail_004_kani=true&JigyosyoCd=4771200013-00&ServiceCd=210&Type=search", "url2": "http://www.info@isshinfukushikai.or.jp" }, "geometry": { "type": "Point", "coordinates": [ 128.1071078, 26.6561085 ] } },
{ "type": "Feature", "properties": { "内容": "乙羽園短期入所生活介護【短期入所生活介護】沖縄県国頭郡今帰仁村字天底222番地", "url": "https://www.kaigokensaku.mhlw.go.jp/47/index.php?action_kouhyou_detail_004_kani=true&JigyosyoCd=4771400019-00&ServiceCd=210&Type=search", "url2": "otowakai@otowaen.or.jp" }, "geometry": { "type": "Point", "coordinates": [ 127.978519099999957, 26.6755028 ] } },
{ "type": "Feature", "properties": { "内容": "本部園短期入所生活介護事業所【短期入所生活介護】沖縄県国頭郡本部町字谷茶３１０番地", "url": "https://www.kaigokensaku.mhlw.go.jp/47/index.php?action_kouhyou_detail_004_kani=true&JigyosyoCd=4771500024-00&ServiceCd=210&Type=search", "url2": "http://motobuen.com" }, "geometry": { "type": "Point", "coordinates": [ 127.891623100000061, 26.6585151 ] } },
{ "type": "Feature", "properties": { "内容": "ショートステイ谷茶の丘.雅みやび【短期入所生活介護】沖縄県国頭郡恩納村字谷茶1919番地7", "url": "https://www.kaigokensaku.mhlw.go.jp/47/index.php?action_kouhyou_detail_004_kani=true&JigyosyoCd=4771600014-00&ServiceCd=210&Type=search", "url2": "http://www.yuunanokai.or.jp" }, "geometry": { "type": "Point", "coordinates": [ 127.8255272, 26.4563325 ] } },
{ "type": "Feature", "properties": { "内容": "でいご園短期入所生活介護【短期入所生活介護】沖縄県国頭郡宜野座村字惣慶１２９５番地介護老人福祉施設でいご園", "url": "https://www.kaigokensaku.mhlw.go.jp/47/index.php?action_kouhyou_detail_004_kani=true&JigyosyoCd=4771700020-00&ServiceCd=210&Type=search", "url2": "https://www.deigoen.com/" }, "geometry": { "type": "Point", "coordinates": [ 127.970902499999966, 26.4752999 ] } },
{ "type": "Feature", "properties": { "内容": "光が丘ショ－トステイ事業所【短期入所生活介護】沖縄県国頭郡金武町字伊芸１２９２-１", "url": "https://www.kaigokensaku.mhlw.go.jp/47/index.php?action_kouhyou_detail_004_kani=true&JigyosyoCd=4771800010-00&ServiceCd=210&Type=search", "url2": "http://www." }, "geometry": { "type": "Point", "coordinates": [ 127.867779700000042, 26.4577805 ] } },
{ "type": "Feature", "properties": { "内容": "短期入所生活介護事業所いえしま【短期入所生活介護】沖縄県国頭郡伊江村字東江前２３０３－１", "url": "https://www.kaigokensaku.mhlw.go.jp/47/index.php?action_kouhyou_detail_004_kani=true&JigyosyoCd=4771900018-00&ServiceCd=210&Type=search", "url2": "http://care-net.biz/47/reihou/index.php" }, "geometry": { "type": "Point", "coordinates": [ 127.8251795, 26.7109275 ] } },
{ "type": "Feature", "properties": { "内容": "短期入所生活介護事業所　読谷の里【短期入所生活介護】沖縄県中頭郡読谷村字座喜味1875番地1", "url": "https://www.kaigokensaku.mhlw.go.jp/47/index.php?action_kouhyou_detail_004_kani=true&JigyosyoCd=4772200020-00&ServiceCd=210&Type=search", "url2": "http://www.yomisato.or.jp" }, "geometry": { "type": "Point", "coordinates": [ 127.726486600000044, 26.3953634 ] } },
{ "type": "Feature", "properties": { "内容": "指定短期入所生活介護　ちゅらゆんたんざ【短期入所生活介護】中頭郡読谷村字座喜味２７４２番地－３", "url": "https://www.kaigokensaku.mhlw.go.jp/47/index.php?action_kouhyou_detail_004_kani=true&JigyosyoCd=4772200277-00&ServiceCd=210&Type=search", "url2": "http://www.suijukai.com" }, "geometry": { "type": "Point", "coordinates": [ 127.757689766934163, 26.405218829041793 ] } },
{ "type": "Feature", "properties": { "内容": "短期入所生活介護事業比謝川の里【短期入所生活介護】沖縄県中頭郡嘉手納町字久得242-2", "url": "https://www.kaigokensaku.mhlw.go.jp/47/index.php?action_kouhyou_detail_004_kani=true&JigyosyoCd=4772300010-00&ServiceCd=210&Type=search", "url2": "http://比謝川の里.com" }, "geometry": { "type": "Point", "coordinates": [ 127.771243, 26.3720555 ] } },
{ "type": "Feature", "properties": { "内容": "陽明園指定短期入所生活介護事業所【短期入所生活介護】沖縄県中頭郡北谷町字吉原265番地", "url": "https://www.kaigokensaku.mhlw.go.jp/47/index.php?action_kouhyou_detail_004_kani=true&JigyosyoCd=4772400018-00&ServiceCd=210&Type=search", "url2": "https://kouyoukai-oki.jp/" }, "geometry": { "type": "Point", "coordinates": [ 127.77750259999992, 26.3160222 ] } },
{ "type": "Feature", "properties": { "内容": "社会福祉法人沖縄中央福祉会【短期入所生活介護】沖縄県中頭郡北中城村字仲順544-1障害者支援施設沖縄中央療護園", "url": "https://www.kaigokensaku.mhlw.go.jp/47/index.php?action_kouhyou_detail_004_kani=true&JigyosyoCd=4772500155-00&ServiceCd=210&Type=search", "url2": null }, "geometry": { "type": "Point", "coordinates": [ 127.7970709, 26.3081287 ] } },
{ "type": "Feature", "properties": { "内容": "短期入所生活介護事業所愛の村【短期入所生活介護】沖縄県北中城村島袋1320番地", "url": "https://www.kaigokensaku.mhlw.go.jp/47/index.php?action_kouhyou_detail_004_kani=true&JigyosyoCd=4772500015-00&ServiceCd=210&Type=search", "url2": "http://www.ainomura.okinawa" }, "geometry": { "type": "Point", "coordinates": [ 127.80739478789404, 26.32348296086602 ] } },
{ "type": "Feature", "properties": { "内容": "介護老人福祉施設春華園短期入所【短期入所生活介護】沖縄県中頭郡中城村字添石363番地", "url": "https://www.kaigokensaku.mhlw.go.jp/47/index.php?action_kouhyou_detail_004_kani=true&JigyosyoCd=4772600039-00&ServiceCd=210&Type=search", "url2": "Inahokai.jp" }, "geometry": { "type": "Point", "coordinates": [ 127.796658, 26.2770482 ] } },
{ "type": "Feature", "properties": { "内容": "指定短期入所生活介護事業所　守礼の里【短期入所生活介護】沖縄県中頭郡西原町字掛保久346番地", "url": "https://www.kaigokensaku.mhlw.go.jp/47/index.php?action_kouhyou_detail_004_kani=true&JigyosyoCd=4772700011-00&ServiceCd=210&Type=search", "url2": "http://shureinosato.com/" }, "geometry": { "type": "Point", "coordinates": [ 127.773206399999935, 26.2334658 ] } },
{ "type": "Feature", "properties": { "内容": "介護老人福祉施設　与那原日の出園【短期入所生活介護】沖縄県島尻郡与那原町字与那原3782-1", "url": "https://www.kaigokensaku.mhlw.go.jp/47/index.php?action_kouhyou_detail_004_kani=true&JigyosyoCd=4773400017-00&ServiceCd=210&Type=search", "url2": "http://nantoukai.com/" }, "geometry": { "type": "Point", "coordinates": [ 127.763573, 26.1977359 ] } },
{ "type": "Feature", "properties": { "内容": "グリーンハウス　与原【短期入所生活介護】沖縄県与那原町与那原1152番地", "url": "https://www.kaigokensaku.mhlw.go.jp/47/index.php?action_kouhyou_detail_004_kani=true&JigyosyoCd=4773400355-00&ServiceCd=210&Type=search", "url2": "https://www.otowakai.com/" }, "geometry": { "type": "Point", "coordinates": [ 127.758739465273607, 26.212743171348063 ] } },
{ "type": "Feature", "properties": { "内容": "嬉の里　短期入所生活介護【短期入所生活介護】沖縄県島尻郡南風原町字新川538番地", "url": "https://www.kaigokensaku.mhlw.go.jp/47/index.php?action_kouhyou_detail_004_kani=true&JigyosyoCd=4773600012-00&ServiceCd=210&Type=search", "url2": "https://www.chihirokai.or.jp/" }, "geometry": { "type": "Point", "coordinates": [ 127.729305699999941, 26.2104143 ] } },
{ "type": "Feature", "properties": { "内容": "特別養護老人ホームあぐに【短期入所生活介護】沖縄県島尻郡粟国村字東1796番地", "url": "https://www.kaigokensaku.mhlw.go.jp/47/index.php?action_kouhyou_detail_004_kani=true&JigyosyoCd=4774100012-00&ServiceCd=210&Type=search", "url2": "http://www." }, "geometry": { "type": "Point", "coordinates": [ 127.231145, 26.5842166 ] } },
{ "type": "Feature", "properties": { "内容": "短期入所生活介護事業所チヂン園【短期入所生活介護】沖縄県島尻郡伊是名村字仲田1687番地51", "url": "https://www.kaigokensaku.mhlw.go.jp/47/index.php?action_kouhyou_detail_004_kani=true&JigyosyoCd=4774600011-00&ServiceCd=210&Type=search", "url2": "http://www.chijinen.com/" }, "geometry": { "type": "Point", "coordinates": [ 127.943634, 26.9223664 ] } },
{ "type": "Feature", "properties": { "内容": "特別養護老人ホーム　球美の杜【短期入所生活介護】沖縄県島尻郡久米島町字嘉手苅５３３番地１", "url": "https://www.kaigokensaku.mhlw.go.jp/47/index.php?action_kouhyou_detail_004_kani=true&JigyosyoCd=4775800057-00&ServiceCd=210&Type=search", "url2": "http://www.kukuru.info/" }, "geometry": { "type": "Point", "coordinates": [ 126.763488899999956, 26.3413567 ] } },
{ "type": "Feature", "properties": { "内容": "短期入所生活介護事業所　くめしま【短期入所生活介護】沖縄県島尻郡久米島町字兼城１４６４－５", "url": "https://www.kaigokensaku.mhlw.go.jp/47/index.php?action_kouhyou_detail_004_kani=true&JigyosyoCd=4773800026-00&ServiceCd=210&Type=search", "url2": "https://kyusenkaikumeshima.wixsite.com/kyusenkai" }, "geometry": { "type": "Point", "coordinates": [ 126.7641714, 26.3545801 ] } },
{ "type": "Feature", "properties": { "内容": "ときわ苑短期入所ホーム【短期入所生活介護】沖縄県八重瀬町字当銘378番地の1", "url": "https://www.kaigokensaku.mhlw.go.jp/47/index.php?action_kouhyou_detail_004_kani=true&JigyosyoCd=4772900017-00&ServiceCd=210&Type=search", "url2": "http://tokiwaen.or.jp/" }, "geometry": { "type": "Point", "coordinates": [ 127.6987229, 26.1516441 ] } },
{ "type": "Feature", "properties": { "内容": "転生園指定短期入所生活介護事業所【短期入所生活介護】沖縄県島尻郡八重瀬町字安里670番地", "url": "https://www.kaigokensaku.mhlw.go.jp/47/index.php?action_kouhyou_detail_004_kani=true&JigyosyoCd=4773000015-00&ServiceCd=210&Type=search", "url2": "http://www.tenshoen.or.jp" }, "geometry": { "type": "Point", "coordinates": [ 127.728017599999916, 26.1226276 ] } },
{ "type": "Feature", "properties": { "内容": "転生園サテライト短期入所生活介護事業所【短期入所生活介護】沖縄県島尻郡八重瀬町字仲座420番地1", "url": "https://www.kaigokensaku.mhlw.go.jp/47/index.php?action_kouhyou_detail_004_kani=true&JigyosyoCd=4775700125-00&ServiceCd=210&Type=search", "url2": "http://www.tenshoen.or.jp" }, "geometry": { "type": "Point", "coordinates": [ 127.7214006, 26.1084047 ] } },
{ "type": "Feature", "properties": { "内容": "社会福祉法人偕生会　南風見苑短期入所生活介護事業所【短期入所生活介護】沖縄県八重山郡竹富町字上原８７０番地２７３", "url": "https://www.kaigokensaku.mhlw.go.jp/47/index.php?action_kouhyou_detail_004_kani=true&JigyosyoCd=4775200035-00&ServiceCd=210&Type=search", "url2": null }, "geometry": { "type": "Point", "coordinates": [ 123.809925199999967, 24.4058156 ] } }
]
}
