{
"type": "FeatureCollection",
"name": "geo_47_特別支援学校",
"crs": { "type": "name", "properties": { "name": "urn:ogc:def:crs:EPSG::6668" } },
"features": [
{ "type": "Feature", "properties": { "P29_001": "47201", "P29_002": "E147220100015", "P29_003": "16012", "P29_004": "沖縄県立那覇特別支援学校", "P29_005": "沖縄県那覇市寄宮2-3-30", "P29_006": "2", "P29_007": "0", "P29_008": "00", "P29_009": null }, "geometry": { "type": "Point", "coordinates": [ 127.696242000668562, 26.20775199797226 ] } },
{ "type": "Feature", "properties": { "P29_001": "47201", "P29_002": "E147220100024", "P29_003": "16012", "P29_004": "沖縄県立那覇みらい支援学校", "P29_005": "沖縄県那覇市古波蔵4-10-17", "P29_006": "2", "P29_007": "0", "P29_008": "00", "P29_009": null }, "geometry": { "type": "Point", "coordinates": [ 127.690735257987512, 26.196044541740537 ] } },
{ "type": "Feature", "properties": { "P29_001": "47207", "P29_002": "E147220700019", "P29_003": "16012", "P29_004": "沖縄県立八重山特別支援学校", "P29_005": "沖縄県石垣市字宮良77", "P29_006": "2", "P29_007": "0", "P29_008": "00", "P29_009": null }, "geometry": { "type": "Point", "coordinates": [ 124.225989443265291, 24.350708021515207 ] } },
{ "type": "Feature", "properties": { "P29_001": "47208", "P29_002": "E147220800018", "P29_003": "16012", "P29_004": "沖縄県立大平特別支援学校", "P29_005": "沖縄県浦添市大平1-27-1", "P29_006": "2", "P29_007": "0", "P29_008": "01", "P29_009": null }, "geometry": { "type": "Point", "coordinates": [ 127.711700905311474, 26.247865270013641 ] } },
{ "type": "Feature", "properties": { "P29_001": "47208", "P29_002": "E147220800027", "P29_003": "16012", "P29_004": "沖縄県立鏡が丘特別支援学校", "P29_005": "沖縄県浦添市当山3-2-7", "P29_006": "2", "P29_007": "0", "P29_008": "00", "P29_009": null }, "geometry": { "type": "Point", "coordinates": [ 127.736489999217952, 26.245867001253981 ] } },
{ "type": "Feature", "properties": { "P29_001": "47208", "P29_002": "E147220800036", "P29_003": "16012", "P29_004": "沖縄県立鏡が丘特別支援学校浦添分校", "P29_005": "沖縄県浦添市経塚715", "P29_006": "2", "P29_007": "0", "P29_008": "00", "P29_009": null }, "geometry": { "type": "Point", "coordinates": [ 127.726054003388427, 26.236891999578791 ] } },
{ "type": "Feature", "properties": { "P29_001": "47208", "P29_002": "E147220800045", "P29_003": "16012", "P29_004": "沖縄県立陽明高等支援学校", "P29_005": "沖縄県浦添市字大平488", "P29_006": "2", "P29_007": "0", "P29_008": "00", "P29_009": null }, "geometry": { "type": "Point", "coordinates": [ 127.712154997808895, 26.243678001203438 ] } },
{ "type": "Feature", "properties": { "P29_001": "47209", "P29_002": "E147220900017", "P29_003": "16012", "P29_004": "沖縄県立名護特別支援学校", "P29_005": "沖縄県名護市宇茂佐760", "P29_006": "2", "P29_007": "0", "P29_008": "00", "P29_009": null }, "geometry": { "type": "Point", "coordinates": [ 127.959750399364609, 26.598106265124496 ] } },
{ "type": "Feature", "properties": { "P29_001": "47209", "P29_002": "E147220900026", "P29_003": "16012", "P29_004": "沖縄県立桜野特別支援学校", "P29_005": "沖縄県名護市字宇茂佐1787-1", "P29_006": "2", "P29_007": "0", "P29_008": "00", "P29_009": null }, "geometry": { "type": "Point", "coordinates": [ 127.963650402555103, 26.607519802802262 ] } },
{ "type": "Feature", "properties": { "P29_001": "47210", "P29_002": "E147221000014", "P29_003": "16012", "P29_004": "沖縄県立西崎特別支援学校", "P29_005": "沖縄県糸満市西崎1-1-2", "P29_006": "2", "P29_007": "0", "P29_008": "00", "P29_009": null }, "geometry": { "type": "Point", "coordinates": [ 127.664626989294149, 26.137893929469737 ] } },
{ "type": "Feature", "properties": { "P29_001": "47211", "P29_002": "E147221100013", "P29_003": "16012", "P29_004": "沖縄県立美咲特別支援学校", "P29_005": "沖縄県沖縄市美里4-18-1", "P29_006": "2", "P29_007": "0", "P29_008": "00", "P29_009": null }, "geometry": { "type": "Point", "coordinates": [ 127.814735873107708, 26.352914444873825 ] } },
{ "type": "Feature", "properties": { "P29_001": "47211", "P29_002": "E147221100022", "P29_003": "16012", "P29_004": "沖縄県立泡瀬特別支援学校", "P29_005": "沖縄県沖縄市比屋根5-2-20", "P29_006": "2", "P29_007": "0", "P29_008": "00", "P29_009": null }, "geometry": { "type": "Point", "coordinates": [ 127.819060513231079, 26.311390219588191 ] } },
{ "type": "Feature", "properties": { "P29_001": "47213", "P29_002": "E147221300011", "P29_003": "16012", "P29_004": "沖縄県立沖縄高等特別支援学校", "P29_005": "沖縄県うるま市字田場1243", "P29_006": "2", "P29_007": "0", "P29_008": "00", "P29_009": null }, "geometry": { "type": "Point", "coordinates": [ 127.854448991615229, 26.366744545803012 ] } },
{ "type": "Feature", "properties": { "P29_001": "47213", "P29_002": "E147221300020", "P29_003": "16012", "P29_004": "沖縄県立中部農林高等支援学校", "P29_005": "沖縄県うるま市字田陽1570", "P29_006": "2", "P29_007": "0", "P29_008": "00", "P29_009": null }, "geometry": { "type": "Point", "coordinates": [ 127.855219587510931, 26.371581734825071 ] } },
{ "type": "Feature", "properties": { "P29_001": "47214", "P29_002": "E147221400010", "P29_003": "16012", "P29_004": "沖縄県立宮古特別支援学校", "P29_005": "沖縄県宮古島市平良字狩俣4005-1", "P29_006": "2", "P29_007": "0", "P29_008": "00", "P29_009": null }, "geometry": { "type": "Point", "coordinates": [ 125.296561997060749, 24.853934003892903 ] } },
{ "type": "Feature", "properties": { "P29_001": "47327", "P29_002": "E147232700014", "P29_003": "16012", "P29_004": "沖縄県立沖縄ろう学校", "P29_005": "沖縄県中頭郡北中城村字屋宜原415", "P29_006": "2", "P29_007": "0", "P29_008": "00", "P29_009": null }, "geometry": { "type": "Point", "coordinates": [ 127.783970774075897, 26.311123652519761 ] } },
{ "type": "Feature", "properties": { "P29_001": "47327", "P29_002": "E147232700023", "P29_003": "16012", "P29_004": "沖縄県立はなさき支援学校", "P29_005": "沖縄県中頭郡北中城村字屋宜原415", "P29_006": "2", "P29_007": "0", "P29_008": "00", "P29_009": null }, "geometry": { "type": "Point", "coordinates": [ 127.784407396038958, 26.311221354938517 ] } },
{ "type": "Feature", "properties": { "P29_001": "47329", "P29_002": "E147232900012", "P29_003": "16012", "P29_004": "沖縄県立森川特別支援学校", "P29_005": "沖縄県中頭郡西原町字森川151", "P29_006": "2", "P29_007": "0", "P29_008": "00", "P29_009": null }, "geometry": { "type": "Point", "coordinates": [ 127.754998548421071, 26.251130943138882 ] } },
{ "type": "Feature", "properties": { "P29_001": "47350", "P29_002": "E147235000014", "P29_003": "16012", "P29_004": "沖縄県立沖縄盲学校", "P29_005": "沖縄県島尻郡南風原町字兼城473", "P29_006": "2", "P29_007": "0", "P29_008": "00", "P29_009": null }, "geometry": { "type": "Point", "coordinates": [ 127.721235607275801, 26.197082308797338 ] } },
{ "type": "Feature", "properties": { "P29_001": "47350", "P29_002": "E147235000023", "P29_003": "16012", "P29_004": "沖縄県立南風原高等支援学校", "P29_005": "沖縄県島尻郡南風原町字津嘉山1140", "P29_006": "2", "P29_007": "0", "P29_008": "00", "P29_009": null }, "geometry": { "type": "Point", "coordinates": [ 127.715323699616192, 26.195871295155872 ] } },
{ "type": "Feature", "properties": { "P29_001": "47362", "P29_002": "E147236200010", "P29_003": "16012", "P29_004": "沖縄県立島尻特別支援学校", "P29_005": "沖縄県島尻郡八重瀬町字友寄160", "P29_006": "2", "P29_007": "0", "P29_008": "00", "P29_009": null }, "geometry": { "type": "Point", "coordinates": [ 127.717791295126716, 26.17078567899193 ] } },
{ "type": "Feature", "properties": { "P29_001": "47362", "P29_002": "E147236200029", "P29_003": "16012", "P29_004": "沖縄県立やえせ高等支援学校", "P29_005": "沖縄県島尻郡八重瀬町友寄850", "P29_006": "2", "P29_007": "0", "P29_008": "00", "P29_009": null }, "geometry": { "type": "Point", "coordinates": [ 127.722721492880837, 26.170952676476187 ] } },
{ "type": "Feature", "properties": { "P29_001": "47361", "P29_002": "E147220800018", "P29_003": "16012", "P29_004": "沖縄県立大平特別支援学校", "P29_005": "沖縄県久米島町嘉手苅727", "P29_006": "2", "P29_007": "0", "P29_008": "02", "P29_009": "久米島高校分教室" }, "geometry": { "type": "Point", "coordinates": [ 126.761153050763596, 26.3376627031063 ] } }
]
}
