{
"type": "FeatureCollection",
"name": "geo_47_各種学校",
"crs": { "type": "name", "properties": { "name": "urn:ogc:def:crs:EPSG::6668" } },
"features": [
{ "type": "Feature", "properties": { "P29_001": "47201", "P29_002": "H247320100016", "P29_003": "16015", "P29_004": "沖縄ドレスメーカー専門学院", "P29_005": "沖縄県那覇市牧志2-1-13", "P29_006": "4", "P29_007": "0", "P29_008": "00", "P29_009": null }, "geometry": { "type": "Point", "coordinates": [ 127.688329816782769, 26.216989792505856 ] } },
{ "type": "Feature", "properties": { "P29_001": "47201", "P29_002": "H247320100025", "P29_003": "16015", "P29_004": "すみれ服装学院", "P29_005": "沖縄県那覇市壷屋1-7-5", "P29_006": "4", "P29_007": "0", "P29_008": "00", "P29_009": null }, "geometry": { "type": "Point", "coordinates": [ 127.689647821266149, 26.213725027275938 ] } },
{ "type": "Feature", "properties": { "P29_001": "47201", "P29_002": "H247320100034", "P29_003": "16015", "P29_004": "萬田ドレスメーカー専門学院", "P29_005": "沖縄県那覇市牧志3-6-6", "P29_006": "4", "P29_007": "0", "P29_008": "00", "P29_009": null }, "geometry": { "type": "Point", "coordinates": [ 127.689802602055892, 26.214261115190258 ] } },
{ "type": "Feature", "properties": { "P29_001": "47201", "P29_002": "H247320100052", "P29_003": "16015", "P29_004": "熊谷和・琉裁きもの専門学院", "P29_005": "沖縄県那覇市泊2-4-12", "P29_006": "4", "P29_007": "0", "P29_008": "00", "P29_009": null }, "geometry": { "type": "Point", "coordinates": [ 127.686042615815069, 26.225110293258801 ] } },
{ "type": "Feature", "properties": { "P29_001": "47201", "P29_002": "H247320100061", "P29_003": "16015", "P29_004": "開南洋裁学院", "P29_005": "沖縄県那覇市牧志3-4-14", "P29_006": "4", "P29_007": "0", "P29_008": "00", "P29_009": null }, "geometry": { "type": "Point", "coordinates": [ 127.688978923094027, 26.212913738104344 ] } },
{ "type": "Feature", "properties": { "P29_001": "47201", "P29_002": "H247320100070", "P29_003": "16015", "P29_004": "ニッケンライセンスアカデミー", "P29_005": "沖縄県那覇市古島161", "P29_006": "4", "P29_007": "0", "P29_008": "00", "P29_009": null }, "geometry": { "type": "Point", "coordinates": [ 127.712838725618766, 26.226222947303604 ] } },
{ "type": "Feature", "properties": { "P29_001": "47201", "P29_002": "H247320100089", "P29_003": "16015", "P29_004": "ユーガーグルーミングスクール那覇校", "P29_005": "沖縄県那覇市牧志2-2-6-コムディビル13Ｆ", "P29_006": "4", "P29_007": "0", "P29_008": "00", "P29_009": null }, "geometry": { "type": "Point", "coordinates": [ 127.688766538339152, 26.216676964642069 ] } },
{ "type": "Feature", "properties": { "P29_001": "47201", "P29_002": "H247320100098", "P29_003": "16015", "P29_004": "日本文化経済学院", "P29_005": "沖縄県那覇市西2-12-14", "P29_006": "4", "P29_007": "0", "P29_008": "00", "P29_009": null }, "geometry": { "type": "Point", "coordinates": [ 127.669337937987805, 26.213757370689052 ] } },
{ "type": "Feature", "properties": { "P29_001": "47201", "P29_002": "H247320100105", "P29_003": "16015", "P29_004": "沖縄写真デザイン工芸学校", "P29_005": "沖縄県那覇市松尾2-1-13", "P29_006": "4", "P29_007": "0", "P29_008": "00", "P29_009": null }, "geometry": { "type": "Point", "coordinates": [ 127.684888336891063, 26.214901786199043 ] } },
{ "type": "Feature", "properties": { "P29_001": "47201", "P29_002": "H247320100114", "P29_003": "16015", "P29_004": "ステップワールド日本語学院", "P29_005": "沖縄県那覇市上之屋1-10-2", "P29_006": "4", "P29_007": "0", "P29_008": "00", "P29_009": null }, "geometry": { "type": "Point", "coordinates": [ 127.686288802294598, 26.22746685639807 ] } },
{ "type": "Feature", "properties": { "P29_001": "47208", "P29_002": "H247320800019", "P29_003": "16015", "P29_004": "沖縄学院", "P29_005": "沖縄県浦添市牧港4-7-8", "P29_006": "4", "P29_007": "0", "P29_008": "00", "P29_009": null }, "geometry": { "type": "Point", "coordinates": [ 127.727182091863938, 26.26667553393391 ] } },
{ "type": "Feature", "properties": { "P29_001": "47210", "P29_002": "H247321000015", "P29_003": "16015", "P29_004": "糸満服装学院", "P29_005": "沖縄県糸満市糸満989-3", "P29_006": "4", "P29_007": "0", "P29_008": "00", "P29_009": null }, "geometry": { "type": "Point", "coordinates": [ 127.667789704803198, 26.129129288073219 ] } },
{ "type": "Feature", "properties": { "P29_001": "47211", "P29_002": "H247321100014", "P29_003": "16015", "P29_004": "コザ尚学院", "P29_005": "沖縄県沖縄市上地1-8-15", "P29_006": "4", "P29_007": "0", "P29_008": "00", "P29_009": null }, "geometry": { "type": "Point", "coordinates": [ 127.79759368203824, 26.335055531668843 ] } },
{ "type": "Feature", "properties": { "P29_001": "47214", "P29_002": "H247321400011", "P29_003": "16015", "P29_004": "宮古すみれ洋裁学院", "P29_005": "沖縄県宮古島市平良字下里578", "P29_006": "4", "P29_007": "0", "P29_008": "00", "P29_009": null }, "geometry": { "type": "Point", "coordinates": [ 125.281008039718756, 24.803031417538879 ] } },
{ "type": "Feature", "properties": { "P29_001": "47324", "P29_002": "H247332400018", "P29_003": "16015", "P29_004": "沖縄クリスチャンスクール", "P29_005": "沖縄県中頭郡読谷村字座喜味1835", "P29_006": "4", "P29_007": "0", "P29_008": "00", "P29_009": null }, "geometry": { "type": "Point", "coordinates": [ 127.729660159096611, 26.396604088215973 ] } },
{ "type": "Feature", "properties": { "P29_001": "47326", "P29_002": "H247332600016", "P29_003": "16015", "P29_004": "ＨｏｐｅＩｎｔｅｒｎａｔｉｏｎａｌＡｃａｄｅｍｙ", "P29_005": "沖縄県中頭郡北谷町宮城1-51", "P29_006": "4", "P29_007": "0", "P29_008": "00", "P29_009": null }, "geometry": { "type": "Point", "coordinates": [ 127.744526545473065, 26.32895300450485 ] } }
]
}
