{
"type": "FeatureCollection",
"name": "geo_47_小規模多機能型居宅介護",
"crs": { "type": "name", "properties": { "name": "urn:ogc:def:crs:OGC:1.3:CRS84" } },
"features": [
{ "type": "Feature", "properties": { "内容": "小規模多機能居宅介護事業所　あしみじ具志の家【小規模多機能型居宅介護】沖縄県那覇市具志2丁目14番13号", "url": "https://www.kaigokensaku.mhlw.go.jp/47/index.php?action_kouhyou_detail_004_kani=true&JigyosyoCd=4790100319-00&ServiceCd=730&Type=search", "url2": null }, "geometry": { "type": "Point", "coordinates": [ 127.660282300000063, 26.1814427 ] } },
{ "type": "Feature", "properties": { "内容": "小規模多機能型居宅介護　ノア【小規模多機能型居宅介護】沖縄県那覇市首里石嶺町2-13-1オリブ山地域サポートセンター", "url": "https://www.kaigokensaku.mhlw.go.jp/47/index.php?action_kouhyou_detail_004_kani=true&JigyosyoCd=4790100038-00&ServiceCd=730&Type=search", "url2": "http://www.oribuyama.org" }, "geometry": { "type": "Point", "coordinates": [ 127.729252, 26.2256073 ] } },
{ "type": "Feature", "properties": { "内容": "小規模多機能型施設　　MOMO【小規模多機能型居宅介護】沖縄県那覇市宮城一丁目１番３７号小禄みなみ介護医療院内１F", "url": "https://www.kaigokensaku.mhlw.go.jp/47/index.php?action_kouhyou_detail_004_kani=true&JigyosyoCd=4790100202-00&ServiceCd=730&Type=search", "url2": "http://www.jounan.or.jp" }, "geometry": { "type": "Point", "coordinates": [ 127.658643100000063, 26.1873337 ] } },
{ "type": "Feature", "properties": { "内容": "小規模多機能居宅介護事業所くくば原【小規模多機能型居宅介護】沖縄県那覇市国場９２７番１", "url": "https://www.kaigokensaku.mhlw.go.jp/47/index.php?action_kouhyou_detail_004_kani=true&JigyosyoCd=4790100103-00&ServiceCd=730&Type=search", "url2": "https://kukubabaru.ti-da.net/" }, "geometry": { "type": "Point", "coordinates": [ 127.698608422090203, 26.198018726702287 ] } },
{ "type": "Feature", "properties": { "内容": "小規模多機能型ホーム　若狭【小規模多機能型居宅介護】沖縄県那覇市若狭三丁目４番１０号２階", "url": "https://www.kaigokensaku.mhlw.go.jp/47/index.php?action_kouhyou_detail_004_kani=true&JigyosyoCd=4790100079-00&ServiceCd=730&Type=search", "url2": null }, "geometry": { "type": "Point", "coordinates": [ 127.677789500000017, 26.2218252 ] } },
{ "type": "Feature", "properties": { "内容": "小規模多機能ケアホームうえの家【小規模多機能型居宅介護】沖縄県那覇市字上之屋408－4高齢者複合施設　うえの家", "url": "https://www.kaigokensaku.mhlw.go.jp/47/index.php?action_kouhyou_detail_004_kani=true&JigyosyoCd=4790100285-00&ServiceCd=730&Type=search", "url2": "http://www.tjmc.or.jp" }, "geometry": { "type": "Point", "coordinates": [ 127.683702300000036, 26.22923 ] } },
{ "type": "Feature", "properties": { "内容": "小規模多機能型居宅介護事業所　花日和２号館【小規模多機能型居宅介護】沖縄県那覇市字古波蔵１－３０－１", "url": "https://www.kaigokensaku.mhlw.go.jp/47/index.php?action_kouhyou_detail_004_kani=true&JigyosyoCd=4790100301-00&ServiceCd=730&Type=search", "url2": "http://www.ozanso.org" }, "geometry": { "type": "Point", "coordinates": [ 127.691529400000036, 26.1993282 ] } },
{ "type": "Feature", "properties": { "内容": "小規模多機能型施設　城西【小規模多機能型居宅介護】沖縄県那覇市首里山川町2丁目４０番地", "url": "https://www.kaigokensaku.mhlw.go.jp/47/index.php?action_kouhyou_detail_004_kani=true&JigyosyoCd=4790100137-00&ServiceCd=730&Type=search", "url2": "http://johnan-kai.jp" }, "geometry": { "type": "Point", "coordinates": [ 127.712854473841162, 26.22276863332668 ] } },
{ "type": "Feature", "properties": { "内容": "小多機　松城【小規模多機能型居宅介護】沖縄県那覇市繁多川3-6-9", "url": "https://www.kaigokensaku.mhlw.go.jp/47/index.php?action_kouhyou_detail_004_kani=true&JigyosyoCd=4790100764-00&ServiceCd=730&Type=search", "url2": "https://www.johnan-kai.jp/" }, "geometry": { "type": "Point", "coordinates": [ 127.710254, 26.215414500000023 ] } },
{ "type": "Feature", "properties": { "内容": "小規模多機能ホームすずらん【小規模多機能型居宅介護】沖縄県那覇市寄宮一丁目9番地5号地域包括ケアセンターかみはら　４階", "url": "https://www.kaigokensaku.mhlw.go.jp/47/index.php?action_kouhyou_detail_004_kani=true&JigyosyoCd=4790100459-00&ServiceCd=730&Type=search", "url2": "医療法人おもと会公式ホームページへ" }, "geometry": { "type": "Point", "coordinates": [ 127.692851826983684, 26.210608859328023 ] } },
{ "type": "Feature", "properties": { "内容": "小規模多機能型ホーム　大道【小規模多機能型居宅介護】沖縄県那覇市字大道９４番地３　２階", "url": "https://www.kaigokensaku.mhlw.go.jp/47/index.php?action_kouhyou_detail_004_kani=true&JigyosyoCd=4790100087-00&ServiceCd=730&Type=search", "url2": null }, "geometry": { "type": "Point", "coordinates": [ 127.698127, 26.2198455 ] } },
{ "type": "Feature", "properties": { "内容": "小規模多機能ホーム寄宮【小規模多機能型居宅介護】沖縄県那覇市寄宮1-16-12　ケアクロッシング寄宮", "url": "https://www.kaigokensaku.mhlw.go.jp/47/index.php?action_kouhyou_detail_004_kani=true&JigyosyoCd=4790100111-00&ServiceCd=730&Type=search", "url2": "https://omotokai.or.jp/jigyou/253/" }, "geometry": { "type": "Point", "coordinates": [ 127.6949032, 26.2092771 ] } },
{ "type": "Feature", "properties": { "内容": "小規模多機能型施設はんたがわ【小規模多機能型居宅介護】沖縄県那覇市繁多川３丁目４番１８号", "url": "https://www.kaigokensaku.mhlw.go.jp/47/index.php?action_kouhyou_detail_004_kani=true&JigyosyoCd=4790100152-00&ServiceCd=730&Type=search", "url2": "http://johnan-kai.jp" }, "geometry": { "type": "Point", "coordinates": [ 127.709912700000018, 26.2141743 ] } },
{ "type": "Feature", "properties": { "内容": "小規模多機能ホーム　はれる家【小規模多機能型居宅介護】那覇市首里石嶺町４丁目５７番地", "url": "https://www.kaigokensaku.mhlw.go.jp/47/index.php?action_kouhyou_detail_004_kani=true&JigyosyoCd=4790100376-00&ServiceCd=730&Type=search", "url2": "https://oribuyama.jp/hallelujah/" }, "geometry": { "type": "Point", "coordinates": [ 127.730479300000084, 26.2314402 ] } },
{ "type": "Feature", "properties": { "内容": "小規模多機能型施設　デイ長田【小規模多機能型居宅介護】沖縄県那覇市長田1丁目１３番５４号", "url": "https://www.kaigokensaku.mhlw.go.jp/47/index.php?action_kouhyou_detail_004_kani=true&JigyosyoCd=4790100426-00&ServiceCd=730&Type=search", "url2": "nagat@johnan-kai.jp" }, "geometry": { "type": "Point", "coordinates": [ 127.699869900000081, 26.203469600000041 ] } },
{ "type": "Feature", "properties": { "内容": "小規模多機能ホーム安岡【小規模多機能型居宅介護】安謝６１９番地１", "url": "https://www.kaigokensaku.mhlw.go.jp/47/index.php?action_kouhyou_detail_004_kani=true&JigyosyoCd=4790100392-00&ServiceCd=730&Type=search", "url2": "https://sites.google.com/view/yasuoka6191/" }, "geometry": { "type": "Point", "coordinates": [ 127.6951285, 26.2393599 ] } },
{ "type": "Feature", "properties": { "内容": "小規模多機能ホーム若松ぎのわん【小規模多機能型居宅介護】愛知二丁目３番2号", "url": "https://www.kaigokensaku.mhlw.go.jp/47/index.php?action_kouhyou_detail_004_kani=true&JigyosyoCd=4790500088-00&ServiceCd=730&Type=search", "url2": "http:www.agape-wakamatsu.or.jp" }, "geometry": { "type": "Point", "coordinates": [ 127.7682552, 26.2688342 ] } },
{ "type": "Feature", "properties": { "内容": "小規模ホーム　こすもす【小規模多機能型居宅介護】沖縄県宜野湾市嘉数４－４－１０", "url": "https://www.kaigokensaku.mhlw.go.jp/47/index.php?action_kouhyou_detail_004_kani=true&JigyosyoCd=4770500132-00&ServiceCd=730&Type=search", "url2": "http://www.omotokai.or.jp.ginowann/index.html" }, "geometry": { "type": "Point", "coordinates": [ 127.733183100000019, 26.2614151 ] } },
{ "type": "Feature", "properties": { "内容": "小規模多機能きずな【小規模多機能型居宅介護】沖縄県宜野湾市普天間２丁目３１番７号", "url": "https://www.kaigokensaku.mhlw.go.jp/47/index.php?action_kouhyou_detail_004_kani=true&JigyosyoCd=4790500013-00&ServiceCd=730&Type=search", "url2": null }, "geometry": { "type": "Point", "coordinates": [ 127.7730705, 26.2899744 ] } },
{ "type": "Feature", "properties": { "内容": "あかゆら　小規模多機能型居宅介護事業所【小規模多機能型居宅介護】沖縄県石垣市浜崎町2-2-8", "url": "https://www.kaigokensaku.mhlw.go.jp/47/index.php?action_kouhyou_detail_004_kani=true&JigyosyoCd=4790700019-00&ServiceCd=730&Type=search", "url2": "http://akayura-isigakijima.com" }, "geometry": { "type": "Point", "coordinates": [ 124.150889, 24.3405302 ] } },
{ "type": "Feature", "properties": { "内容": "小規模多機能ホーム　つむぎの郷【小規模多機能型居宅介護】沖縄県石垣市字大浜１３４９番地７７", "url": "https://www.kaigokensaku.mhlw.go.jp/47/index.php?action_kouhyou_detail_004_kani=true&JigyosyoCd=4790700027-00&ServiceCd=730&Type=search", "url2": "http://ishigaki-taiyounosato.com/" }, "geometry": { "type": "Point", "coordinates": [ 124.20359479290012, 24.355558543630639 ] } },
{ "type": "Feature", "properties": { "内容": "小規模多機能ホームあん【小規模多機能型居宅介護】沖縄県浦添市大平１丁目３４番８号", "url": "https://www.kaigokensaku.mhlw.go.jp/47/index.php?action_kouhyou_detail_004_kani=true&JigyosyoCd=4790800108-00&ServiceCd=730&Type=search", "url2": null }, "geometry": { "type": "Point", "coordinates": [ 127.710924400000081, 26.2465463 ] } },
{ "type": "Feature", "properties": { "内容": "小規模多機能ホーム　前田の家【小規模多機能型居宅介護】沖縄県　浦添市前田５４７番地　前田高齢者複合施設１階前田高齢者複合施設１階", "url": "https://www.kaigokensaku.mhlw.go.jp/47/index.php?action_kouhyou_detail_004_kani=true&JigyosyoCd=4790800025-00&ServiceCd=730&Type=search", "url2": "http://www.smilekea-okinawa.co.jp" }, "geometry": { "type": "Point", "coordinates": [ 127.73298197810972, 26.240631688494183 ] } },
{ "type": "Feature", "properties": { "内容": "小規模多機能型居宅介護事業所すりずり【小規模多機能型居宅介護】沖縄県浦添市屋富祖2丁目-24-7中村ビル2階", "url": "https://www.kaigokensaku.mhlw.go.jp/47/index.php?action_kouhyou_detail_004_kani=true&JigyosyoCd=4790800066-00&ServiceCd=730&Type=search", "url2": "https://surizuri-okinawa.com" }, "geometry": { "type": "Point", "coordinates": [ 127.7093398, 26.2531761 ] } },
{ "type": "Feature", "properties": { "内容": "長寿庵小規模多機能型居宅介護事業所【小規模多機能型居宅介護】沖縄県浦添市城間4丁目25番12号コーポハイビスカス101", "url": "https://www.kaigokensaku.mhlw.go.jp/47/index.php?action_kouhyou_detail_004_kani=true&JigyosyoCd=4790800074-00&ServiceCd=730&Type=search", "url2": "URL:http://www.tyojuan.com/" }, "geometry": { "type": "Point", "coordinates": [ 127.717372557672078, 26.257503880227787 ] } },
{ "type": "Feature", "properties": { "内容": "小規模多機能型居宅介護事業所　さざなみ【小規模多機能型居宅介護】沖縄県名護市字瀬嵩12番地の2", "url": "https://www.kaigokensaku.mhlw.go.jp/47/index.php?action_kouhyou_detail_004_kani=true&JigyosyoCd=4790900023-00&ServiceCd=730&Type=search", "url2": null }, "geometry": { "type": "Point", "coordinates": [ 128.050179500000013, 26.5490167 ] } },
{ "type": "Feature", "properties": { "内容": "小規模多機能型居宅介護事業所かじまやぁぬ花【小規模多機能型居宅介護】沖縄県糸満市字糸満１４４９番地の３かじまやぁぬ花", "url": "https://www.kaigokensaku.mhlw.go.jp/47/index.php?action_kouhyou_detail_004_kani=true&JigyosyoCd=4791000039-00&ServiceCd=730&Type=search", "url2": "http://www.ai-itoman.or.jp" }, "geometry": { "type": "Point", "coordinates": [ 127.675699899999927, 26.1272924 ] } },
{ "type": "Feature", "properties": { "内容": "愛聖小規模多機能型オリオン【小規模多機能型居宅介護】沖縄県沖縄市古謝２丁目１６番８号", "url": "https://www.kaigokensaku.mhlw.go.jp/47/index.php?action_kouhyou_detail_004_kani=true&JigyosyoCd=4790400156-00&ServiceCd=730&Type=search", "url2": "http://anshinkai.jp" }, "geometry": { "type": "Point", "coordinates": [ 127.832306673541325, 26.334267891583103 ] } },
{ "type": "Feature", "properties": { "内容": "多機能介護ごえく【小規模多機能型居宅介護】沖縄県沖縄市越来３丁目１１番２０号", "url": "https://www.kaigokensaku.mhlw.go.jp/47/index.php?action_kouhyou_detail_004_kani=true&JigyosyoCd=4790400032-00&ServiceCd=730&Type=search", "url2": null }, "geometry": { "type": "Point", "coordinates": [ 127.811276799999959, 26.3461007 ] } },
{ "type": "Feature", "properties": { "内容": "小規模多機能型居宅介護事業所　ゆい幸【小規模多機能型居宅介護】沖縄県沖縄市明道1丁目18番1号ゆいシェア", "url": "https://www.kaigokensaku.mhlw.go.jp/47/index.php?action_kouhyou_detail_004_kani=true&JigyosyoCd=4790400164-00&ServiceCd=730&Type=search", "url2": null }, "geometry": { "type": "Point", "coordinates": [ 127.823050500000022, 26.3554697 ] } },
{ "type": "Feature", "properties": { "内容": "小規模多機能型居宅介護事業所きづきの家【小規模多機能型居宅介護】沖縄県沖縄市泡瀬一丁目21番13号", "url": "https://www.kaigokensaku.mhlw.go.jp/47/index.php?action_kouhyou_detail_004_kani=true&JigyosyoCd=4790400016-00&ServiceCd=730&Type=search", "url2": null }, "geometry": { "type": "Point", "coordinates": [ 127.837428, 26.3201051 ] } },
{ "type": "Feature", "properties": { "内容": "小規模多機能ホームいきがいのまち【小規模多機能型居宅介護】沖縄県沖縄市諸見里2-10-10", "url": "https://www.kaigokensaku.mhlw.go.jp/47/index.php?action_kouhyou_detail_004_kani=true&JigyosyoCd=4790400081-00&ServiceCd=730&Type=search", "url2": "ikigai-days.com" }, "geometry": { "type": "Point", "coordinates": [ 127.786565500000037, 26.3305876 ] } },
{ "type": "Feature", "properties": { "内容": "小規模多機能型居宅介護事業所　もものみち【小規模多機能型居宅介護】沖縄県沖縄市美里一丁目２７番６号", "url": "https://www.kaigokensaku.mhlw.go.jp/47/index.php?action_kouhyou_detail_004_kani=true&JigyosyoCd=4790400172-00&ServiceCd=730&Type=search", "url2": "https://www.ja-okinawa.or.jp/service/kaigo/" }, "geometry": { "type": "Point", "coordinates": [ 127.818520503179926, 26.34199945511649 ] } },
{ "type": "Feature", "properties": { "内容": "小規模多機能型居宅介護事業所　花日和【小規模多機能型居宅介護】沖縄県豊見城市字高嶺395-44桜山荘「共に生きる町」たかみね", "url": "https://www.kaigokensaku.mhlw.go.jp/47/index.php?action_kouhyou_detail_004_kani=true&JigyosyoCd=4795400011-00&ServiceCd=730&Type=search", "url2": "https://www.ozanso.org" }, "geometry": { "type": "Point", "coordinates": [ 127.696786799999927, 26.1672264 ] } },
{ "type": "Feature", "properties": { "内容": "小規模多機能ホームゆい【小規模多機能型居宅介護】うるま市字赤道248番地2", "url": "https://www.kaigokensaku.mhlw.go.jp/47/index.php?action_kouhyou_detail_004_kani=true&JigyosyoCd=4790300067-00&ServiceCd=730&Type=search", "url2": null }, "geometry": { "type": "Point", "coordinates": [ 127.828041699999957, 26.3534616 ] } },
{ "type": "Feature", "properties": { "内容": "小規模多機能ホーム・石川にじの家【小規模多機能型居宅介護】沖縄県うるま市石川東山本町１－１９－１８", "url": "https://www.kaigokensaku.mhlw.go.jp/47/index.php?action_kouhyou_detail_004_kani=true&JigyosyoCd=4790300117-00&ServiceCd=730&Type=search", "url2": null }, "geometry": { "type": "Point", "coordinates": [ 127.831427800000043, 26.4378282 ] } },
{ "type": "Feature", "properties": { "内容": "地域支援ホーム津堅いこいの家【小規模多機能型居宅介護】沖縄県うるま市勝連津堅1144番地", "url": "https://www.kaigokensaku.mhlw.go.jp/47/index.php?action_kouhyou_detail_004_kani=true&JigyosyoCd=4790300042-00&ServiceCd=730&Type=search", "url2": "http://www.yokatu.okinawa" }, "geometry": { "type": "Point", "coordinates": [ 127.938977499999964, 26.2485302 ] } },
{ "type": "Feature", "properties": { "内容": "小規模多機能ホームいきがいのまちうるま【小規模多機能型居宅介護】沖縄県うるま市喜屋武626-5", "url": "https://www.kaigokensaku.mhlw.go.jp/47/index.php?action_kouhyou_detail_004_kani=true&JigyosyoCd=4790300232-00&ServiceCd=730&Type=search", "url2": "http://ikigai-days.com/" }, "geometry": { "type": "Point", "coordinates": [ 127.8459039, 26.3588168 ] } },
{ "type": "Feature", "properties": { "内容": "小規模多機能型居宅介護事業所和みの里【小規模多機能型居宅介護】沖縄県宮古島市伊良部字伊良部９８番地２", "url": "https://www.kaigokensaku.mhlw.go.jp/47/index.php?action_kouhyou_detail_004_kani=true&JigyosyoCd=4795500059-00&ServiceCd=730&Type=search", "url2": "http://care-net.biz/47/sukoyaka/" }, "geometry": { "type": "Point", "coordinates": [ 125.1780227, 24.81833640000001 ] } },
{ "type": "Feature", "properties": { "内容": "小規模多機能型居宅介護事業所憩いの家いずみ【小規模多機能型居宅介護】沖縄県宮古島市伊良部字池間添２６５番地", "url": "https://www.kaigokensaku.mhlw.go.jp/47/index.php?action_kouhyou_detail_004_kani=true&JigyosyoCd=4795500117-00&ServiceCd=730&Type=search", "url2": null }, "geometry": { "type": "Point", "coordinates": [ 125.21114349999992, 24.8377372 ] } },
{ "type": "Feature", "properties": { "内容": "ともの家【小規模多機能型居宅介護】沖縄県宮古島市平良字西里１６２番地", "url": "https://www.kaigokensaku.mhlw.go.jp/47/index.php?action_kouhyou_detail_004_kani=true&JigyosyoCd=4795500034-00&ServiceCd=730&Type=search", "url2": null }, "geometry": { "type": "Point", "coordinates": [ 125.279529299999922, 24.8056455 ] } },
{ "type": "Feature", "properties": { "内容": "小規模多機能型居宅介護事業所　ぷくんみ【小規模多機能型居宅介護】宮古島市城辺字新城606", "url": "https://www.kaigokensaku.mhlw.go.jp/47/index.php?action_kouhyou_detail_004_kani=true&JigyosyoCd=4795500125-00&ServiceCd=730&Type=search", "url2": null }, "geometry": { "type": "Point", "coordinates": [ 125.413207, 24.7445497 ] } },
{ "type": "Feature", "properties": { "内容": "宮古島市社協小規模多機能型居宅介護事業所きゃーぎ【小規模多機能型居宅介護】沖縄県宮古島市城辺長間1419番地１", "url": "https://www.kaigokensaku.mhlw.go.jp/47/index.php?action_kouhyou_detail_004_kani=true&JigyosyoCd=4795500067-00&ServiceCd=730&Type=search", "url2": "http://www.miyashakyo.jp/" }, "geometry": { "type": "Point", "coordinates": [ 125.365030199999978, 24.7636549 ] } },
{ "type": "Feature", "properties": { "内容": "宮古島市社協小規模多機能型居宅介護事業所たかやま【小規模多機能型居宅介護】沖縄県宮古島市上野字新里４２０－３", "url": "https://www.kaigokensaku.mhlw.go.jp/47/index.php?action_kouhyou_detail_004_kani=true&JigyosyoCd=4795500075-00&ServiceCd=730&Type=search", "url2": null }, "geometry": { "type": "Point", "coordinates": [ 125.328083500000034, 24.7413307 ] } },
{ "type": "Feature", "properties": { "内容": "きゅ～ぬふから舎【小規模多機能型居宅介護】沖縄県宮古島市平良字池間９０－６", "url": "https://www.kaigokensaku.mhlw.go.jp/47/index.php?action_kouhyou_detail_004_kani=true&JigyosyoCd=4795500018-00&ServiceCd=730&Type=search", "url2": "http://npoikema.sakura.ne.jp/" }, "geometry": { "type": "Point", "coordinates": [ 125.246848499999942, 24.9242901 ] } },
{ "type": "Feature", "properties": { "内容": "東雲の丘小規模多機能型居宅介護事業所【小規模多機能型居宅介護】大里字大城１３８８０番地１９", "url": "https://www.kaigokensaku.mhlw.go.jp/47/index.php?action_kouhyou_detail_004_kani=true&JigyosyoCd=4773500030-00&ServiceCd=730&Type=search", "url2": "http://www.kenshoukai.or.jp" }, "geometry": { "type": "Point", "coordinates": [ 127.758312299999943, 26.165952500000014 ] } },
{ "type": "Feature", "properties": { "内容": "小規模多機能ホームいっしん【小規模多機能型居宅介護】沖縄県国頭郡大宜味村字津波４１８番地", "url": "https://www.kaigokensaku.mhlw.go.jp/47/index.php?action_kouhyou_detail_004_kani=true&JigyosyoCd=4791200019-00&ServiceCd=730&Type=search", "url2": "i-info@isshinfukushikai.or.jp." }, "geometry": { "type": "Point", "coordinates": [ 128.099061099999972, 26.6603468 ] } },
{ "type": "Feature", "properties": { "内容": "小規模多機能型施設ＳＨＩＧＥＲＵ・ＨＯＵＳＥ【小規模多機能型居宅介護】沖縄県国頭郡今帰仁村字天底334-１", "url": "https://www.kaigokensaku.mhlw.go.jp/47/index.php?action_kouhyou_detail_004_kani=true&JigyosyoCd=4791400015-00&ServiceCd=730&Type=search", "url2": null }, "geometry": { "type": "Point", "coordinates": [ 127.980191099999956, 26.676575 ] } },
{ "type": "Feature", "properties": { "内容": "どりーむはうす【小規模多機能型居宅介護】沖縄県国頭郡本部町字大浜８５０－５番地", "url": "https://www.kaigokensaku.mhlw.go.jp/47/index.php?action_kouhyou_detail_004_kani=true&JigyosyoCd=4791500012-00&ServiceCd=730&Type=search", "url2": "http://shinsei-fukushikai.jp/house/" }, "geometry": { "type": "Point", "coordinates": [ 127.8811518, 26.6529183 ] } },
{ "type": "Feature", "properties": { "内容": "株式会社新がらまんの里【小規模多機能型居宅介護】沖縄県国頭郡宜野座村字惣慶746-1番地", "url": "https://www.kaigokensaku.mhlw.go.jp/47/index.php?action_kouhyou_detail_004_kani=true&JigyosyoCd=4791700034-00&ServiceCd=730&Type=search", "url2": null }, "geometry": { "type": "Point", "coordinates": [ 127.973139599999953, 26.4807116 ] } },
{ "type": "Feature", "properties": { "内容": "ライフケア古堅　介護多機能センター【小規模多機能型居宅介護】沖縄県中頭郡読谷村字比謝　242-1", "url": "https://www.kaigokensaku.mhlw.go.jp/47/index.php?action_kouhyou_detail_004_kani=true&JigyosyoCd=4792200067-00&ServiceCd=730&Type=search", "url2": "http://www.lcy-mc.com" }, "geometry": { "type": "Point", "coordinates": [ 127.751574500000061, 26.3784795 ] } },
{ "type": "Feature", "properties": { "内容": "ライフケア読谷　介護多機能センター【小規模多機能型居宅介護】沖縄県中頭郡読谷村字長浜　1532番地", "url": "https://www.kaigokensaku.mhlw.go.jp/47/index.php?action_kouhyou_detail_004_kani=true&JigyosyoCd=4792200026-00&ServiceCd=730&Type=search", "url2": "http://www.lcy-mc.com" }, "geometry": { "type": "Point", "coordinates": [ 127.731501788809396, 26.417100201772399 ] } },
{ "type": "Feature", "properties": { "内容": "小規模多機能型居宅介護事業所　よみたんふれあいの里【小規模多機能型居宅介護】沖縄県中頭郡読谷村字喜名２２７２番４", "url": "https://www.kaigokensaku.mhlw.go.jp/47/index.php?action_kouhyou_detail_004_kani=true&JigyosyoCd=4792200018-00&ServiceCd=730&Type=search", "url2": "y.fureai@shore.ocn.ne.jp" }, "geometry": { "type": "Point", "coordinates": [ 127.750188, 26.395364 ] } },
{ "type": "Feature", "properties": { "内容": "小規模多機能ホーム　比謝川の里【小規模多機能型居宅介護】沖縄県嘉手納町字水釜６－１６－１", "url": "https://www.kaigokensaku.mhlw.go.jp/47/index.php?action_kouhyou_detail_004_kani=true&JigyosyoCd=4792300016-00&ServiceCd=730&Type=search", "url2": null }, "geometry": { "type": "Point", "coordinates": [ 127.740942200000063, 26.3581649 ] } },
{ "type": "Feature", "properties": { "内容": "小規模多機能型居宅介護いなほ【小規模多機能型居宅介護】沖縄県中城村字屋宜215番地18", "url": "https://www.kaigokensaku.mhlw.go.jp/47/index.php?action_kouhyou_detail_004_kani=true&JigyosyoCd=4792600019-00&ServiceCd=730&Type=search", "url2": "inahokai.jp" }, "geometry": { "type": "Point", "coordinates": [ 127.794711099999958, 26.269968200000012 ] } },
{ "type": "Feature", "properties": { "内容": "小規模多機能　なかぐすく【小規模多機能型居宅介護】中城村字奥間911番1", "url": "https://www.kaigokensaku.mhlw.go.jp/47/index.php?action_kouhyou_detail_004_kani=true&JigyosyoCd=4792600027-00&ServiceCd=730&Type=search", "url2": null }, "geometry": { "type": "Point", "coordinates": [ 127.789537500000037, 26.2557416 ] } },
{ "type": "Feature", "properties": { "内容": "グリーンハウス西原【小規模多機能型居宅介護】沖縄県西原町字小那覇218番地グリーンハウス西原", "url": "https://www.kaigokensaku.mhlw.go.jp/47/index.php?action_kouhyou_detail_004_kani=true&JigyosyoCd=4792700033-00&ServiceCd=730&Type=search", "url2": "https://www.otowakai.com/" }, "geometry": { "type": "Point", "coordinates": [ 140.4606296, 35.8632161 ] } },
{ "type": "Feature", "properties": { "内容": "小規模多機能ホームはえばる【小規模多機能型居宅介護】沖縄県島尻郡南風原町字津嘉山６７５－３５", "url": "https://www.kaigokensaku.mhlw.go.jp/47/index.php?action_kouhyou_detail_004_kani=true&JigyosyoCd=4793600026-00&ServiceCd=730&Type=search", "url2": null }, "geometry": { "type": "Point", "coordinates": [ 127.715456576721181, 26.185063544724176 ] } },
{ "type": "Feature", "properties": { "内容": "小規模多機能型居宅介護事業所　球美の家【小規模多機能型居宅介護】久米島町字嘉手苅533番地１", "url": "https://www.kaigokensaku.mhlw.go.jp/47/index.php?action_kouhyou_detail_004_kani=true&JigyosyoCd=4795800020-00&ServiceCd=730&Type=search", "url2": "https://kukuru.info/" }, "geometry": { "type": "Point", "coordinates": [ 126.763309500386086, 26.34118290847902 ] } },
{ "type": "Feature", "properties": { "内容": "ちゅら島小規模多機能型居宅介護事業所【小規模多機能型居宅介護】沖縄県島尻郡八重瀬町字東風平1348番地1", "url": "https://www.kaigokensaku.mhlw.go.jp/47/index.php?action_kouhyou_detail_004_kani=true&JigyosyoCd=4795700022-00&ServiceCd=730&Type=search", "url2": null }, "geometry": { "type": "Point", "coordinates": [ 127.727470900000085, 26.1578231 ] } }
]
}
