{
"type": "FeatureCollection",
"name": "geo_47_特定福祉用具販売",
"crs": { "type": "name", "properties": { "name": "urn:ogc:def:crs:OGC:1.3:CRS84" } },
"features": [
{ "type": "Feature", "properties": { "内容": "沖縄プラスライフ【特定福祉用具販売】沖縄県那覇市三原１丁目１０－３２　１階", "url": "https://www.kaigokensaku.mhlw.go.jp/47/index.php?action_kouhyou_detail_004_kani=true&JigyosyoCd=4770104182-00&ServiceCd=410&Type=search", "url2": null }, "geometry": { "type": "Point", "coordinates": [ 127.6964226, 26.2124128 ] } },
{ "type": "Feature", "properties": { "内容": "福祉用具レンタル・販売　楽助【特定福祉用具販売】沖縄県那覇市松川1-4-8", "url": "https://www.kaigokensaku.mhlw.go.jp/47/index.php?action_kouhyou_detail_004_kani=true&JigyosyoCd=4770103796-00&ServiceCd=410&Type=search", "url2": "https://raku-suke.com/" }, "geometry": { "type": "Point", "coordinates": [ 127.701227199999963, 26.2155072 ] } },
{ "type": "Feature", "properties": { "内容": "ケア琉球【特定福祉用具販売】沖縄県那覇市三原3-2-11大湾アパート1F", "url": "https://www.kaigokensaku.mhlw.go.jp/47/index.php?action_kouhyou_detail_004_kani=true&JigyosyoCd=4770104430-00&ServiceCd=410&Type=search", "url2": "https://careryukyu.com/" }, "geometry": { "type": "Point", "coordinates": [ 127.7010407, 26.2092173 ] } },
{ "type": "Feature", "properties": { "内容": "福祉用具サービスステーションおもと園【特定福祉用具販売】沖縄県那覇市寄宮1-16-12", "url": "https://www.kaigokensaku.mhlw.go.jp/47/index.php?action_kouhyou_detail_004_kani=true&JigyosyoCd=4770104075-00&ServiceCd=410&Type=search", "url2": "http://www.omotokai.or.jp" }, "geometry": { "type": "Point", "coordinates": [ 127.6948658, 26.209237 ] } },
{ "type": "Feature", "properties": { "内容": "介護パートナー【特定福祉用具販売】小禄１丁目21-11", "url": "https://www.kaigokensaku.mhlw.go.jp/47/index.php?action_kouhyou_detail_004_kani=true&JigyosyoCd=4770101303-00&ServiceCd=410&Type=search", "url2": "https://www.big-advance.site/c/172/2725" }, "geometry": { "type": "Point", "coordinates": [ 127.679605053222801, 26.193206341036785 ] } },
{ "type": "Feature", "properties": { "内容": "ニチイケアセンター那覇【特定福祉用具販売】沖縄県那覇市久茂地1-1-1パレットくもじ308", "url": "https://www.kaigokensaku.mhlw.go.jp/47/index.php?action_kouhyou_detail_004_kani=true&JigyosyoCd=4770100180-00&ServiceCd=410&Type=search", "url2": "hstJ75@nichiigakkan.co.jp" }, "geometry": { "type": "Point", "coordinates": [ 127.679103793778964, 26.21363292380822 ] } },
{ "type": "Feature", "properties": { "内容": "ダスキンヘルスレント識名ステーション【特定福祉用具販売】沖縄県那覇市真地429番地コーポ真地101", "url": "https://www.kaigokensaku.mhlw.go.jp/47/index.php?action_kouhyou_detail_004_kani=true&JigyosyoCd=4770101451-00&ServiceCd=410&Type=search", "url2": "http://healthrent.duskin.jp/index.html" }, "geometry": { "type": "Point", "coordinates": [ 127.71465139999998, 26.2055059 ] } },
{ "type": "Feature", "properties": { "内容": "株式会社　ケアリング【特定福祉用具販売】沖縄県那覇市首里鳥堀町3丁目8番地", "url": "https://www.kaigokensaku.mhlw.go.jp/47/index.php?action_kouhyou_detail_004_kani=true&JigyosyoCd=4770100115-00&ServiceCd=410&Type=search", "url2": "caring3211.jimdofree.com/" }, "geometry": { "type": "Point", "coordinates": [ 127.725930599999955, 26.2182412 ] } },
{ "type": "Feature", "properties": { "内容": "サトウ株式会社　那覇営業所【特定福祉用具販売】沖縄県那覇市銘苅3-20-22（1F）", "url": "https://www.kaigokensaku.mhlw.go.jp/47/index.php?action_kouhyou_detail_004_kani=true&JigyosyoCd=4770102905-00&ServiceCd=410&Type=search", "url2": "http://www.satooka.com/" }, "geometry": { "type": "Point", "coordinates": [ 127.700487, 26.23355 ] } },
{ "type": "Feature", "properties": { "内容": "株式会社シルバーサービス沖縄　首里営業所【特定福祉用具販売】沖縄県那覇市首里石嶺町4丁目4番地1オアシス伊差川1階", "url": "https://www.kaigokensaku.mhlw.go.jp/47/index.php?action_kouhyou_detail_004_kani=true&JigyosyoCd=4770104547-00&ServiceCd=410&Type=search", "url2": "https://kukuru.info" }, "geometry": { "type": "Point", "coordinates": [ 127.7299435, 26.2279311 ] } },
{ "type": "Feature", "properties": { "内容": "有限会社シルバー館【特定福祉用具販売】上原1丁目17番9号", "url": "https://www.kaigokensaku.mhlw.go.jp/47/index.php?action_kouhyou_detail_004_kani=true&JigyosyoCd=4770500157-00&ServiceCd=410&Type=search", "url2": "http://okinawan-tv.jp/pr/silver-kan/" }, "geometry": { "type": "Point", "coordinates": [ 139.6827578, 35.6692952 ] } },
{ "type": "Feature", "properties": { "内容": "株式会社グッティ【特定福祉用具販売】沖縄県宜野湾市真志喜1丁目11番12号コモンズビル104", "url": "https://www.kaigokensaku.mhlw.go.jp/47/index.php?action_kouhyou_detail_004_kani=true&JigyosyoCd=4770500884-00&ServiceCd=410&Type=search", "url2": null }, "geometry": { "type": "Point", "coordinates": [ 127.7376583, 26.2697966 ] } },
{ "type": "Feature", "properties": { "内容": "株式会社フロンティアゆい宜野湾営業所【特定福祉用具販売】沖縄県宜野湾市上原２丁目４番10号", "url": "https://www.kaigokensaku.mhlw.go.jp/47/index.php?action_kouhyou_detail_004_kani=true&JigyosyoCd=4770501171-00&ServiceCd=410&Type=search", "url2": null }, "geometry": { "type": "Point", "coordinates": [ 127.7769098, 26.2762368 ] } },
{ "type": "Feature", "properties": { "内容": "Walkers　Base（ウォーカーズ　ベース）【特定福祉用具販売】沖縄県宜野湾市我如古四丁目９番２号カーサＧ1階", "url": "https://www.kaigokensaku.mhlw.go.jp/47/index.php?action_kouhyou_detail_004_kani=true&JigyosyoCd=4770501205-00&ServiceCd=410&Type=search", "url2": null }, "geometry": { "type": "Point", "coordinates": [ 127.748992800000025, 26.256578899999983 ] } },
{ "type": "Feature", "properties": { "内容": "サトウ株式会社　宜野湾営業所【特定福祉用具販売】真志喜5-5-12　１Fグランデ飛水　１F", "url": "https://www.kaigokensaku.mhlw.go.jp/47/index.php?action_kouhyou_detail_004_kani=true&JigyosyoCd=4770500728-00&ServiceCd=410&Type=search", "url2": "https://satooka.co.jp/" }, "geometry": { "type": "Point", "coordinates": [ 127.735852758457199, 26.270844871055232 ] } },
{ "type": "Feature", "properties": { "内容": "有限会社シルバープラザ石垣【特定福祉用具販売】沖縄県石垣市真栄里556番地1", "url": "https://www.kaigokensaku.mhlw.go.jp/47/index.php?action_kouhyou_detail_004_kani=true&JigyosyoCd=4770700047-00&ServiceCd=410&Type=search", "url2": null }, "geometry": { "type": "Point", "coordinates": [ 124.1837864, 24.3392353 ] } },
{ "type": "Feature", "properties": { "内容": "有限会社　ゆいケアサービス【特定福祉用具販売】沖縄県石垣市登野城74-4", "url": "https://www.kaigokensaku.mhlw.go.jp/47/index.php?action_kouhyou_detail_004_kani=true&JigyosyoCd=4770700021-00&ServiceCd=410&Type=search", "url2": null }, "geometry": { "type": "Point", "coordinates": [ 124.1595038, 24.3390405 ] } },
{ "type": "Feature", "properties": { "内容": "合同会社　ふたば介護サービス【特定福祉用具販売】沖縄県石垣市字新川2372ｰ23", "url": "https://www.kaigokensaku.mhlw.go.jp/47/index.php?action_kouhyou_detail_004_kani=true&JigyosyoCd=4770700476-00&ServiceCd=410&Type=search", "url2": null }, "geometry": { "type": "Point", "coordinates": [ 124.1442195, 24.3516992 ] } },
{ "type": "Feature", "properties": { "内容": "有限会社　八重山介護サービス【特定福祉用具販売】沖縄県石垣市字大川527-1", "url": "https://www.kaigokensaku.mhlw.go.jp/47/index.php?action_kouhyou_detail_004_kani=true&JigyosyoCd=4770700088-00&ServiceCd=410&Type=search", "url2": null }, "geometry": { "type": "Point", "coordinates": [ 124.1665581, 24.3483237 ] } },
{ "type": "Feature", "properties": { "内容": "福祉用具サービスひとえ【特定福祉用具販売】沖縄県浦添市字港川２５４番地　　ハッピータウン内", "url": "https://www.kaigokensaku.mhlw.go.jp/47/index.php?action_kouhyou_detail_004_kani=true&JigyosyoCd=4770801100-00&ServiceCd=410&Type=search", "url2": "http://r.goope.jp/hitoe" }, "geometry": { "type": "Point", "coordinates": [ 127.713784, 26.264983400000023 ] } },
{ "type": "Feature", "properties": { "内容": "かいごのまどぐち【特定福祉用具販売】西原1丁目12番17号平田アパート101", "url": "https://www.kaigokensaku.mhlw.go.jp/47/index.php?action_kouhyou_detail_004_kani=true&JigyosyoCd=4770801761-00&ServiceCd=410&Type=search", "url2": "https://www.ringo-chozai.jp/" }, "geometry": { "type": "Point", "coordinates": [ 127.740130161838664, 26.255298728678973 ] } },
{ "type": "Feature", "properties": { "内容": "株式会社シグマ沖縄【特定福祉用具販売】沖縄県浦添市港川1丁目11番13号　202", "url": "https://www.kaigokensaku.mhlw.go.jp/47/index.php?action_kouhyou_detail_004_kani=true&JigyosyoCd=4770801050-00&ServiceCd=410&Type=search", "url2": "http://hp.kaipoke.biz/wrs/index.html" }, "geometry": { "type": "Point", "coordinates": [ 127.718263948903683, 26.260362330551438 ] } },
{ "type": "Feature", "properties": { "内容": "福祉用具ケアセンター浦西【特定福祉用具販売】当山2-10-10", "url": "https://www.kaigokensaku.mhlw.go.jp/47/index.php?action_kouhyou_detail_004_kani=true&JigyosyoCd=4770101022-00&ServiceCd=410&Type=search", "url2": null }, "geometry": { "type": "Point", "coordinates": [ 127.7378033, 26.2489041 ] } },
{ "type": "Feature", "properties": { "内容": "介護福祉用具貸与販売事業所”匠”【特定福祉用具販売】沖縄県名護市字伊差川１９番地１", "url": "https://www.kaigokensaku.mhlw.go.jp/47/index.php?action_kouhyou_detail_004_kani=true&JigyosyoCd=4770900464-00&ServiceCd=410&Type=search", "url2": null }, "geometry": { "type": "Point", "coordinates": [ 128.0042469, 26.6122544 ] } },
{ "type": "Feature", "properties": { "内容": "福祉用具レンタル・販売事業所なぐ交じり【特定福祉用具販売】沖縄県名護市字為又８５６－１１", "url": "https://www.kaigokensaku.mhlw.go.jp/47/index.php?action_kouhyou_detail_004_kani=true&JigyosyoCd=4770900613-00&ServiceCd=410&Type=search", "url2": null }, "geometry": { "type": "Point", "coordinates": [ 127.979635, 26.6078369 ] } },
{ "type": "Feature", "properties": { "内容": "有限会社　いやしの郷【特定福祉用具販売】沖縄県名護市大中四丁目4番27号", "url": "https://www.kaigokensaku.mhlw.go.jp/47/index.php?action_kouhyou_detail_004_kani=true&JigyosyoCd=4770900134-00&ServiceCd=410&Type=search", "url2": "iyasi@circus.ocn.ne.jp" }, "geometry": { "type": "Point", "coordinates": [ 127.990766200000039, 26.5959159 ] } },
{ "type": "Feature", "properties": { "内容": "サトウ株式会社名護営業所【特定福祉用具販売】沖縄県名護市大中4-1-30", "url": "https://www.kaigokensaku.mhlw.go.jp/47/index.php?action_kouhyou_detail_004_kani=true&JigyosyoCd=4770900795-00&ServiceCd=410&Type=search", "url2": null }, "geometry": { "type": "Point", "coordinates": [ 127.988298799999939, 26.5931967 ] } },
{ "type": "Feature", "properties": { "内容": "キングラン沖縄株式会社【特定福祉用具販売】沖縄県沖縄市胡屋七丁目5番6号", "url": "https://www.kaigokensaku.mhlw.go.jp/47/index.php?action_kouhyou_detail_004_kani=true&JigyosyoCd=4770400069-00&ServiceCd=410&Type=search", "url2": "http://www.kingrunokinawa.com" }, "geometry": { "type": "Point", "coordinates": [ 127.809308200000046, 26.3233583 ] } },
{ "type": "Feature", "properties": { "内容": "介護ｼｮｯﾌﾟ　助さん・たくさん【特定福祉用具販売】沖縄県沖縄市与儀3丁目20番1号", "url": "https://www.kaigokensaku.mhlw.go.jp/47/index.php?action_kouhyou_detail_004_kani=true&JigyosyoCd=4770401075-00&ServiceCd=410&Type=search", "url2": "http://thegrace.jp/welfare/" }, "geometry": { "type": "Point", "coordinates": [ 127.8142444, 26.3072932 ] } },
{ "type": "Feature", "properties": { "内容": "ﾀﾞｽｷﾝヘルスレント識名ステーション【特定福祉用具販売】沖縄市泡瀬3-7-1ムーンライズハイツ1Ｆ", "url": "https://www.kaigokensaku.mhlw.go.jp/47/index.php?action_kouhyou_detail_004_kani=true&JigyosyoCd=4770401646-00&ServiceCd=410&Type=search", "url2": "http://healthrent.duskin.jp/station/okinawa.html?link=01" }, "geometry": { "type": "Point", "coordinates": [ 127.8300241, 26.3149363 ] } },
{ "type": "Feature", "properties": { "内容": "ゆがふ在宅介護事業所【特定福祉用具販売】沖縄県沖縄市園田2-19-6", "url": "https://www.kaigokensaku.mhlw.go.jp/47/index.php?action_kouhyou_detail_004_kani=true&JigyosyoCd=4770400127-00&ServiceCd=410&Type=search", "url2": null }, "geometry": { "type": "Point", "coordinates": [ 127.8018627, 26.327114 ] } },
{ "type": "Feature", "properties": { "内容": "有限会社　ハート義肢【特定福祉用具販売】沖縄県沖縄市安慶田4丁目17番11号", "url": "https://www.kaigokensaku.mhlw.go.jp/47/index.php?action_kouhyou_detail_004_kani=true&JigyosyoCd=4770400077-00&ServiceCd=410&Type=search", "url2": "https://heart-gishi.com/" }, "geometry": { "type": "Point", "coordinates": [ 127.813754900000035, 26.3284496 ] } },
{ "type": "Feature", "properties": { "内容": "サトウ株式会社　沖縄営業所【特定福祉用具販売】沖縄県沖縄市古謝3丁目17番12号エスポワール海邦Ⅱ103・105号室", "url": "https://www.kaigokensaku.mhlw.go.jp/47/index.php?action_kouhyou_detail_004_kani=true&JigyosyoCd=4770402644-00&ServiceCd=410&Type=search", "url2": "https://satooka.co.jp/" }, "geometry": { "type": "Point", "coordinates": [ 127.836990099999966, 26.335376100000023 ] } },
{ "type": "Feature", "properties": { "内容": "有限会社　愛介護センター【特定福祉用具販売】沖縄県沖縄市池原２－１４－１４", "url": "https://www.kaigokensaku.mhlw.go.jp/47/index.php?action_kouhyou_detail_004_kani=true&JigyosyoCd=4772400059-00&ServiceCd=410&Type=search", "url2": null }, "geometry": { "type": "Point", "coordinates": [ 127.827368799999917, 26.3814254 ] } },
{ "type": "Feature", "properties": { "内容": "すこやかホ－ムケアサ－ビス【特定福祉用具販売】沖縄県沖縄市知花8丁目7番14号", "url": "https://www.kaigokensaku.mhlw.go.jp/47/index.php?action_kouhyou_detail_004_kani=true&JigyosyoCd=4770402826-00&ServiceCd=410&Type=search", "url2": null }, "geometry": { "type": "Point", "coordinates": [ 127.820723007628004, 26.360456400844271 ] } },
{ "type": "Feature", "properties": { "内容": "特定福祉用具販売事業所すみれ【特定福祉用具販売】沖縄県豊見城市字渡嘉敷150番地おもととよみの杜　２階　福祉用具展示室", "url": "https://www.kaigokensaku.mhlw.go.jp/47/index.php?action_kouhyou_detail_004_kani=true&JigyosyoCd=4772800035-00&ServiceCd=410&Type=search", "url2": "http://www.omotokai.or.jp/" }, "geometry": { "type": "Point", "coordinates": [ 127.6834877, 26.1727115 ] } },
{ "type": "Feature", "properties": { "内容": "株式会社　琉球光和【特定福祉用具販売】沖縄県豊見城市豊崎3-27豊崎物流センター2階", "url": "https://www.kaigokensaku.mhlw.go.jp/47/index.php?action_kouhyou_detail_004_kani=true&JigyosyoCd=4775407440-00&ServiceCd=410&Type=search", "url2": "https://rkowa.com/product" }, "geometry": { "type": "Point", "coordinates": [ 127.6565812, 26.1528029 ] } },
{ "type": "Feature", "properties": { "内容": "トータル介護沖縄【特定福祉用具販売】高安882番地12", "url": "https://www.kaigokensaku.mhlw.go.jp/47/index.php?action_kouhyou_detail_004_kani=true&JigyosyoCd=4772800027-00&ServiceCd=410&Type=search", "url2": "http://totalkaigo.jimdo.com/" }, "geometry": { "type": "Point", "coordinates": [ 127.689587638063358, 26.181849724533546 ] } },
{ "type": "Feature", "properties": { "内容": "株式会社シルバーサービス沖縄【特定福祉用具販売】沖縄県豊見城市字翁長869番地", "url": "https://www.kaigokensaku.mhlw.go.jp/47/index.php?action_kouhyou_detail_004_kani=true&JigyosyoCd=4775400213-00&ServiceCd=410&Type=search", "url2": "https://www.ssokinawa.com" }, "geometry": { "type": "Point", "coordinates": [ 127.6668229, 26.161204 ] } },
{ "type": "Feature", "properties": { "内容": "株式会社勇吉【特定福祉用具販売】沖縄県うるま市勝連平安名1587-1", "url": "https://www.kaigokensaku.mhlw.go.jp/47/index.php?action_kouhyou_detail_004_kani=true&JigyosyoCd=4770301408-00&ServiceCd=410&Type=search", "url2": "http://hp.kaipoke.biz/sdc/" }, "geometry": { "type": "Point", "coordinates": [ 127.8920299, 26.323227 ] } },
{ "type": "Feature", "properties": { "内容": "合同会社RECOVERY【特定福祉用具販売】沖縄県うるま市田場1872番地5エステートReiMKⅢ１階右側", "url": "https://www.kaigokensaku.mhlw.go.jp/47/index.php?action_kouhyou_detail_004_kani=true&JigyosyoCd=4770301812-00&ServiceCd=410&Type=search", "url2": "https://recovery.okinawa/" }, "geometry": { "type": "Point", "coordinates": [ 127.8603708, 26.3728881 ] } },
{ "type": "Feature", "properties": { "内容": "サトウ株式会社　うるま営業所【特定福祉用具販売】沖縄県うるま市安慶名1-4-4", "url": "https://www.kaigokensaku.mhlw.go.jp/47/index.php?action_kouhyou_detail_004_kani=true&JigyosyoCd=4770301168-00&ServiceCd=410&Type=search", "url2": "http://www.satooka.com" }, "geometry": { "type": "Point", "coordinates": [ 127.855972, 26.3741986 ] } },
{ "type": "Feature", "properties": { "内容": "株式会社シルバーサービス沖縄　中部営業所【特定福祉用具販売】沖縄県うるま市安慶名2丁目1番44号", "url": "https://www.kaigokensaku.mhlw.go.jp/47/index.php?action_kouhyou_detail_004_kani=true&JigyosyoCd=4770301192-00&ServiceCd=410&Type=search", "url2": null }, "geometry": { "type": "Point", "coordinates": [ 127.853548840069806, 26.375835733932107 ] } },
{ "type": "Feature", "properties": { "内容": "アペックスプラン沖縄　中部営業所【特定福祉用具販売】沖縄県うるま市字江洲598番8", "url": "https://www.kaigokensaku.mhlw.go.jp/47/index.php?action_kouhyou_detail_004_kani=true&JigyosyoCd=4770300947-00&ServiceCd=410&Type=search", "url2": "http://apexplan-okinawa.co.jp" }, "geometry": { "type": "Point", "coordinates": [ 127.8333968, 26.3480827 ] } },
{ "type": "Feature", "properties": { "内容": "下地診療所合同会社　リハビリ用品専門店リハショップ宮古【特定福祉用具販売】沖縄県宮古島市下地字上地325", "url": "https://www.kaigokensaku.mhlw.go.jp/47/index.php?action_kouhyou_detail_004_kani=true&JigyosyoCd=4775500566-00&ServiceCd=410&Type=search", "url2": null }, "geometry": { "type": "Point", "coordinates": [ 125.274314184707762, 24.746324447416395 ] } },
{ "type": "Feature", "properties": { "内容": "福祉用具ステーション　ラシクル【特定福祉用具販売】沖縄県宮古島市平良字東仲宗根894-3", "url": "https://www.kaigokensaku.mhlw.go.jp/47/index.php?action_kouhyou_detail_004_kani=true&JigyosyoCd=4770600023-00&ServiceCd=410&Type=search", "url2": "https://smile-miyako.com" }, "geometry": { "type": "Point", "coordinates": [ 125.296541599999955, 24.801202 ] } },
{ "type": "Feature", "properties": { "内容": "有限会社　まるたか【特定福祉用具販売】平良字西里794番地4", "url": "https://www.kaigokensaku.mhlw.go.jp/47/index.php?action_kouhyou_detail_004_kani=true&JigyosyoCd=4770600064-00&ServiceCd=410&Type=search", "url2": null }, "geometry": { "type": "Point", "coordinates": [ 125.290503400000034, 24.8009491 ] } },
{ "type": "Feature", "properties": { "内容": "介護ショップ琉心【特定福祉用具販売】沖縄県宮古島市平良字下里１０１２番地1", "url": "https://www.kaigokensaku.mhlw.go.jp/47/index.php?action_kouhyou_detail_004_kani=true&JigyosyoCd=4775500194-00&ServiceCd=410&Type=search", "url2": null }, "geometry": { "type": "Point", "coordinates": [ 125.2800178, 24.7926815 ] } },
{ "type": "Feature", "properties": { "内容": "ライフ・アシスト【特定福祉用具販売】沖縄県宮古島市平良字東仲宗根776番地9", "url": "https://www.kaigokensaku.mhlw.go.jp/47/index.php?action_kouhyou_detail_004_kani=true&JigyosyoCd=4775500715-00&ServiceCd=410&Type=search", "url2": null }, "geometry": { "type": "Point", "coordinates": [ 125.2925367, 24.8036978 ] } },
{ "type": "Feature", "properties": { "内容": "福祉用具店　こころ【特定福祉用具販売】沖縄県宮古島市平良字東仲宗根825番地", "url": "https://www.kaigokensaku.mhlw.go.jp/47/index.php?action_kouhyou_detail_004_kani=true&JigyosyoCd=4775500822-00&ServiceCd=410&Type=search", "url2": null }, "geometry": { "type": "Point", "coordinates": [ 125.2892787, 24.8033661 ] } },
{ "type": "Feature", "properties": { "内容": "金武の杖【特定福祉用具販売】沖縄県国頭郡金武町金武10805", "url": "https://www.kaigokensaku.mhlw.go.jp/47/index.php?action_kouhyou_detail_004_kani=true&JigyosyoCd=4771800226-00&ServiceCd=410&Type=search", "url2": "https://dream-kin.net/" }, "geometry": { "type": "Point", "coordinates": [ 127.938304667635919, 26.462904436455243 ] } },
{ "type": "Feature", "properties": { "内容": "ケアサービスよみたん【特定福祉用具販売】沖縄県中頭郡読谷村字古堅61番地4", "url": "https://www.kaigokensaku.mhlw.go.jp/47/index.php?action_kouhyou_detail_004_kani=true&JigyosyoCd=4772200178-00&ServiceCd=410&Type=search", "url2": "https://www.big-advance.site/s/172/3025" }, "geometry": { "type": "Point", "coordinates": [ 127.751946169940538, 26.368737631367743 ] } },
{ "type": "Feature", "properties": { "内容": "介護支援センター中部【特定福祉用具販売】北中城村仲順375-1", "url": "https://www.kaigokensaku.mhlw.go.jp/47/index.php?action_kouhyou_detail_004_kani=true&JigyosyoCd=4772500197-00&ServiceCd=410&Type=search", "url2": null }, "geometry": { "type": "Point", "coordinates": [ 127.801012300000025, 26.302248300000024 ] } },
{ "type": "Feature", "properties": { "内容": "福祉用具サービスひとえ【特定福祉用具販売】沖縄県西原町翁長287番地２階", "url": "https://www.kaigokensaku.mhlw.go.jp/47/index.php?action_kouhyou_detail_004_kani=true&JigyosyoCd=4772700417-00&ServiceCd=410&Type=search", "url2": "https://www.hitoe-hukushi.com/" }, "geometry": { "type": "Point", "coordinates": [ 127.750335, 26.2289315 ] } },
{ "type": "Feature", "properties": { "内容": "ヘルス＆ケアジャパン　株式会社【特定福祉用具販売】新川501番地", "url": "https://www.kaigokensaku.mhlw.go.jp/47/index.php?action_kouhyou_detail_004_kani=true&JigyosyoCd=4773600418-00&ServiceCd=410&Type=search", "url2": "https://health-care-japan.com" }, "geometry": { "type": "Point", "coordinates": [ 127.727124940015443, 26.214088593857195 ] } },
{ "type": "Feature", "properties": { "内容": "株式会社　護工業　福祉サービス【特定福祉用具販売】沖縄県島尻郡南風原町字津嘉山643-3コーポマモル１F", "url": "https://www.kaigokensaku.mhlw.go.jp/47/index.php?action_kouhyou_detail_004_kani=true&JigyosyoCd=4773600624-00&ServiceCd=410&Type=search", "url2": null }, "geometry": { "type": "Point", "coordinates": [ 127.71437, 26.1860109 ] } },
{ "type": "Feature", "properties": { "内容": "有限会社　沖縄介護サービス　久米島営業所【特定福祉用具販売】沖縄県久米島町字宇根1744", "url": "https://www.kaigokensaku.mhlw.go.jp/47/index.php?action_kouhyou_detail_004_kani=true&JigyosyoCd=4775800065-00&ServiceCd=410&Type=search", "url2": null }, "geometry": { "type": "Point", "coordinates": [ 126.812201299999955, 26.3412908 ] } },
{ "type": "Feature", "properties": { "内容": "サトウ株式会社　八重瀬営業所【特定福祉用具販売】沖縄県島尻郡八重瀬町東風平796-1島添アパート1階", "url": "https://www.kaigokensaku.mhlw.go.jp/47/index.php?action_kouhyou_detail_004_kani=true&JigyosyoCd=4775700117-00&ServiceCd=410&Type=search", "url2": "http://www.satooka.com/" }, "geometry": { "type": "Point", "coordinates": [ 127.723998100000017, 26.1491366 ] } }
]
}
