{
"type": "FeatureCollection",
"name": "geo_47_認知症対応型共同生活介護",
"crs": { "type": "name", "properties": { "name": "urn:ogc:def:crs:OGC:1.3:CRS84" } },
"features": [
{ "type": "Feature", "properties": { "内容": "グループホームふれあい楚辺【認知症対応型共同生活介護】沖縄県那覇市楚辺2丁目３０番2号", "url": "https://www.kaigokensaku.mhlw.go.jp/47/index.php?action_kouhyou_detail_004_kani=true&JigyosyoCd=4790100251-00&ServiceCd=320&Type=search", "url2": "http://www.fureai-kaigo.com/index.html" }, "geometry": { "type": "Point", "coordinates": [ 127.6873015, 26.2032303 ] } },
{ "type": "Feature", "properties": { "内容": "グループホーム　サンサン丸【認知症対応型共同生活介護】沖縄県那覇市首里末吉町3丁目60番地1複合施設　夢", "url": "https://www.kaigokensaku.mhlw.go.jp/47/index.php?action_kouhyou_detail_004_kani=true&JigyosyoCd=4790100400-00&ServiceCd=320&Type=search", "url2": "www.daysevice-yume.jp/" }, "geometry": { "type": "Point", "coordinates": [ 127.705883800000038, 26.233336 ] } },
{ "type": "Feature", "properties": { "内容": "グループホームひやみかち小禄【認知症対応型共同生活介護】沖縄県那覇市小禄１７２番地", "url": "https://www.kaigokensaku.mhlw.go.jp/47/index.php?action_kouhyou_detail_004_kani=true&JigyosyoCd=4790100277-00&ServiceCd=320&Type=search", "url2": "ｗｗｗ.hiyamikati.net" }, "geometry": { "type": "Point", "coordinates": [ 127.6776195, 26.1941116 ] } },
{ "type": "Feature", "properties": { "内容": "三原あけぼのホーム【認知症対応型共同生活介護】沖縄県那覇市三原一丁目２番６号　三原あけぼの館２階", "url": "https://www.kaigokensaku.mhlw.go.jp/47/index.php?action_kouhyou_detail_004_kani=true&JigyosyoCd=4790100384-00&ServiceCd=320&Type=search", "url2": "http://www.johnan-kai.jp" }, "geometry": { "type": "Point", "coordinates": [ 127.697910500000035, 26.2108302 ] } },
{ "type": "Feature", "properties": { "内容": "グループホームノーマライ心の花首里【認知症対応型共同生活介護】沖縄県那覇市首里石嶺町３－１３５－２", "url": "https://www.kaigokensaku.mhlw.go.jp/47/index.php?action_kouhyou_detail_004_kani=true&JigyosyoCd=4790100327-00&ServiceCd=320&Type=search", "url2": "http://www.kokoronohana.jp/" }, "geometry": { "type": "Point", "coordinates": [ 127.727413, 26.2314679 ] } },
{ "type": "Feature", "properties": { "内容": "グループホームさつき荘【認知症対応型共同生活介護】沖縄県那覇市宇栄原3丁目5番14号-3階", "url": "https://www.kaigokensaku.mhlw.go.jp/47/index.php?action_kouhyou_detail_004_kani=true&JigyosyoCd=4790100145-00&ServiceCd=320&Type=search", "url2": "http://www.johnan-kai.jp" }, "geometry": { "type": "Point", "coordinates": [ 127.66549, 26.1874034 ] } },
{ "type": "Feature", "properties": { "内容": "グループホームファミーユ【認知症対応型共同生活介護】沖縄県那覇市寄宮２－１－１８ﾕｰﾄﾋﾟｱ沖縄4階", "url": "https://www.kaigokensaku.mhlw.go.jp/47/index.php?action_kouhyou_detail_004_kani=true&JigyosyoCd=4790100343-00&ServiceCd=320&Type=search", "url2": "https://www.utopia_jyujinkai.or.jp/" }, "geometry": { "type": "Point", "coordinates": [ 127.695650600000022, 26.2065802 ] } },
{ "type": "Feature", "properties": { "内容": "生協グループホーム安謝【認知症対応型共同生活介護】沖縄県那覇市安謝250番地－", "url": "https://www.kaigokensaku.mhlw.go.jp/47/index.php?action_kouhyou_detail_004_kani=true&JigyosyoCd=4790100418-00&ServiceCd=320&Type=search", "url2": null }, "geometry": { "type": "Point", "coordinates": [ 127.686512850162458, 26.239397869538056 ] } },
{ "type": "Feature", "properties": { "内容": "グループホーム愛【認知症対応型共同生活介護】那覇市繁多川2丁目6番18複合型福祉施設愛の杜", "url": "https://www.kaigokensaku.mhlw.go.jp/47/index.php?action_kouhyou_detail_004_kani=true&JigyosyoCd=4790100475-00&ServiceCd=320&Type=search", "url2": "http://ainomori.jp/home/" }, "geometry": { "type": "Point", "coordinates": [ 127.710037901831953, 26.212975671540612 ] } },
{ "type": "Feature", "properties": { "内容": "認知症対応型グループホーム末吉【認知症対応型共同生活介護】沖縄県那覇市首里末吉町2丁目95番4", "url": "https://www.kaigokensaku.mhlw.go.jp/47/index.php?action_kouhyou_detail_004_kani=true&JigyosyoCd=4790100632-00&ServiceCd=320&Type=search", "url2": "http://nsleepcom" }, "geometry": { "type": "Point", "coordinates": [ 127.708401871817799, 26.23073946059209 ] } },
{ "type": "Feature", "properties": { "内容": "グループホームたんぽぽ【認知症対応型共同生活介護】寄宮1丁目9番地の5地域包括ケアセンターかみはら", "url": "https://www.kaigokensaku.mhlw.go.jp/47/index.php?action_kouhyou_detail_004_kani=true&JigyosyoCd=4790100459-00&ServiceCd=320&Type=search", "url2": "http://www.omotokai.or.jp/" }, "geometry": { "type": "Point", "coordinates": [ 127.692928333729554, 26.210487197992823 ] } },
{ "type": "Feature", "properties": { "内容": "グループホーム　なけ～ま原【認知症対応型共同生活介護】沖縄県那覇市仲井真238-3", "url": "https://www.kaigokensaku.mhlw.go.jp/47/index.php?action_kouhyou_detail_004_kani=true&JigyosyoCd=4790100269-00&ServiceCd=320&Type=search", "url2": null }, "geometry": { "type": "Point", "coordinates": [ 127.709514836211056, 26.196278189268565 ] } },
{ "type": "Feature", "properties": { "内容": "グループホーム　たけとんぼ【認知症対応型共同生活介護】沖縄県那覇市国場９１１－２", "url": "https://www.kaigokensaku.mhlw.go.jp/47/index.php?action_kouhyou_detail_004_kani=true&JigyosyoCd=4790100228-00&ServiceCd=320&Type=search", "url2": "http://nankurugroup.com/" }, "geometry": { "type": "Point", "coordinates": [ 127.698481500000085, 26.1986729 ] } },
{ "type": "Feature", "properties": { "内容": "グループホームぬくぬくの家・幸【認知症対応型共同生活介護】沖縄県那覇市首里大名町１丁目４３番地２", "url": "https://www.kaigokensaku.mhlw.go.jp/47/index.php?action_kouhyou_detail_004_kani=true&JigyosyoCd=4770100206-00&ServiceCd=320&Type=search", "url2": "http://yuunanokai.or.jp/" }, "geometry": { "type": "Point", "coordinates": [ 127.711036299999918, 26.2322253 ] } },
{ "type": "Feature", "properties": { "内容": "グループホーム　たかまーみの家【認知症対応型共同生活介護】沖縄県那覇市字大道９４番地３　４Ｆ", "url": "https://www.kaigokensaku.mhlw.go.jp/47/index.php?action_kouhyou_detail_004_kani=true&JigyosyoCd=4770100560-00&ServiceCd=320&Type=search", "url2": null }, "geometry": { "type": "Point", "coordinates": [ 127.698126776998862, 26.219819407837456 ] } },
{ "type": "Feature", "properties": { "内容": "グループホームコスモス【認知症対応型共同生活介護】沖縄県那覇市識名2丁目13番57号", "url": "https://www.kaigokensaku.mhlw.go.jp/47/index.php?action_kouhyou_detail_004_kani=true&JigyosyoCd=4770100834-00&ServiceCd=320&Type=search", "url2": "http://yuunanokai.or.jp/shikina/link_office_shikina/cosmos_shikina/" }, "geometry": { "type": "Point", "coordinates": [ 127.709174500000017, 26.2057502 ] } },
{ "type": "Feature", "properties": { "内容": "グループホーム　若狭の家【認知症対応型共同生活介護】沖縄県那覇市若狭三丁目４番１０号３階", "url": "https://www.kaigokensaku.mhlw.go.jp/47/index.php?action_kouhyou_detail_004_kani=true&JigyosyoCd=4790100079-00&ServiceCd=320&Type=search", "url2": null }, "geometry": { "type": "Point", "coordinates": [ 127.677789500000017, 26.2218252 ] } },
{ "type": "Feature", "properties": { "内容": "グループホーム　大道が丘【認知症対応型共同生活介護】沖縄県那覇市字大道９４番地３　３階", "url": "https://www.kaigokensaku.mhlw.go.jp/47/index.php?action_kouhyou_detail_004_kani=true&JigyosyoCd=4790100087-00&ServiceCd=320&Type=search", "url2": null }, "geometry": { "type": "Point", "coordinates": [ 127.698127, 26.2198455 ] } },
{ "type": "Feature", "properties": { "内容": "グループホーム　うえの家【認知症対応型共同生活介護】沖縄県那覇市字上之屋408－4", "url": "https://www.kaigokensaku.mhlw.go.jp/47/index.php?action_kouhyou_detail_004_kani=true&JigyosyoCd=4790100285-00&ServiceCd=320&Type=search", "url2": "http://www.tjmc.or.jp" }, "geometry": { "type": "Point", "coordinates": [ 127.683702300000036, 26.22923 ] } },
{ "type": "Feature", "properties": { "内容": "認知症対応型共同生活介護ハピユシ【認知症対応型共同生活介護】沖縄県那覇市松尾２丁目１７番４５号開南ハピヒルズ２階", "url": "https://www.kaigokensaku.mhlw.go.jp/47/index.php?action_kouhyou_detail_004_kani=true&JigyosyoCd=4790100442-00&ServiceCd=320&Type=search", "url2": "www.kainan-hapi.com" }, "geometry": { "type": "Point", "coordinates": [ 174.763331500000049, -36.8484597 ] } },
{ "type": "Feature", "properties": { "内容": "グループホーム　つぼみ【認知症対応型共同生活介護】具志2丁目18番１２", "url": "https://www.kaigokensaku.mhlw.go.jp/47/index.php?action_kouhyou_detail_004_kani=true&JigyosyoCd=4790100467-00&ServiceCd=320&Type=search", "url2": "http:momoe-onda.com/index.html" }, "geometry": { "type": "Point", "coordinates": [ 127.658724, 26.1815065 ] } },
{ "type": "Feature", "properties": { "内容": "株式会社ウェルケア沖縄　グループホームめぐみ首里【認知症対応型共同生活介護】沖縄県那覇市首里山川町2丁目56-14グループホームめぐみ首里", "url": "https://www.kaigokensaku.mhlw.go.jp/47/index.php?action_kouhyou_detail_004_kani=true&JigyosyoCd=4790100525-00&ServiceCd=320&Type=search", "url2": "https://megumi-care.com" }, "geometry": { "type": "Point", "coordinates": [ 127.71114809999996, 26.2226957 ] } },
{ "type": "Feature", "properties": { "内容": "グループホームももほ【認知症対応型共同生活介護】沖縄県那覇市安里５１番地", "url": "https://www.kaigokensaku.mhlw.go.jp/47/index.php?action_kouhyou_detail_004_kani=true&JigyosyoCd=4790100574-00&ServiceCd=320&Type=search", "url2": "https://saisei-kai.or.jp/" }, "geometry": { "type": "Point", "coordinates": [ 127.694073399999979, 26.2203505 ] } },
{ "type": "Feature", "properties": { "内容": "グループホームめぐみ小禄南【認知症対応型共同生活介護】高良２丁目９番６号看護小規模多機能めぐみ/グループホームめぐみ小禄南", "url": "https://www.kaigokensaku.mhlw.go.jp/47/index.php?action_kouhyou_detail_004_kani=true&JigyosyoCd=4790100640-00&ServiceCd=320&Type=search", "url2": "https//megumi-care.com/" }, "geometry": { "type": "Point", "coordinates": [ 127.661190769882353, 26.184496238253441 ] } },
{ "type": "Feature", "properties": { "内容": "グループホームふれあい国場【認知症対応型共同生活介護】沖縄県那覇市国場862₋1", "url": "https://www.kaigokensaku.mhlw.go.jp/47/index.php?action_kouhyou_detail_004_kani=true&JigyosyoCd=4790100665-00&ServiceCd=320&Type=search", "url2": "https://fureai-kaigo.com/" }, "geometry": { "type": "Point", "coordinates": [ 127.699697, 26.1983419 ] } },
{ "type": "Feature", "properties": { "内容": "グループホームおてだま【認知症対応型共同生活介護】沖縄県那覇市長田１丁目18-10福祉複合共生施設なんくる", "url": "https://www.kaigokensaku.mhlw.go.jp/47/index.php?action_kouhyou_detail_004_kani=true&JigyosyoCd=4790100699-00&ServiceCd=320&Type=search", "url2": "https://nankurugroup.com" }, "geometry": { "type": "Point", "coordinates": [ 127.7012086, 26.2029604 ] } },
{ "type": "Feature", "properties": { "内容": "グループホームふれあい我如古【認知症対応型共同生活介護】沖縄県宜野湾市我如古402番地介護総合施設ケアビレッジふれあい我如古", "url": "https://www.kaigokensaku.mhlw.go.jp/47/index.php?action_kouhyou_detail_004_kani=true&JigyosyoCd=4790500146-00&ServiceCd=320&Type=search", "url2": "https://fureai-kaigo.com/accessmap/ghganeko/" }, "geometry": { "type": "Point", "coordinates": [ 127.7466603, 26.2602475 ] } },
{ "type": "Feature", "properties": { "内容": "認知症対応型共同生活介護事業所愛誠園【認知症対応型共同生活介護】沖縄県宜野湾市伊佐2－1－6グランドステージＭＧ道下1階", "url": "https://www.kaigokensaku.mhlw.go.jp/47/index.php?action_kouhyou_detail_004_kani=true&JigyosyoCd=4790500054-00&ServiceCd=320&Type=search", "url2": "https://aiseien-okinawa.com/" }, "geometry": { "type": "Point", "coordinates": [ 127.754706507131914, 26.285345341716031 ] } },
{ "type": "Feature", "properties": { "内容": "グループホーム真栄原2丁目【認知症対応型共同生活介護】沖縄県宜野湾市真栄原2－25－10", "url": "https://www.kaigokensaku.mhlw.go.jp/47/index.php?action_kouhyou_detail_004_kani=true&JigyosyoCd=4790500104-00&ServiceCd=320&Type=search", "url2": null }, "geometry": { "type": "Point", "coordinates": [ 127.738038299999957, 26.2611041 ] } },
{ "type": "Feature", "properties": { "内容": "グループホーム　まえはら【認知症対応型共同生活介護】沖縄県　宜野湾市　真栄原　3－6－28", "url": "https://www.kaigokensaku.mhlw.go.jp/47/index.php?action_kouhyou_detail_004_kani=true&JigyosyoCd=4790500096-00&ServiceCd=320&Type=search", "url2": null }, "geometry": { "type": "Point", "coordinates": [ 127.743549, 26.262604 ] } },
{ "type": "Feature", "properties": { "内容": "グループホームさんだん花【認知症対応型共同生活介護】沖縄県宜野湾市大山七丁目７番２２号", "url": "https://www.kaigokensaku.mhlw.go.jp/47/index.php?action_kouhyou_detail_004_kani=true&JigyosyoCd=4790500179-00&ServiceCd=320&Type=search", "url2": "https://www.tougou.jp" }, "geometry": { "type": "Point", "coordinates": [ 127.7454016, 26.2874973 ] } },
{ "type": "Feature", "properties": { "内容": "グループホーム若松ぎのわん【認知症対応型共同生活介護】宜野湾市新城1丁目20番6号", "url": "https://www.kaigokensaku.mhlw.go.jp/47/index.php?action_kouhyou_detail_004_kani=true&JigyosyoCd=4790500062-00&ServiceCd=320&Type=search", "url2": "www.agape-wakamatsu.or.jp" }, "geometry": { "type": "Point", "coordinates": [ 127.771642899999961, 26.2884078 ] } },
{ "type": "Feature", "properties": { "内容": "グループホーム　さくら【認知症対応型共同生活介護】嘉数4-4-10", "url": "https://www.kaigokensaku.mhlw.go.jp/47/index.php?action_kouhyou_detail_004_kani=true&JigyosyoCd=4770500132-00&ServiceCd=320&Type=search", "url2": "http://www.omotokai.or.jp" }, "geometry": { "type": "Point", "coordinates": [ 127.733183100000019, 26.2614151 ] } },
{ "type": "Feature", "properties": { "内容": "グループホームふれあい愛知【認知症対応型共同生活介護】沖縄県宜野湾市愛知３－１７－２０介護複合施設　ふれあい愛知の丘", "url": "https://www.kaigokensaku.mhlw.go.jp/47/index.php?action_kouhyou_detail_004_kani=true&JigyosyoCd=4770500710-00&ServiceCd=320&Type=search", "url2": "fureai-kaigo.com/" }, "geometry": { "type": "Point", "coordinates": [ 127.771544, 26.2642737 ] } },
{ "type": "Feature", "properties": { "内容": "グループホームふれあい【認知症対応型共同生活介護】沖縄県宜野湾市長田一丁目４番９号", "url": "https://www.kaigokensaku.mhlw.go.jp/47/index.php?action_kouhyou_detail_004_kani=true&JigyosyoCd=4790500021-00&ServiceCd=320&Type=search", "url2": "http://fureai-kaigo.com/" }, "geometry": { "type": "Point", "coordinates": [ 127.766025, 26.264329099999983 ] } },
{ "type": "Feature", "properties": { "内容": "グループホームイジュの花【認知症対応型共同生活介護】沖縄県石垣市大浜453番地12", "url": "https://www.kaigokensaku.mhlw.go.jp/47/index.php?action_kouhyou_detail_004_kani=true&JigyosyoCd=4770700146-00&ServiceCd=320&Type=search", "url2": "https://ishigaki-taiyounosato.com/" }, "geometry": { "type": "Point", "coordinates": [ 124.190059799999958, 24.3419528 ] } },
{ "type": "Feature", "properties": { "内容": "認知症対応型共同生活介護事業所　あかゆら【認知症対応型共同生活介護】沖縄県石垣市浜崎町2-2-10", "url": "https://www.kaigokensaku.mhlw.go.jp/47/index.php?action_kouhyou_detail_004_kani=true&JigyosyoCd=4790700019-00&ServiceCd=320&Type=search", "url2": null }, "geometry": { "type": "Point", "coordinates": [ 124.1507001, 24.3404163 ] } },
{ "type": "Feature", "properties": { "内容": "グループホーム　にぃふぁいゆー【認知症対応型共同生活介護】平得　837", "url": "https://www.kaigokensaku.mhlw.go.jp/47/index.php?action_kouhyou_detail_004_kani=true&JigyosyoCd=4790700134-00&ServiceCd=320&Type=search", "url2": null }, "geometry": { "type": "Point", "coordinates": [ 124.173745270270842, 24.346906820010169 ] } },
{ "type": "Feature", "properties": { "内容": "グループホーム　星のふる里【認知症対応型共同生活介護】沖縄県石垣市新川2105", "url": "https://www.kaigokensaku.mhlw.go.jp/47/index.php?action_kouhyou_detail_004_kani=true&JigyosyoCd=4770700179-00&ServiceCd=320&Type=search", "url2": "https://www.kariyushi-hp.com/" }, "geometry": { "type": "Point", "coordinates": [ 124.1407322, 24.3613182 ] } },
{ "type": "Feature", "properties": { "内容": "グループホームハピネス【認知症対応型共同生活介護】沖縄県石垣市字真栄里４３６番地１０", "url": "https://www.kaigokensaku.mhlw.go.jp/47/index.php?action_kouhyou_detail_004_kani=true&JigyosyoCd=4790700100-00&ServiceCd=320&Type=search", "url2": "http://happiness901.com" }, "geometry": { "type": "Point", "coordinates": [ 124.187659899999957, 24.3412891 ] } },
{ "type": "Feature", "properties": { "内容": "医療法人　博心会　グループホーム「うちな～家」【認知症対応型共同生活介護】沖縄県浦添市仲間3丁目1番13号", "url": "https://www.kaigokensaku.mhlw.go.jp/47/index.php?action_kouhyou_detail_004_kani=true&JigyosyoCd=4770800292-00&ServiceCd=320&Type=search", "url2": "http://tedakoen.or.jp/" }, "geometry": { "type": "Point", "coordinates": [ 127.726298400000019, 26.2452832 ] } },
{ "type": "Feature", "properties": { "内容": "グル－プホーム浦西【認知症対応型共同生活介護】沖縄県浦添市当山２－１０ー１０", "url": "https://www.kaigokensaku.mhlw.go.jp/47/index.php?action_kouhyou_detail_004_kani=true&JigyosyoCd=4790800082-00&ServiceCd=320&Type=search", "url2": null }, "geometry": { "type": "Point", "coordinates": [ 127.737852799999914, 26.2489776 ] } },
{ "type": "Feature", "properties": { "内容": "グループホームてぃだの家かみもり【認知症対応型共同生活介護】沖縄県浦添市内間4-27-16", "url": "https://www.kaigokensaku.mhlw.go.jp/47/index.php?action_kouhyou_detail_004_kani=true&JigyosyoCd=4770800375-00&ServiceCd=320&Type=search", "url2": null }, "geometry": { "type": "Point", "coordinates": [ 127.701868368043634, 26.241192589697562 ] } },
{ "type": "Feature", "properties": { "内容": "グループホーム前田の家【認知症対応型共同生活介護】沖縄県浦添市前田547番地　前田高齢者複合施設2階前田高齢者複合施設2階", "url": "https://www.kaigokensaku.mhlw.go.jp/47/index.php?action_kouhyou_detail_004_kani=true&JigyosyoCd=4790800025-00&ServiceCd=320&Type=search", "url2": "http://www.smilekea-okinawa.co.jp" }, "geometry": { "type": "Point", "coordinates": [ 127.733045299999958, 26.2407755 ] } },
{ "type": "Feature", "properties": { "内容": "グループホームてぃだの家うちま【認知症対応型共同生活介護】沖縄県浦添市内間４丁目２３番２１号　３階", "url": "https://www.kaigokensaku.mhlw.go.jp/47/index.php?action_kouhyou_detail_004_kani=true&JigyosyoCd=4790800124-00&ServiceCd=320&Type=search", "url2": null }, "geometry": { "type": "Point", "coordinates": [ 127.702300199999954, 26.2411851 ] } },
{ "type": "Feature", "properties": { "内容": "グループホームめぐみ牧港【認知症対応型共同生活介護】沖縄県浦添市牧港１丁目６－７", "url": "https://www.kaigokensaku.mhlw.go.jp/47/index.php?action_kouhyou_detail_004_kani=true&JigyosyoCd=4790800140-00&ServiceCd=320&Type=search", "url2": "https://megumi-life.jp/wellcareokinawa/" }, "geometry": { "type": "Point", "coordinates": [ 127.723985428836059, 26.264485643859647 ] } },
{ "type": "Feature", "properties": { "内容": "グループホームちゅらうみ【認知症対応型共同生活介護】沖縄県名護市大中３丁目２１番１号コミュニティハウスちゅらうみ", "url": "https://www.kaigokensaku.mhlw.go.jp/47/index.php?action_kouhyou_detail_004_kani=true&JigyosyoCd=4790900106-00&ServiceCd=320&Type=search", "url2": "http//www.ookinawa.jp" }, "geometry": { "type": "Point", "coordinates": [ 127.9856711, 26.596871300000011 ] } },
{ "type": "Feature", "properties": { "内容": "グループホームいがしま【認知症対応型共同生活介護】名護市久志１９２番地", "url": "https://www.kaigokensaku.mhlw.go.jp/47/index.php?action_kouhyou_detail_004_kani=true&JigyosyoCd=4790900056-00&ServiceCd=320&Type=search", "url2": null }, "geometry": { "type": "Point", "coordinates": [ 128.006230400000049, 26.514471 ] } },
{ "type": "Feature", "properties": { "内容": "かりゆしぬ村グループホームくつろぎ【認知症対応型共同生活介護】名護市字宇茂佐１７０５－８番地", "url": "https://www.kaigokensaku.mhlw.go.jp/47/index.php?action_kouhyou_detail_004_kani=true&JigyosyoCd=4770900258-00&ServiceCd=320&Type=search", "url2": "www.shoraikai.com/" }, "geometry": { "type": "Point", "coordinates": [ 127.969107899999926, 26.6069921 ] } },
{ "type": "Feature", "properties": { "内容": "グループホームひだまり【認知症対応型共同生活介護】沖縄県名護市大西３－１９－４２", "url": "https://www.kaigokensaku.mhlw.go.jp/47/index.php?action_kouhyou_detail_004_kani=true&JigyosyoCd=4790900015-00&ServiceCd=320&Type=search", "url2": null }, "geometry": { "type": "Point", "coordinates": [ 127.983779499999955, 26.598435 ] } },
{ "type": "Feature", "properties": { "内容": "グループホームこころの里【認知症対応型共同生活介護】沖縄県名護市伊差川１０５４", "url": "https://www.kaigokensaku.mhlw.go.jp/47/index.php?action_kouhyou_detail_004_kani=true&JigyosyoCd=4790900049-00&ServiceCd=320&Type=search", "url2": null }, "geometry": { "type": "Point", "coordinates": [ 128.0064023, 26.6106074 ] } },
{ "type": "Feature", "properties": { "内容": "グループホーム寿【認知症対応型共同生活介護】沖縄県糸満市字真栄里３２３番地", "url": "https://www.kaigokensaku.mhlw.go.jp/47/index.php?action_kouhyou_detail_004_kani=true&JigyosyoCd=4771000066-00&ServiceCd=320&Type=search", "url2": "http://www.okinawa-senjukai.com/" }, "geometry": { "type": "Point", "coordinates": [ 127.6709588, 26.1178181 ] } },
{ "type": "Feature", "properties": { "内容": "グループホームひめゆり【認知症対応型共同生活介護】沖縄県糸満市字伊原107-1番地", "url": "https://www.kaigokensaku.mhlw.go.jp/47/index.php?action_kouhyou_detail_004_kani=true&JigyosyoCd=4791000013-00&ServiceCd=320&Type=search", "url2": null }, "geometry": { "type": "Point", "coordinates": [ 127.684739, 26.094737 ] } },
{ "type": "Feature", "properties": { "内容": "グループホームかねぐすく【認知症対応型共同生活介護】沖縄県糸満市字兼城８７１番地１", "url": "https://www.kaigokensaku.mhlw.go.jp/47/index.php?action_kouhyou_detail_004_kani=true&JigyosyoCd=4791000021-00&ServiceCd=320&Type=search", "url2": "http://www.tokiwaen.or.jp" }, "geometry": { "type": "Point", "coordinates": [ 127.68127149999998, 26.1407303 ] } },
{ "type": "Feature", "properties": { "内容": "医療法人一灯の会　　グループホーム　月桃【認知症対応型共同生活介護】沖縄県沖縄市知花五丁目２４番１８号", "url": "https://www.kaigokensaku.mhlw.go.jp/47/index.php?action_kouhyou_detail_004_kani=true&JigyosyoCd=4770400309-00&ServiceCd=320&Type=search", "url2": null }, "geometry": { "type": "Point", "coordinates": [ 127.811184599999919, 26.3644019 ] } },
{ "type": "Feature", "properties": { "内容": "愛聖グループホームペガサス【認知症対応型共同生活介護】沖縄県沖縄市古謝２丁目１６番８号", "url": "https://www.kaigokensaku.mhlw.go.jp/47/index.php?action_kouhyou_detail_004_kani=true&JigyosyoCd=4790400156-00&ServiceCd=320&Type=search", "url2": "http://anshinkai.jp" }, "geometry": { "type": "Point", "coordinates": [ 127.832800200000065, 26.3332775 ] } },
{ "type": "Feature", "properties": { "内容": "グループホームごえくの里【認知症対応型共同生活介護】沖縄県沖縄市越来３丁目１１番２０号", "url": "https://www.kaigokensaku.mhlw.go.jp/47/index.php?action_kouhyou_detail_004_kani=true&JigyosyoCd=4790400032-00&ServiceCd=320&Type=search", "url2": null }, "geometry": { "type": "Point", "coordinates": [ 127.811276799999959, 26.3461007 ] } },
{ "type": "Feature", "properties": { "内容": "グループホーム沖縄一条園【認知症対応型共同生活介護】沖縄市与儀３丁目５番１０号グループホーム沖縄一条園", "url": "https://www.kaigokensaku.mhlw.go.jp/47/index.php?action_kouhyou_detail_004_kani=true&JigyosyoCd=4790400255-00&ServiceCd=320&Type=search", "url2": "https://www.reihoukai.or.jp/corporate.php" }, "geometry": { "type": "Point", "coordinates": [ 127.815595318910198, 26.309904251478159 ] } },
{ "type": "Feature", "properties": { "内容": "グループホーム美ら徳【認知症対応型共同生活介護】沖縄県沖縄市胡屋6丁目4番19号", "url": "https://www.kaigokensaku.mhlw.go.jp/47/index.php?action_kouhyou_detail_004_kani=true&JigyosyoCd=4790400263-00&ServiceCd=320&Type=search", "url2": null }, "geometry": { "type": "Point", "coordinates": [ 127.809589910975646, 26.326938372097619 ] } },
{ "type": "Feature", "properties": { "内容": "愛聖グループホームコザの杜【認知症対応型共同生活介護】沖縄県沖縄市照屋四丁目7番2号", "url": "https://www.kaigokensaku.mhlw.go.jp/47/index.php?action_kouhyou_detail_004_kani=true&JigyosyoCd=4790400354-00&ServiceCd=320&Type=search", "url2": "http://anshinkai.jp" }, "geometry": { "type": "Point", "coordinates": [ 127.817718625794953, 26.333759908192857 ] } },
{ "type": "Feature", "properties": { "内容": "グループホーム　むいぐすく【認知症対応型共同生活介護】諸見里３丁目４１番３０号", "url": "https://www.kaigokensaku.mhlw.go.jp/47/index.php?action_kouhyou_detail_004_kani=true&JigyosyoCd=4790400065-00&ServiceCd=320&Type=search", "url2": "https://hikari-iryouhukushi-group.jp" }, "geometry": { "type": "Point", "coordinates": [ 127.791198600000044, 26.3286239 ] } },
{ "type": "Feature", "properties": { "内容": "グループホーム　こもれび【認知症対応型共同生活介護】沖縄県豊見城市字高嶺111番地", "url": "https://www.kaigokensaku.mhlw.go.jp/47/index.php?action_kouhyou_detail_004_kani=true&JigyosyoCd=4751380017-00&ServiceCd=320&Type=search", "url2": "http://www.ozanso.org" }, "geometry": { "type": "Point", "coordinates": [ 127.689440500000046, 26.1699788 ] } },
{ "type": "Feature", "properties": { "内容": "グループホーム良長園【認知症対応型共同生活介護】豊見城市字金良８８番地", "url": "https://www.kaigokensaku.mhlw.go.jp/47/index.php?action_kouhyou_detail_004_kani=true&JigyosyoCd=4795400052-00&ServiceCd=320&Type=search", "url2": "http://yoshinagaen.jp" }, "geometry": { "type": "Point", "coordinates": [ 127.703518700000018, 26.179467 ] } },
{ "type": "Feature", "properties": { "内容": "グループホーム光風の家【認知症対応型共同生活介護】豊見城市字高嶺299番地1", "url": "https://www.kaigokensaku.mhlw.go.jp/47/index.php?action_kouhyou_detail_004_kani=true&JigyosyoCd=4772800076-00&ServiceCd=320&Type=search", "url2": "koufunoie@yutaka-okinawa.com" }, "geometry": { "type": "Point", "coordinates": [ 127.690890299999978, 26.167779 ] } },
{ "type": "Feature", "properties": { "内容": "グループホームちゃ～がんじゅう【認知症対応型共同生活介護】沖縄県豊見城字与根２１７番２", "url": "https://www.kaigokensaku.mhlw.go.jp/47/index.php?action_kouhyou_detail_004_kani=true&JigyosyoCd=4795400078-00&ServiceCd=320&Type=search", "url2": null }, "geometry": { "type": "Point", "coordinates": [ 127.658022099999926, 26.1665744 ] } },
{ "type": "Feature", "properties": { "内容": "グループホーム喜楽【認知症対応型共同生活介護】沖縄県うるま市安慶名362番地１１", "url": "https://www.kaigokensaku.mhlw.go.jp/47/index.php?action_kouhyou_detail_004_kani=true&JigyosyoCd=4790300018-00&ServiceCd=320&Type=search", "url2": null }, "geometry": { "type": "Point", "coordinates": [ 127.849772600000037, 26.3701295 ] } },
{ "type": "Feature", "properties": { "内容": "グループホーム東山【認知症対応型共同生活介護】沖縄県うるま市石川東山２－２４－１０番地", "url": "https://www.kaigokensaku.mhlw.go.jp/47/index.php?action_kouhyou_detail_004_kani=true&JigyosyoCd=4770200063-00&ServiceCd=320&Type=search", "url2": "http://shinaikai.com" }, "geometry": { "type": "Point", "coordinates": [ 127.839027200000046, 26.4364313 ] } },
{ "type": "Feature", "properties": { "内容": "認知症対応型共同生活介護事業所　グループホーム　あおば邸【認知症対応型共同生活介護】沖縄県うるま市上江洲708番地1", "url": "https://www.kaigokensaku.mhlw.go.jp/47/index.php?action_kouhyou_detail_004_kani=true&JigyosyoCd=4790300034-00&ServiceCd=320&Type=search", "url2": null }, "geometry": { "type": "Point", "coordinates": [ 127.857836099999986, 26.3599808 ] } },
{ "type": "Feature", "properties": { "内容": "認知症対応型共同生活介護ひまわり宮城【認知症対応型共同生活介護】与那城宮城１２２番地２", "url": "https://www.kaigokensaku.mhlw.go.jp/47/index.php?action_kouhyou_detail_004_kani=true&JigyosyoCd=4790300240-00&ServiceCd=320&Type=search", "url2": null }, "geometry": { "type": "Point", "coordinates": [ 127.9916978, 26.3649413 ] } },
{ "type": "Feature", "properties": { "内容": "グループホームease【認知症対応型共同生活介護】沖縄県うるま市字宇堅1322-1", "url": "https://www.kaigokensaku.mhlw.go.jp/47/index.php?action_kouhyou_detail_004_kani=true&JigyosyoCd=4790300216-00&ServiceCd=320&Type=search", "url2": "http://uruma-sato.com" }, "geometry": { "type": "Point", "coordinates": [ 127.873634284655765, 26.377615993114382 ] } },
{ "type": "Feature", "properties": { "内容": "グループホーム　いろは【認知症対応型共同生活介護】沖縄県うるま市字仲嶺２９８番地２", "url": "https://www.kaigokensaku.mhlw.go.jp/47/index.php?action_kouhyou_detail_004_kani=true&JigyosyoCd=4790300075-00&ServiceCd=320&Type=search", "url2": "http://www.irohanomori.com/" }, "geometry": { "type": "Point", "coordinates": [ 127.852322700000059, 26.3598251 ] } },
{ "type": "Feature", "properties": { "内容": "グループホームひふみ【認知症対応型共同生活介護】沖縄県うるま市石川伊波１０２３番地３", "url": "https://www.kaigokensaku.mhlw.go.jp/47/index.php?action_kouhyou_detail_004_kani=true&JigyosyoCd=4790300224-00&ServiceCd=320&Type=search", "url2": "http://www.irohanomori.com/" }, "geometry": { "type": "Point", "coordinates": [ 127.816018130580119, 26.415655203977529 ] } },
{ "type": "Feature", "properties": { "内容": "グループホームかえで【認知症対応型共同生活介護】沖縄県うるま市字兼箇段９２２番地", "url": "https://www.kaigokensaku.mhlw.go.jp/47/index.php?action_kouhyou_detail_004_kani=true&JigyosyoCd=4790300125-00&ServiceCd=320&Type=search", "url2": "http://www.gh-kaede.com/" }, "geometry": { "type": "Point", "coordinates": [ 127.8397043, 26.3627803 ] } },
{ "type": "Feature", "properties": { "内容": "グループホーム　やすらぎの家【認知症対応型共同生活介護】沖縄県うるま市勝連南風原４９１４番地", "url": "https://www.kaigokensaku.mhlw.go.jp/47/index.php?action_kouhyou_detail_004_kani=true&JigyosyoCd=4772100048-00&ServiceCd=320&Type=search", "url2": "http://www.yokatsu.okinawa" }, "geometry": { "type": "Point", "coordinates": [ 127.877515, 26.342514 ] } },
{ "type": "Feature", "properties": { "内容": "地域支援ホーム津堅いこいの家【認知症対応型共同生活介護】沖縄県うるま市勝連津堅１１４４番地", "url": "https://www.kaigokensaku.mhlw.go.jp/47/index.php?action_kouhyou_detail_004_kani=true&JigyosyoCd=4790300042-00&ServiceCd=320&Type=search", "url2": "http：//www.yokatu.okinawa" }, "geometry": { "type": "Point", "coordinates": [ 127.938977499999964, 26.2485302 ] } },
{ "type": "Feature", "properties": { "内容": "グループホームかえで　テラス【認知症対応型共同生活介護】沖縄県うるま市塩屋２５８－３", "url": "https://www.kaigokensaku.mhlw.go.jp/47/index.php?action_kouhyou_detail_004_kani=true&JigyosyoCd=4790300182-00&ServiceCd=320&Type=search", "url2": "http://www.gh-kaede.com/" }, "geometry": { "type": "Point", "coordinates": [ 127.8570549, 26.348317007122027 ] } },
{ "type": "Feature", "properties": { "内容": "グループホームみなみ【認知症対応型共同生活介護】沖縄県宮古島市平良字下里３１０７－３６４", "url": "https://www.kaigokensaku.mhlw.go.jp/47/index.php?action_kouhyou_detail_004_kani=true&JigyosyoCd=4795500042-00&ServiceCd=320&Type=search", "url2": null }, "geometry": { "type": "Point", "coordinates": [ 125.3096911, 24.7828146 ] } },
{ "type": "Feature", "properties": { "内容": "グループホームまきや【認知症対応型共同生活介護】沖縄県宮古島市平良字西原2251番地147", "url": "https://www.kaigokensaku.mhlw.go.jp/47/index.php?action_kouhyou_detail_004_kani=true&JigyosyoCd=4795500174-00&ServiceCd=320&Type=search", "url2": null }, "geometry": { "type": "Point", "coordinates": [ 125.3157027, 24.8164078 ] } },
{ "type": "Feature", "properties": { "内容": "グループホームいろは【認知症対応型共同生活介護】沖縄県宮古島市下地字洲鎌518-1", "url": "https://www.kaigokensaku.mhlw.go.jp/47/index.php?action_kouhyou_detail_004_kani=true&JigyosyoCd=4795500190-00&ServiceCd=320&Type=search", "url2": null }, "geometry": { "type": "Point", "coordinates": [ 125.2770873, 24.7458777 ] } },
{ "type": "Feature", "properties": { "内容": "グループホーム来間【認知症対応型共同生活介護】沖縄県宮古島市下地字来間１８９－３", "url": "https://www.kaigokensaku.mhlw.go.jp/47/index.php?action_kouhyou_detail_004_kani=true&JigyosyoCd=4795500091-00&ServiceCd=320&Type=search", "url2": null }, "geometry": { "type": "Point", "coordinates": [ 125.251469600000064, 24.7228869 ] } },
{ "type": "Feature", "properties": { "内容": "グループホームいけむら【認知症対応型共同生活介護】沖縄県宮古島市平良字西里３４０番地", "url": "https://www.kaigokensaku.mhlw.go.jp/47/index.php?action_kouhyou_detail_004_kani=true&JigyosyoCd=4795500141-00&ServiceCd=320&Type=search", "url2": null }, "geometry": { "type": "Point", "coordinates": [ 125.28314019999992, 24.804168 ] } },
{ "type": "Feature", "properties": { "内容": "グループホーム　あまね【認知症対応型共同生活介護】沖縄県南城市玉城字屋嘉部４５５番１", "url": "https://www.kaigokensaku.mhlw.go.jp/47/index.php?action_kouhyou_detail_004_kani=true&JigyosyoCd=4795600024-00&ServiceCd=320&Type=search", "url2": "qqfw5fy9k@chive.ne.jp" }, "geometry": { "type": "Point", "coordinates": [ 127.765358399999954, 26.1468072 ] } },
{ "type": "Feature", "properties": { "内容": "グループホーム　美ら里さしき【認知症対応型共同生活介護】沖縄県南城市佐敷字屋比久４４番地", "url": "https://www.kaigokensaku.mhlw.go.jp/47/index.php?action_kouhyou_detail_004_kani=true&JigyosyoCd=4773300050-00&ServiceCd=320&Type=search", "url2": "http://kijukai.com/" }, "geometry": { "type": "Point", "coordinates": [ 127.803740100000041, 26.175916899999983 ] } },
{ "type": "Feature", "properties": { "内容": "東雲の丘　指定認知症対応型共同生活介護事業所【認知症対応型共同生活介護】沖縄県南城市大里字大城１３９２", "url": "https://www.kaigokensaku.mhlw.go.jp/47/index.php?action_kouhyou_detail_004_kani=true&JigyosyoCd=4773500030-00&ServiceCd=320&Type=search", "url2": "http://www.kensyoukai.or.jp/" }, "geometry": { "type": "Point", "coordinates": [ 127.765113299999939, 26.1674137 ] } },
{ "type": "Feature", "properties": { "内容": "グループホーム国頭【認知症対応型共同生活介護】沖縄県国頭郡国頭村字辺野喜26番地1", "url": "https://www.kaigokensaku.mhlw.go.jp/47/index.php?action_kouhyou_detail_004_kani=true&JigyosyoCd=4791100029-00&ServiceCd=320&Type=search", "url2": null }, "geometry": { "type": "Point", "coordinates": [ 128.235476216932966, 26.797107724984439 ] } },
{ "type": "Feature", "properties": { "内容": "グループホーム鏡地【認知症対応型共同生活介護】沖縄県国頭郡国頭村字鏡地１７２番地２", "url": "https://www.kaigokensaku.mhlw.go.jp/47/index.php?action_kouhyou_detail_004_kani=true&JigyosyoCd=4791100045-00&ServiceCd=320&Type=search", "url2": null }, "geometry": { "type": "Point", "coordinates": [ 128.163014254330818, 26.730765519750637 ] } },
{ "type": "Feature", "properties": { "内容": "グループホームきじょか【認知症対応型共同生活介護】沖縄県国頭郡大宜味村字喜如嘉２０８７番地", "url": "https://www.kaigokensaku.mhlw.go.jp/47/index.php?action_kouhyou_detail_004_kani=true&JigyosyoCd=4791200027-00&ServiceCd=320&Type=search", "url2": null }, "geometry": { "type": "Point", "coordinates": [ 128.15174081839595, 26.706384896825501 ] } },
{ "type": "Feature", "properties": { "内容": "グループホームつつじ苑【認知症対応型共同生活介護】沖縄県国頭郡東村字平良831番地2", "url": "https://www.kaigokensaku.mhlw.go.jp/47/index.php?action_kouhyou_detail_004_kani=true&JigyosyoCd=4791300025-00&ServiceCd=320&Type=search", "url2": "tsutsujien@isshinfukushikai.or.jp" }, "geometry": { "type": "Point", "coordinates": [ 128.156716290243594, 26.634162257681968 ] } },
{ "type": "Feature", "properties": { "内容": "グループホーム　ほしくぼ【認知症対応型共同生活介護】沖縄県国頭郡今帰仁村字湧川1578番地3", "url": "https://www.kaigokensaku.mhlw.go.jp/47/index.php?action_kouhyou_detail_004_kani=true&JigyosyoCd=4771400035-00&ServiceCd=320&Type=search", "url2": null }, "geometry": { "type": "Point", "coordinates": [ 127.980525100000023, 26.6603573 ] } },
{ "type": "Feature", "properties": { "内容": "グループホーム　わくがわ【認知症対応型共同生活介護】今帰仁村湧川1578-2", "url": "https://www.kaigokensaku.mhlw.go.jp/47/index.php?action_kouhyou_detail_004_kani=true&JigyosyoCd=4791400023-00&ServiceCd=320&Type=search", "url2": "wakugawa@hosikubo.jp" }, "geometry": { "type": "Point", "coordinates": [ 127.980458044774636, 26.660194301023601 ] } },
{ "type": "Feature", "properties": { "内容": "グループホームらんらん【認知症対応型共同生活介護】沖縄県国頭郡今帰仁村字崎山１２８－４", "url": "https://www.kaigokensaku.mhlw.go.jp/47/index.php?action_kouhyou_detail_004_kani=true&JigyosyoCd=4791400031-00&ServiceCd=320&Type=search", "url2": null }, "geometry": { "type": "Point", "coordinates": [ 127.959075100000064, 26.699641 ] } },
{ "type": "Feature", "properties": { "内容": "グループホーム　かるすと【認知症対応型共同生活介護】沖縄県国頭郡本部町字豊原262番地4", "url": "https://www.kaigokensaku.mhlw.go.jp/47/index.php?action_kouhyou_detail_004_kani=true&JigyosyoCd=4771500040-00&ServiceCd=320&Type=search", "url2": null }, "geometry": { "type": "Point", "coordinates": [ 127.888981300000083, 26.6816539 ] } },
{ "type": "Feature", "properties": { "内容": "グル－プホーム　もとぶ【認知症対応型共同生活介護】沖縄県国頭郡本部町字豊原262-1", "url": "https://www.kaigokensaku.mhlw.go.jp/47/index.php?action_kouhyou_detail_004_kani=true&JigyosyoCd=4791500020-00&ServiceCd=320&Type=search", "url2": null }, "geometry": { "type": "Point", "coordinates": [ 127.888886853258555, 26.681394840501198 ] } },
{ "type": "Feature", "properties": { "内容": "グループホーム　虹の家【認知症対応型共同生活介護】沖縄県国頭郡宜野座村字漢那1953番地1", "url": "https://www.kaigokensaku.mhlw.go.jp/47/index.php?action_kouhyou_detail_004_kani=true&JigyosyoCd=4791700018-00&ServiceCd=320&Type=search", "url2": null }, "geometry": { "type": "Point", "coordinates": [ 127.953942045369004, 26.483979995587674 ] } },
{ "type": "Feature", "properties": { "内容": "グループホームくばの里【認知症対応型共同生活介護】沖縄県金武町字金武4196－28", "url": "https://www.kaigokensaku.mhlw.go.jp/47/index.php?action_kouhyou_detail_004_kani=true&JigyosyoCd=4771800077-00&ServiceCd=320&Type=search", "url2": null }, "geometry": { "type": "Point", "coordinates": [ 127.9156679, 26.4521622 ] } },
{ "type": "Feature", "properties": { "内容": "認知症対応型グループホームくばの里おはな【認知症対応型共同生活介護】沖縄県国頭郡金武町字金武4196-31", "url": "https://www.kaigokensaku.mhlw.go.jp/47/index.php?action_kouhyou_detail_004_kani=true&JigyosyoCd=4791800065-00&ServiceCd=320&Type=search", "url2": "https://kubanosato.co.jp/" }, "geometry": { "type": "Point", "coordinates": [ 127.9150191, 26.4514121 ] } },
{ "type": "Feature", "properties": { "内容": "認知症対応型グループホーム　くばの里ハウス【認知症対応型共同生活介護】沖縄県国頭郡金武町字金武4196-147", "url": "https://www.kaigokensaku.mhlw.go.jp/47/index.php?action_kouhyou_detail_004_kani=true&JigyosyoCd=4791800032-00&ServiceCd=320&Type=search", "url2": "https://kubanosato.co.jp" }, "geometry": { "type": "Point", "coordinates": [ 127.916901100000018, 26.4523845 ] } },
{ "type": "Feature", "properties": { "内容": "グループホームいえしま【認知症対応型共同生活介護】国頭郡伊江村字東江前２３３７－２", "url": "https://www.kaigokensaku.mhlw.go.jp/47/index.php?action_kouhyou_detail_004_kani=true&JigyosyoCd=4791900014-00&ServiceCd=320&Type=search", "url2": "iesima202@gmail,com" }, "geometry": { "type": "Point", "coordinates": [ 127.8241296, 26.7113496 ] } },
{ "type": "Feature", "properties": { "内容": "ライフケアホーム読谷【認知症対応型共同生活介護】沖縄県中頭郡読谷村字長浜１５３０番地の１", "url": "https://www.kaigokensaku.mhlw.go.jp/47/index.php?action_kouhyou_detail_004_kani=true&JigyosyoCd=4792200034-00&ServiceCd=320&Type=search", "url2": "http://www.lcy-mc.com" }, "geometry": { "type": "Point", "coordinates": [ 127.7315162, 26.4171336 ] } },
{ "type": "Feature", "properties": { "内容": "グループホームよみたんふくぎの里【認知症対応型共同生活介護】沖縄県中頭郡読谷村字喜名２２７２－４", "url": "https://www.kaigokensaku.mhlw.go.jp/47/index.php?action_kouhyou_detail_004_kani=true&JigyosyoCd=4792200018-00&ServiceCd=320&Type=search", "url2": "http://www.yomisato.com" }, "geometry": { "type": "Point", "coordinates": [ 127.750188, 26.395364 ] } },
{ "type": "Feature", "properties": { "内容": "グループホームきらめきトグチ【認知症対応型共同生活介護】沖縄県中頭郡読谷村字渡具知37-2", "url": "https://www.kaigokensaku.mhlw.go.jp/47/index.php?action_kouhyou_detail_004_kani=true&JigyosyoCd=4792200059-00&ServiceCd=320&Type=search", "url2": "http://kirameki-familiy.org" }, "geometry": { "type": "Point", "coordinates": [ 127.743389200000024, 26.3649642 ] } },
{ "type": "Feature", "properties": { "内容": "さわやかホーム比謝川の里【認知症対応型共同生活介護】沖縄県中頭郡嘉手納町字水釜336－2", "url": "https://www.kaigokensaku.mhlw.go.jp/47/index.php?action_kouhyou_detail_004_kani=true&JigyosyoCd=4772300044-00&ServiceCd=320&Type=search", "url2": "http://比謝川の里.com" }, "geometry": { "type": "Point", "coordinates": [ 127.744644900000026, 26.3565456 ] } },
{ "type": "Feature", "properties": { "内容": "グループホーム謝苅【認知症対応型共同生活介護】沖縄県中頭郡北谷町吉原73-6グループホーム謝苅", "url": "https://www.kaigokensaku.mhlw.go.jp/47/index.php?action_kouhyou_detail_004_kani=true&JigyosyoCd=4792400063-00&ServiceCd=320&Type=search", "url2": "https://kamiseido.com/" }, "geometry": { "type": "Point", "coordinates": [ 127.771733717196639, 26.315537634840272 ] } },
{ "type": "Feature", "properties": { "内容": "グループホーム　ちゃたん【認知症対応型共同生活介護】北谷町宮城１番７９３", "url": "https://www.kaigokensaku.mhlw.go.jp/47/index.php?action_kouhyou_detail_004_kani=true&JigyosyoCd=4792400022-00&ServiceCd=320&Type=search", "url2": "http://kouyoukai-oki.jp/" }, "geometry": { "type": "Point", "coordinates": [ 127.752031499999916, 26.325874 ] } },
{ "type": "Feature", "properties": { "内容": "グループホーム　上勢頭（ｶﾐｾｲﾄﾞ）【認知症対応型共同生活介護】沖縄県中頭郡北谷町字上勢頭633-1", "url": "https://www.kaigokensaku.mhlw.go.jp/47/index.php?action_kouhyou_detail_004_kani=true&JigyosyoCd=4792400048-00&ServiceCd=320&Type=search", "url2": "http://kamiseido.com" }, "geometry": { "type": "Point", "coordinates": [ 127.772399800000017, 26.3276462 ] } },
{ "type": "Feature", "properties": { "内容": "認知症対応型グループホーム結の郷【認知症対応型共同生活介護】沖縄県中頭郡北谷町吉原1180-1番地", "url": "https://www.kaigokensaku.mhlw.go.jp/47/index.php?action_kouhyou_detail_004_kani=true&JigyosyoCd=4792400030-00&ServiceCd=320&Type=search", "url2": "kaigo@bbcom-web.com" }, "geometry": { "type": "Point", "coordinates": [ 127.765856200000044, 26.3112199 ] } },
{ "type": "Feature", "properties": { "内容": "グループホームわかまつ【認知症対応型共同生活介護】沖縄県北中城村字喜舎場360番地1複合型高齢者施設ふれあいの里若松", "url": "https://www.kaigokensaku.mhlw.go.jp/47/index.php?action_kouhyou_detail_004_kani=true&JigyosyoCd=4772500056-00&ServiceCd=320&Type=search", "url2": "http://www.agape-wakamatsu.or.jp" }, "geometry": { "type": "Point", "coordinates": [ 127.793614332467115, 26.300289390775024 ] } },
{ "type": "Feature", "properties": { "内容": "認知症対応型共同生活介護事業所中城愛誠園【認知症対応型共同生活介護】沖縄県中頭郡中城村当間289-50", "url": "https://www.kaigokensaku.mhlw.go.jp/47/index.php?action_kouhyou_detail_004_kani=true&JigyosyoCd=4792600035-00&ServiceCd=320&Type=search", "url2": "w-group@aiseien-okinawa.com" }, "geometry": { "type": "Point", "coordinates": [ 127.7853622, 26.2661294 ] } },
{ "type": "Feature", "properties": { "内容": "認知症対応型共同生活介護グループホームクローバー【認知症対応型共同生活介護】沖縄県中頭郡西原町字翁長５９１番地　前田産業ビル２階前田産業ビル２階", "url": "https://www.kaigokensaku.mhlw.go.jp/47/index.php?action_kouhyou_detail_004_kani=true&JigyosyoCd=4792700025-00&ServiceCd=320&Type=search", "url2": "http://keiaien.or.jp/" }, "geometry": { "type": "Point", "coordinates": [ 127.7493872, 26.2391647 ] } },
{ "type": "Feature", "properties": { "内容": "グループホームとことん【認知症対応型共同生活介護】字板良敷161番5", "url": "https://www.kaigokensaku.mhlw.go.jp/47/index.php?action_kouhyou_detail_004_kani=true&JigyosyoCd=4793400039-00&ServiceCd=320&Type=search", "url2": "tokoton2963.jimdofree.com" }, "geometry": { "type": "Point", "coordinates": [ 127.764019, 26.1968039 ] } },
{ "type": "Feature", "properties": { "内容": "与那原在宅ケアセンター　グループホームかなち【認知症対応型共同生活介護】沖縄県与那原町字与那原1792番地の１", "url": "https://www.kaigokensaku.mhlw.go.jp/47/index.php?action_kouhyou_detail_004_kani=true&JigyosyoCd=4793400013-00&ServiceCd=320&Type=search", "url2": null }, "geometry": { "type": "Point", "coordinates": [ 127.753328799999963, 26.206257 ] } },
{ "type": "Feature", "properties": { "内容": "グループホーム　オアシス【認知症対応型共同生活介護】沖縄県島尻郡南風原町新川４５２－１", "url": "https://www.kaigokensaku.mhlw.go.jp/47/index.php?action_kouhyou_detail_004_kani=true&JigyosyoCd=4773600061-00&ServiceCd=320&Type=search", "url2": "http://hakuai-hsp.jp/" }, "geometry": { "type": "Point", "coordinates": [ 127.7273086, 26.2110919 ] } },
{ "type": "Feature", "properties": { "内容": "グループホームあいけい【認知症対応型共同生活介護】沖縄県島尻郡南風原町字喜屋武202-2", "url": "https://www.kaigokensaku.mhlw.go.jp/47/index.php?action_kouhyou_detail_004_kani=true&JigyosyoCd=4793600042-00&ServiceCd=320&Type=search", "url2": null }, "geometry": { "type": "Point", "coordinates": [ 127.7330699, 26.1849977 ] } },
{ "type": "Feature", "properties": { "内容": "まがい友遊宛【認知症対応型共同生活介護】沖縄県久米島町真我里366番地", "url": "https://www.kaigokensaku.mhlw.go.jp/47/index.php?action_kouhyou_detail_004_kani=true&JigyosyoCd=4773800034-00&ServiceCd=320&Type=search", "url2": null }, "geometry": { "type": "Point", "coordinates": [ 126.804633299999978, 26.3259896 ] } },
{ "type": "Feature", "properties": { "内容": "グループホーム　くしばる【認知症対応型共同生活介護】沖縄県島尻郡八重瀬町字後原２６８番地３", "url": "https://www.kaigokensaku.mhlw.go.jp/47/index.php?action_kouhyou_detail_004_kani=true&JigyosyoCd=4795700030-00&ServiceCd=320&Type=search", "url2": "http://www.koshunkai.com/" }, "geometry": { "type": "Point", "coordinates": [ 127.730817, 26.1490201 ] } },
{ "type": "Feature", "properties": { "内容": "グループホームときわ苑【認知症対応型共同生活介護】沖縄県島尻郡八重瀬町字当銘３７０番地１", "url": "https://www.kaigokensaku.mhlw.go.jp/47/index.php?action_kouhyou_detail_004_kani=true&JigyosyoCd=4795700014-00&ServiceCd=320&Type=search", "url2": "http://www.tokiwaen.or.jp" }, "geometry": { "type": "Point", "coordinates": [ 127.699306100000058, 26.1523107 ] } }
]
}
