{
"type": "FeatureCollection",
"name": "geo_47_短期大学",
"crs": { "type": "name", "properties": { "name": "urn:ogc:def:crs:EPSG::6668" } },
"features": [
{ "type": "Feature", "properties": { "P29_001": "47329", "P29_002": "F247310111811", "P29_003": "16006", "P29_004": "沖縄キリスト教短期大学", "P29_005": "沖縄県中頭郡西原町字翁長777", "P29_006": "4", "P29_007": "0", "P29_008": "00", "P29_009": null }, "geometry": { "type": "Point", "coordinates": [ 127.755388825179679, 26.238437002104657 ] } },
{ "type": "Feature", "properties": { "P29_001": "47348", "P29_002": "F247310111820", "P29_003": "16006", "P29_004": "沖縄女子短期大学", "P29_005": "沖縄県島尻郡与那原町東浜1", "P29_006": "4", "P29_007": "0", "P29_008": "00", "P29_009": null }, "geometry": { "type": "Point", "coordinates": [ 127.763020721310099, 26.209960926823069 ] } }
]
}
