{
"type": "FeatureCollection",
"name": "geo_47_幼保連携型認定こども園",
"crs": { "type": "name", "properties": { "name": "urn:ogc:def:crs:EPSG::6668" } },
"features": [
{ "type": "Feature", "properties": { "P29_001": "47201", "P29_002": "A247220100013", "P29_003": "16013", "P29_004": "那覇市立大道こども園", "P29_005": "沖縄県那覇市字大道146-1", "P29_006": "3", "P29_007": "0", "P29_008": "00", "P29_009": null }, "geometry": { "type": "Point", "coordinates": [ 127.698718003117264, 26.215501997281006 ] } },
{ "type": "Feature", "properties": { "P29_001": "47201", "P29_002": "A247220100031", "P29_003": "16013", "P29_004": "那覇市立開南こども園", "P29_005": "沖縄県那覇市泉崎1-1-5", "P29_006": "3", "P29_007": "0", "P29_008": "00", "P29_009": null }, "geometry": { "type": "Point", "coordinates": [ 127.679618004311266, 26.211966995357777 ] } },
{ "type": "Feature", "properties": { "P29_001": "47201", "P29_002": "A247220100040", "P29_003": "16013", "P29_004": "那覇市立小禄南こども園", "P29_005": "沖縄県那覇市小禄4-14-1", "P29_006": "3", "P29_007": "0", "P29_008": "00", "P29_009": null }, "geometry": { "type": "Point", "coordinates": [ 127.673150268396185, 26.190194766129576 ] } },
{ "type": "Feature", "properties": { "P29_001": "47201", "P29_002": "A247220100059", "P29_003": "16013", "P29_004": "那覇市立城南こども園", "P29_005": "沖縄県那覇市首里崎山町4-35-2", "P29_006": "3", "P29_007": "0", "P29_008": "00", "P29_009": null }, "geometry": { "type": "Point", "coordinates": [ 127.723222348740592, 26.213287091202272 ] } },
{ "type": "Feature", "properties": { "P29_001": "47201", "P29_002": "A247220100068", "P29_003": "16013", "P29_004": "那覇市立城北こども園", "P29_005": "沖縄県那覇市首里石嶺町1-162", "P29_006": "3", "P29_007": "0", "P29_008": "00", "P29_009": null }, "geometry": { "type": "Point", "coordinates": [ 127.722174004977106, 26.22786400088432 ] } },
{ "type": "Feature", "properties": { "P29_001": "47201", "P29_002": "A247220100077", "P29_003": "16013", "P29_004": "那覇市立壷屋こども園", "P29_005": "沖縄県那覇市牧志3-14-12", "P29_006": "3", "P29_007": "0", "P29_008": "00", "P29_009": null }, "geometry": { "type": "Point", "coordinates": [ 127.691955001591239, 26.216271001613322 ] } },
{ "type": "Feature", "properties": { "P29_001": "47201", "P29_002": "A247220100086", "P29_003": "16013", "P29_004": "那覇市立天妃こども園", "P29_005": "沖縄県那覇市久米1-3-2", "P29_006": "3", "P29_007": "0", "P29_008": "00", "P29_009": null }, "geometry": { "type": "Point", "coordinates": [ 127.674222931281363, 26.215167356066722 ] } },
{ "type": "Feature", "properties": { "P29_001": "47201", "P29_002": "A247220100095", "P29_003": "16013", "P29_004": "那覇市立与儀こども園", "P29_005": "沖縄県那覇市与儀1-1-1", "P29_006": "3", "P29_007": "0", "P29_008": "00", "P29_009": null }, "geometry": { "type": "Point", "coordinates": [ 127.691120979228131, 26.206460229541825 ] } },
{ "type": "Feature", "properties": { "P29_001": "47201", "P29_002": "A247220100102", "P29_003": "16013", "P29_004": "那覇市立天久みらいこども園", "P29_005": "沖縄県那覇市天久1-4-1", "P29_006": "3", "P29_007": "0", "P29_008": "00", "P29_009": null }, "geometry": { "type": "Point", "coordinates": [ 127.689710437815123, 26.231825858706625 ] } },
{ "type": "Feature", "properties": { "P29_001": "47201", "P29_002": "A247220100111", "P29_003": "16013", "P29_004": "那覇市立上間こども園", "P29_005": "沖縄県那覇市長田2-11-60", "P29_006": "3", "P29_007": "0", "P29_008": "00", "P29_009": null }, "geometry": { "type": "Point", "coordinates": [ 127.702593998894116, 26.202628002921681 ] } },
{ "type": "Feature", "properties": { "P29_001": "47201", "P29_002": "A247220100120", "P29_003": "16013", "P29_004": "那覇市立大名こども園", "P29_005": "沖縄県那覇市首里大名町1-49", "P29_006": "3", "P29_007": "0", "P29_008": "00", "P29_009": null }, "geometry": { "type": "Point", "coordinates": [ 127.712305005062973, 26.231740854775062 ] } },
{ "type": "Feature", "properties": { "P29_001": "47201", "P29_002": "A247220100139", "P29_003": "16013", "P29_004": "那覇市立城西こども園", "P29_005": "沖縄県那覇市首里真和志町1-5", "P29_006": "3", "P29_007": "0", "P29_008": "00", "P29_009": null }, "geometry": { "type": "Point", "coordinates": [ 127.716358998133529, 26.218635000082219 ] } },
{ "type": "Feature", "properties": { "P29_001": "47201", "P29_002": "A247220100148", "P29_003": "16013", "P29_004": "那覇市立泊こども園", "P29_005": "沖縄県那覇市泊2-23-9", "P29_006": "3", "P29_007": "0", "P29_008": "00", "P29_009": null }, "geometry": { "type": "Point", "coordinates": [ 127.688871004894068, 26.224580000142687 ] } },
{ "type": "Feature", "properties": { "P29_001": "47201", "P29_002": "A247220100157", "P29_003": "16013", "P29_004": "那覇市立那覇こども園", "P29_005": "沖縄県那覇市前島1-7-1", "P29_006": "3", "P29_007": "0", "P29_008": "00", "P29_009": null }, "geometry": { "type": "Point", "coordinates": [ 127.686738004087942, 26.220424995428978 ] } },
{ "type": "Feature", "properties": { "P29_001": "47201", "P29_002": "A247220100166", "P29_003": "16013", "P29_004": "那覇市立真嘉比こども園", "P29_005": "沖縄県那覇市真嘉比1-18-1", "P29_006": "3", "P29_007": "0", "P29_008": "00", "P29_009": null }, "geometry": { "type": "Point", "coordinates": [ 127.701457197347665, 26.222864077411277 ] } },
{ "type": "Feature", "properties": { "P29_001": "47201", "P29_002": "A247220100175", "P29_003": "16013", "P29_004": "那覇市立真和志こども園", "P29_005": "沖縄県那覇市寄宮3-1-1", "P29_006": "3", "P29_007": "0", "P29_008": "00", "P29_009": null }, "geometry": { "type": "Point", "coordinates": [ 127.699683154067984, 26.207266732181555 ] } },
{ "type": "Feature", "properties": { "P29_001": "47201", "P29_002": "A247220100184", "P29_003": "16013", "P29_004": "那覇市立宇栄原みらいこども園", "P29_005": "沖縄県那覇市宇栄原4-17-10", "P29_006": "3", "P29_007": "0", "P29_008": "00", "P29_009": null }, "geometry": { "type": "Point", "coordinates": [ 127.672000872163778, 26.185304412528705 ] } },
{ "type": "Feature", "properties": { "P29_001": "47201", "P29_002": "A247220100193", "P29_003": "16013", "P29_004": "那覇市立久場川みらいこども園", "P29_005": "沖縄県那覇市首里久場川町2-18-10", "P29_006": "3", "P29_007": "0", "P29_008": "00", "P29_009": null }, "geometry": { "type": "Point", "coordinates": [ 127.72561399906175, 26.221858998268292 ] } },
{ "type": "Feature", "properties": { "P29_001": "47207", "P29_002": "A247220700017", "P29_003": "16013", "P29_004": "石垣市立おおはまこども園", "P29_005": "沖縄県石垣市大浜182", "P29_006": "3", "P29_007": "0", "P29_008": "00", "P29_009": null }, "geometry": { "type": "Point", "coordinates": [ 124.19907300080925, 24.345343000161563 ] } },
{ "type": "Feature", "properties": { "P29_001": "47207", "P29_002": "A247220700026", "P29_003": "16013", "P29_004": "石垣市立へいしんこども園", "P29_005": "沖縄県石垣市平得174-3", "P29_006": "3", "P29_007": "0", "P29_008": "00", "P29_009": null }, "geometry": { "type": "Point", "coordinates": [ 124.171604023350213, 24.33837422091646 ] } },
{ "type": "Feature", "properties": { "P29_001": "47207", "P29_002": "A247220700035", "P29_003": "16013", "P29_004": "石垣市立まきらこども園", "P29_005": "沖縄県石垣市新川2357-1", "P29_006": "3", "P29_007": "0", "P29_008": "00", "P29_009": null }, "geometry": { "type": "Point", "coordinates": [ 124.138631667441956, 24.353743146523822 ] } },
{ "type": "Feature", "properties": { "P29_001": "47207", "P29_002": "A247220700044", "P29_003": "16013", "P29_004": "石垣市立あらかわこども園", "P29_005": "沖縄県石垣市新栄町74", "P29_006": "3", "P29_007": "0", "P29_008": "00", "P29_009": null }, "geometry": { "type": "Point", "coordinates": [ 124.147731274951482, 24.346964557050462 ] } },
{ "type": "Feature", "properties": { "P29_001": "47207", "P29_002": "A247220700053", "P29_003": "16013", "P29_004": "石垣市立かびらこども園", "P29_005": "沖縄県石垣市字川平831-1", "P29_006": "3", "P29_007": "0", "P29_008": "00", "P29_009": null }, "geometry": { "type": "Point", "coordinates": [ 124.142055352911939, 24.463225336165895 ] } },
{ "type": "Feature", "properties": { "P29_001": "47208", "P29_002": "A247220800016", "P29_003": "16013", "P29_004": "浦添市立浦添こども園", "P29_005": "沖縄県浦添市仲間2-47-2", "P29_006": "3", "P29_007": "0", "P29_008": "00", "P29_009": null }, "geometry": { "type": "Point", "coordinates": [ 127.730133817776917, 26.246185177759838 ] } },
{ "type": "Feature", "properties": { "P29_001": "47208", "P29_002": "A247220800025", "P29_003": "16013", "P29_004": "浦添市立内間こども園", "P29_005": "沖縄県浦添市内間4-3-1", "P29_006": "3", "P29_007": "0", "P29_008": "00", "P29_009": null }, "geometry": { "type": "Point", "coordinates": [ 127.703830005171156, 26.238929996302875 ] } },
{ "type": "Feature", "properties": { "P29_001": "47208", "P29_002": "A247220800034", "P29_003": "16013", "P29_004": "浦添市立当山こども園", "P29_005": "沖縄県浦添市当山2-34-2", "P29_006": "3", "P29_007": "0", "P29_008": "00", "P29_009": null }, "geometry": { "type": "Point", "coordinates": [ 127.733818367486663, 26.252429694870749 ] } },
{ "type": "Feature", "properties": { "P29_001": "47208", "P29_002": "A247220800043", "P29_003": "16013", "P29_004": "浦添市立牧港こども園", "P29_005": "沖縄県浦添市牧港2-14-1", "P29_006": "3", "P29_007": "0", "P29_008": "00", "P29_009": null }, "geometry": { "type": "Point", "coordinates": [ 127.724770528879546, 26.259860619105012 ] } },
{ "type": "Feature", "properties": { "P29_001": "47209", "P29_002": "A247220900015", "P29_003": "16013", "P29_004": "名護市立緑風こども園", "P29_005": "沖縄県名護市字汀間122", "P29_006": "3", "P29_007": "0", "P29_008": "00", "P29_009": null }, "geometry": { "type": "Point", "coordinates": [ 128.061814602296295, 26.552332538179588 ] } },
{ "type": "Feature", "properties": { "P29_001": "47210", "P29_002": "A247221000012", "P29_003": "16013", "P29_004": "糸満市立喜屋武こども園", "P29_005": "沖縄県糸満市字喜屋武433-1", "P29_006": "3", "P29_007": "0", "P29_008": "00", "P29_009": null }, "geometry": { "type": "Point", "coordinates": [ 127.662442996100509, 26.09226200147469 ] } },
{ "type": "Feature", "properties": { "P29_001": "47210", "P29_002": "A247221000021", "P29_003": "16013", "P29_004": "糸満市立真壁こども園", "P29_005": "沖縄県糸満市字真壁1932", "P29_006": "3", "P29_007": "0", "P29_008": "00", "P29_009": null }, "geometry": { "type": "Point", "coordinates": [ 127.68820999890103, 26.103292002625423 ] } },
{ "type": "Feature", "properties": { "P29_001": "47210", "P29_002": "A247221000030", "P29_003": "16013", "P29_004": "糸満市立糸満南こども園", "P29_005": "沖縄県糸満市潮崎町3-1", "P29_006": "3", "P29_007": "0", "P29_008": "00", "P29_009": null }, "geometry": { "type": "Point", "coordinates": [ 127.66561100166507, 26.120462001087152 ] } },
{ "type": "Feature", "properties": { "P29_001": "47210", "P29_002": "A247221000049", "P29_003": "16013", "P29_004": "糸満市立兼城こども園", "P29_005": "沖縄県糸満市座波311", "P29_006": "3", "P29_007": "0", "P29_008": "00", "P29_009": null }, "geometry": { "type": "Point", "coordinates": [ 127.688185004920314, 26.146672001859724 ] } },
{ "type": "Feature", "properties": { "P29_001": "47210", "P29_002": "A247221000067", "P29_003": "16013", "P29_004": "糸満市立西崎こども園", "P29_005": "沖縄県糸満市西崎2-4-2", "P29_006": "3", "P29_007": "0", "P29_008": "00", "P29_009": null }, "geometry": { "type": "Point", "coordinates": [ 127.665919004041342, 26.14254400172932 ] } },
{ "type": "Feature", "properties": { "P29_001": "47212", "P29_002": "A247221200010", "P29_003": "16013", "P29_004": "豊見城市立幼保連携型認定こども園上田こども園", "P29_005": "沖縄県豊見城市宜保1-1-4", "P29_006": "3", "P29_007": "0", "P29_008": "00", "P29_009": null }, "geometry": { "type": "Point", "coordinates": [ 127.679030999757117, 26.177196001097453 ] } },
{ "type": "Feature", "properties": { "P29_001": "47213", "P29_002": "A247221300019", "P29_003": "16013", "P29_004": "うるま市立あげなこども園", "P29_005": "沖縄県うるま市字西原129", "P29_006": "3", "P29_007": "0", "P29_008": "00", "P29_009": null }, "geometry": { "type": "Point", "coordinates": [ 127.848500001656973, 26.373567001467777 ] } },
{ "type": "Feature", "properties": { "P29_001": "47213", "P29_002": "A247221300028", "P29_003": "16013", "P29_004": "うるま市立伊波こども園", "P29_005": "沖縄県うるま市石川伊波287-1", "P29_006": "3", "P29_007": "0", "P29_008": "00", "P29_009": null }, "geometry": { "type": "Point", "coordinates": [ 127.819597427091793, 26.41750972564763 ] } },
{ "type": "Feature", "properties": { "P29_001": "47213", "P29_002": "A247221300037", "P29_003": "16013", "P29_004": "うるま市立赤道こども園", "P29_005": "沖縄県うるま市赤道921", "P29_006": "3", "P29_007": "0", "P29_008": "00", "P29_009": null }, "geometry": { "type": "Point", "coordinates": [ 127.831804908462885, 26.362828320662658 ] } },
{ "type": "Feature", "properties": { "P29_001": "47213", "P29_002": "A247221300046", "P29_003": "16013", "P29_004": "うるま市立与那城こども園", "P29_005": "沖縄県うるま市与那城屋慶名468-1", "P29_006": "3", "P29_007": "0", "P29_008": "00", "P29_009": null }, "geometry": { "type": "Point", "coordinates": [ 127.902600257303874, 26.328571230797341 ] } },
{ "type": "Feature", "properties": { "P29_001": "47214", "P29_002": "A247221400018", "P29_003": "16013", "P29_004": "宮古島市立上野こども園", "P29_005": "沖縄県宮古島市上野字新里506", "P29_006": "3", "P29_007": "0", "P29_008": "00", "P29_009": null }, "geometry": { "type": "Point", "coordinates": [ 125.331833003196962, 24.741838999117991 ] } },
{ "type": "Feature", "properties": { "P29_001": "47214", "P29_002": "A247221400027", "P29_003": "16013", "P29_004": "宮古島市立下地こども園", "P29_005": "沖縄県宮古島市下地字洲鎌309-4", "P29_006": "3", "P29_007": "0", "P29_008": "00", "P29_009": null }, "geometry": { "type": "Point", "coordinates": [ 125.283336925214243, 24.747389536936588 ] } },
{ "type": "Feature", "properties": { "P29_001": "47214", "P29_002": "A247221400036", "P29_003": "16013", "P29_004": "宮古島市立伊良部こども園", "P29_005": "沖縄県宮古島市伊良部字長浜1394", "P29_006": "3", "P29_007": "0", "P29_008": "00", "P29_009": null }, "geometry": { "type": "Point", "coordinates": [ 125.169515998896955, 24.832458997883592 ] } },
{ "type": "Feature", "properties": { "P29_001": "47215", "P29_002": "A247221500017", "P29_003": "16013", "P29_004": "南城市立大里こども園", "P29_005": "沖縄県南城市大里字仲間981-1", "P29_006": "3", "P29_007": "0", "P29_008": "00", "P29_009": null }, "geometry": { "type": "Point", "coordinates": [ 127.744991239655562, 26.175465020061591 ] } },
{ "type": "Feature", "properties": { "P29_001": "47301", "P29_002": "A247230100012", "P29_003": "16013", "P29_004": "国頭村立くにがみこども園", "P29_005": "沖縄県国頭郡国頭村字辺土名1350", "P29_006": "3", "P29_007": "0", "P29_008": "00", "P29_009": null }, "geometry": { "type": "Point", "coordinates": [ 128.176982753030416, 26.742557011540029 ] } },
{ "type": "Feature", "properties": { "P29_001": "47302", "P29_002": "A247230200011", "P29_003": "16013", "P29_004": "大宜味村立おおぎみこども園", "P29_005": "沖縄県国頭郡大宜味村塩屋1306-87", "P29_006": "3", "P29_007": "0", "P29_008": "00", "P29_009": null }, "geometry": { "type": "Point", "coordinates": [ 128.10041624033812, 26.678337497741389 ] } },
{ "type": "Feature", "properties": { "P29_001": "47306", "P29_002": "A247230600017", "P29_003": "16013", "P29_004": "今帰仁村立認定こども園みらい", "P29_005": "沖縄県国頭郡今帰仁村越地180", "P29_006": "3", "P29_007": "0", "P29_008": "00", "P29_009": null }, "geometry": { "type": "Point", "coordinates": [ 127.967109689894826, 26.68876494166064 ] } },
{ "type": "Feature", "properties": { "P29_001": "47314", "P29_002": "A247231400026", "P29_003": "16013", "P29_004": "金武町立金武こども園", "P29_005": "沖縄県国頭郡金武町金武491-1", "P29_006": "3", "P29_007": "0", "P29_008": "00", "P29_009": null }, "geometry": { "type": "Point", "coordinates": [ 127.926939001094453, 26.452099000929575 ] } },
{ "type": "Feature", "properties": { "P29_001": "47362", "P29_002": "A247236200018", "P29_003": "16013", "P29_004": "八重瀬町立ぐしかみこども園", "P29_005": "沖縄県島尻郡八重瀬町字具志頭661", "P29_006": "3", "P29_007": "0", "P29_008": "00", "P29_009": null }, "geometry": { "type": "Point", "coordinates": [ 127.741243883932498, 26.122326749967449 ] } },
{ "type": "Feature", "properties": { "P29_001": "47201", "P29_002": "A247320100011", "P29_003": "16013", "P29_004": "さつきこども園", "P29_005": "沖縄県那覇市宇栄原1-12-1", "P29_006": "4", "P29_007": "0", "P29_008": "00", "P29_009": null }, "geometry": { "type": "Point", "coordinates": [ 127.665670536858158, 26.191773691085061 ] } },
{ "type": "Feature", "properties": { "P29_001": "47201", "P29_002": "A247320100020", "P29_003": "16013", "P29_004": "識名こども園", "P29_005": "沖縄県那覇市識名2-2-1", "P29_006": "4", "P29_007": "0", "P29_008": "00", "P29_009": null }, "geometry": { "type": "Point", "coordinates": [ 127.707232998765562, 26.208583995121316 ] } },
{ "type": "Feature", "properties": { "P29_001": "47201", "P29_002": "A247320100039", "P29_003": "16013", "P29_004": "銘苅こども園", "P29_005": "沖縄県那覇市銘苅2-3-20", "P29_006": "4", "P29_007": "0", "P29_008": "00", "P29_009": null }, "geometry": { "type": "Point", "coordinates": [ 127.697642998361502, 26.231748999231428 ] } },
{ "type": "Feature", "properties": { "P29_001": "47201", "P29_002": "A247320100048", "P29_003": "16013", "P29_004": "若狭こども園", "P29_005": "沖縄県那覇市若狭3-11-1", "P29_006": "4", "P29_007": "0", "P29_008": "00", "P29_009": null }, "geometry": { "type": "Point", "coordinates": [ 127.676446997003609, 26.223191001413905 ] } },
{ "type": "Feature", "properties": { "P29_001": "47201", "P29_002": "A247320100057", "P29_003": "16013", "P29_004": "曙こども園", "P29_005": "沖縄県那覇市曙2-18-2", "P29_006": "4", "P29_007": "0", "P29_008": "00", "P29_009": null }, "geometry": { "type": "Point", "coordinates": [ 127.683133657479829, 26.240387988394708 ] } },
{ "type": "Feature", "properties": { "P29_001": "47201", "P29_002": "A247320100066", "P29_003": "16013", "P29_004": "かぐらこども園", "P29_005": "沖縄県那覇市宇栄原3-15-46", "P29_006": "4", "P29_007": "0", "P29_008": "00", "P29_009": null }, "geometry": { "type": "Point", "coordinates": [ 127.664352996175268, 26.189477996108842 ] } },
{ "type": "Feature", "properties": { "P29_001": "47201", "P29_002": "A247320100075", "P29_003": "16013", "P29_004": "金城こども園", "P29_005": "沖縄県那覇市金城4-3-1", "P29_006": "4", "P29_007": "0", "P29_008": "00", "P29_009": null }, "geometry": { "type": "Point", "coordinates": [ 127.663249995641877, 26.19694699699399 ] } },
{ "type": "Feature", "properties": { "P29_001": "47201", "P29_002": "A247320100084", "P29_003": "16013", "P29_004": "真地こども園", "P29_005": "沖縄県那覇市真地313", "P29_006": "4", "P29_007": "0", "P29_008": "00", "P29_009": null }, "geometry": { "type": "Point", "coordinates": [ 127.718614482694164, 26.199827916021157 ] } },
{ "type": "Feature", "properties": { "P29_001": "47201", "P29_002": "A247320100093", "P29_003": "16013", "P29_004": "わかめこども園", "P29_005": "沖縄県那覇市首里石嶺町3-199-2", "P29_006": "4", "P29_007": "0", "P29_008": "00", "P29_009": null }, "geometry": { "type": "Point", "coordinates": [ 127.724124004381295, 26.230609000176958 ] } },
{ "type": "Feature", "properties": { "P29_001": "47201", "P29_002": "A247320100100", "P29_003": "16013", "P29_004": "神原こども園", "P29_005": "沖縄県那覇市樋川2-7-1", "P29_006": "4", "P29_007": "0", "P29_008": "00", "P29_009": null }, "geometry": { "type": "Point", "coordinates": [ 127.6909420688566, 26.210696652409471 ] } },
{ "type": "Feature", "properties": { "P29_001": "47201", "P29_002": "A247320100119", "P29_003": "16013", "P29_004": "古蔵こども園", "P29_005": "沖縄県那覇市古波蔵1-33-2", "P29_006": "4", "P29_007": "0", "P29_008": "00", "P29_009": null }, "geometry": { "type": "Point", "coordinates": [ 127.692004001904451, 26.200316999640155 ] } },
{ "type": "Feature", "properties": { "P29_001": "47201", "P29_002": "A247320100128", "P29_003": "16013", "P29_004": "城岳こども園", "P29_005": "沖縄県那覇市楚辺2-1-1", "P29_006": "4", "P29_007": "0", "P29_008": "00", "P29_009": null }, "geometry": { "type": "Point", "coordinates": [ 127.68648559600777, 26.205448734199805 ] } },
{ "type": "Feature", "properties": { "P29_001": "47201", "P29_002": "A247320100137", "P29_003": "16013", "P29_004": "童夢認定こども園", "P29_005": "沖縄県那覇市繁多川2-15-1", "P29_006": "4", "P29_007": "0", "P29_008": "00", "P29_009": null }, "geometry": { "type": "Point", "coordinates": [ 127.711575999199596, 26.211040999996069 ] } },
{ "type": "Feature", "properties": { "P29_001": "47201", "P29_002": "A247320100155", "P29_003": "16013", "P29_004": "松川こども園", "P29_005": "沖縄県那覇市松川1-7-1", "P29_006": "4", "P29_007": "0", "P29_008": "00", "P29_009": null }, "geometry": { "type": "Point", "coordinates": [ 127.703963372571664, 26.213404111389085 ] } },
{ "type": "Feature", "properties": { "P29_001": "47201", "P29_002": "A247320100164", "P29_003": "16013", "P29_004": "松島こども園", "P29_005": "沖縄県那覇市古島2-30-12", "P29_006": "4", "P29_007": "0", "P29_008": "00", "P29_009": null }, "geometry": { "type": "Point", "coordinates": [ 127.708831285932717, 26.227617478789142 ] } },
{ "type": "Feature", "properties": { "P29_001": "47201", "P29_002": "A247320100173", "P29_003": "16013", "P29_004": "安謝こども園", "P29_005": "沖縄県那覇市安謝2-15-27", "P29_006": "4", "P29_007": "0", "P29_008": "00", "P29_009": null }, "geometry": { "type": "Point", "coordinates": [ 127.688930999013365, 26.237006999175886 ] } },
{ "type": "Feature", "properties": { "P29_001": "47201", "P29_002": "A247320100182", "P29_003": "16013", "P29_004": "宇栄原こども園", "P29_005": "沖縄県那覇市字小禄1066", "P29_006": "4", "P29_007": "0", "P29_008": "00", "P29_009": null }, "geometry": { "type": "Point", "coordinates": [ 127.673775997910241, 26.185870999405957 ] } },
{ "type": "Feature", "properties": { "P29_001": "47201", "P29_002": "A247320100191", "P29_003": "16013", "P29_004": "小禄こども園", "P29_005": "沖縄県那覇市字小禄1150", "P29_006": "4", "P29_007": "0", "P29_008": "00", "P29_009": null }, "geometry": { "type": "Point", "coordinates": [ 127.672720001364809, 26.197310997043417 ] } },
{ "type": "Feature", "properties": { "P29_001": "47201", "P29_002": "A247320100208", "P29_003": "16013", "P29_004": "垣花こども園", "P29_005": "沖縄県那覇市山下町17-2", "P29_006": "4", "P29_007": "0", "P29_008": "00", "P29_009": null }, "geometry": { "type": "Point", "coordinates": [ 127.669917331197709, 26.202224613753739 ] } },
{ "type": "Feature", "properties": { "P29_001": "47201", "P29_002": "A247320100217", "P29_003": "16013", "P29_004": "城東こども園", "P29_005": "沖縄県那覇市首里石嶺町2-74-1", "P29_006": "4", "P29_007": "0", "P29_008": "00", "P29_009": null }, "geometry": { "type": "Point", "coordinates": [ 127.733126411408421, 26.223503169350934 ] } },
{ "type": "Feature", "properties": { "P29_001": "47201", "P29_002": "A247320100226", "P29_003": "16013", "P29_004": "高良こども園", "P29_005": "沖縄県那覇市高良2-12-1", "P29_006": "4", "P29_007": "0", "P29_008": "00", "P29_009": null }, "geometry": { "type": "Point", "coordinates": [ 127.663220418183855, 26.182654099062173 ] } },
{ "type": "Feature", "properties": { "P29_001": "47201", "P29_002": "A247320100235", "P29_003": "16013", "P29_004": "愛心こども園", "P29_005": "沖縄県那覇市上間384-15", "P29_006": "4", "P29_007": "0", "P29_008": "00", "P29_009": null }, "geometry": { "type": "Point", "coordinates": [ 127.711941002952742, 26.196789995786215 ] } },
{ "type": "Feature", "properties": { "P29_001": "47201", "P29_002": "A247320100244", "P29_003": "16013", "P29_004": "幼保連携型認定こども園美ら夢", "P29_005": "沖縄県那覇市安謝1-20-1", "P29_006": "4", "P29_007": "0", "P29_008": "00", "P29_009": null }, "geometry": { "type": "Point", "coordinates": [ 127.694894996197476, 26.23722900207915 ] } },
{ "type": "Feature", "properties": { "P29_001": "47201", "P29_002": "A247320100253", "P29_003": "16013", "P29_004": "石嶺こども園", "P29_005": "沖縄県那覇市首里石嶺町4-360-8", "P29_006": "4", "P29_007": "0", "P29_008": "00", "P29_009": null }, "geometry": { "type": "Point", "coordinates": [ 127.730837406455052, 26.231018523597054 ] } },
{ "type": "Feature", "properties": { "P29_001": "47201", "P29_002": "A247320100271", "P29_003": "16013", "P29_004": "仲井真こども園", "P29_005": "沖縄県那覇市仲井真173", "P29_006": "4", "P29_007": "0", "P29_008": "00", "P29_009": null }, "geometry": { "type": "Point", "coordinates": [ 127.707128445889964, 26.195669610443115 ] } },
{ "type": "Feature", "properties": { "P29_001": "47205", "P29_002": "A247320500017", "P29_003": "16013", "P29_004": "幼保連携型しののめこども園", "P29_005": "沖縄県宜野湾市新城2-43-1", "P29_006": "4", "P29_007": "0", "P29_008": "00", "P29_009": null }, "geometry": { "type": "Point", "coordinates": [ 127.766821052107403, 26.287016444314439 ] } },
{ "type": "Feature", "properties": { "P29_001": "47207", "P29_002": "A247320700015", "P29_003": "16013", "P29_004": "幼保連携型認定こども園なごみの広場", "P29_005": "沖縄県石垣市字大浜436-1", "P29_006": "4", "P29_007": "0", "P29_008": "00", "P29_009": null }, "geometry": { "type": "Point", "coordinates": [ 124.191261999752399, 24.339757999244135 ] } },
{ "type": "Feature", "properties": { "P29_001": "47207", "P29_002": "A247320700024", "P29_003": "16013", "P29_004": "学校法人大庭学園立石垣市認定こども園新栄町こども園", "P29_005": "沖縄県石垣市新栄町7", "P29_006": "4", "P29_007": "0", "P29_008": "00", "P29_009": null }, "geometry": { "type": "Point", "coordinates": [ 124.152524999320789, 24.342535003722684 ] } },
{ "type": "Feature", "properties": { "P29_001": "47207", "P29_002": "A247320700033", "P29_003": "16013", "P29_004": "ふくぎこども園", "P29_005": "沖縄県石垣市字石垣741-1", "P29_006": "4", "P29_007": "0", "P29_008": "00", "P29_009": null }, "geometry": { "type": "Point", "coordinates": [ 124.158847281043464, 24.361037774076504 ] } },
{ "type": "Feature", "properties": { "P29_001": "47207", "P29_002": "A247320700042", "P29_003": "16013", "P29_004": "平得わらべ保育園", "P29_005": "沖縄県石垣市字平得394-3", "P29_006": "4", "P29_007": "0", "P29_008": "00", "P29_009": null }, "geometry": { "type": "Point", "coordinates": [ 124.177868025842216, 24.340983186795082 ] } },
{ "type": "Feature", "properties": { "P29_001": "47208", "P29_002": "A247320800014", "P29_003": "16013", "P29_004": "仲西こども園", "P29_005": "沖縄県浦添市宮城2-4-1", "P29_006": "4", "P29_007": "0", "P29_008": "00", "P29_009": null }, "geometry": { "type": "Point", "coordinates": [ 127.707624999944144, 26.249181997912693 ] } },
{ "type": "Feature", "properties": { "P29_001": "47208", "P29_002": "A247320800023", "P29_003": "16013", "P29_004": "あおいこども園", "P29_005": "沖縄県浦添市屋富祖1-3-17", "P29_006": "4", "P29_007": "0", "P29_008": "00", "P29_009": null }, "geometry": { "type": "Point", "coordinates": [ 127.711481998492289, 26.251845000967158 ] } },
{ "type": "Feature", "properties": { "P29_001": "47208", "P29_002": "A247320800032", "P29_003": "16013", "P29_004": "浦添市公私連携神森こども園", "P29_005": "沖縄県浦添市勢理客1-4-1", "P29_006": "4", "P29_007": "0", "P29_008": "00", "P29_009": null }, "geometry": { "type": "Point", "coordinates": [ 127.699688999844597, 26.24249199690458 ] } },
{ "type": "Feature", "properties": { "P29_001": "47208", "P29_002": "A247320800041", "P29_003": "16013", "P29_004": "ハイジこども園", "P29_005": "沖縄県浦添市牧港2-23-5", "P29_006": "4", "P29_007": "0", "P29_008": "00", "P29_009": null }, "geometry": { "type": "Point", "coordinates": [ 127.724608997465509, 26.261280997240782 ] } },
{ "type": "Feature", "properties": { "P29_001": "47208", "P29_002": "A247320800050", "P29_003": "16013", "P29_004": "浦城こども園", "P29_005": "沖縄県浦添市伊祖2-13-1", "P29_006": "4", "P29_007": "0", "P29_008": "00", "P29_009": null }, "geometry": { "type": "Point", "coordinates": [ 127.717576340593283, 26.253876182036535 ] } },
{ "type": "Feature", "properties": { "P29_001": "47208", "P29_002": "A247320800069", "P29_003": "16013", "P29_004": "前田こども園", "P29_005": "沖縄県浦添市字前田333", "P29_006": "4", "P29_007": "0", "P29_008": "00", "P29_009": null }, "geometry": { "type": "Point", "coordinates": [ 127.733525997738596, 26.238797002957359 ] } },
{ "type": "Feature", "properties": { "P29_001": "47208", "P29_002": "A247320800078", "P29_003": "16013", "P29_004": "沢岻こども園", "P29_005": "沖縄県浦添市沢岻998", "P29_006": "4", "P29_007": "0", "P29_008": "00", "P29_009": null }, "geometry": { "type": "Point", "coordinates": [ 127.716943001363916, 26.237535996563576 ] } },
{ "type": "Feature", "properties": { "P29_001": "47208", "P29_002": "A247320800087", "P29_003": "16013", "P29_004": "港川こども園", "P29_005": "沖縄県浦添市城間4-37-1", "P29_006": "4", "P29_007": "0", "P29_008": "00", "P29_009": null }, "geometry": { "type": "Point", "coordinates": [ 127.716314315594332, 26.261529788796288 ] } },
{ "type": "Feature", "properties": { "P29_001": "47208", "P29_002": "A247320800096", "P29_003": "16013", "P29_004": "宮城こども園", "P29_005": "沖縄県浦添市宮城3-7-3", "P29_006": "4", "P29_007": "0", "P29_008": "00", "P29_009": null }, "geometry": { "type": "Point", "coordinates": [ 127.704965577857095, 26.246717649678267 ] } },
{ "type": "Feature", "properties": { "P29_001": "47208", "P29_002": "A247320800103", "P29_003": "16013", "P29_004": "みのり幼稚園", "P29_005": "沖縄県浦添市宮城5-2-3", "P29_006": "4", "P29_007": "0", "P29_008": "00", "P29_009": null }, "geometry": { "type": "Point", "coordinates": [ 127.704846666322211, 26.241850934403342 ] } },
{ "type": "Feature", "properties": { "P29_001": "47209", "P29_002": "A247320900013", "P29_003": "16013", "P29_004": "幼保連携型あすなろ第２認定こども園", "P29_005": "沖縄県名護市大東3-17-9-1", "P29_006": "4", "P29_007": "0", "P29_008": "00", "P29_009": null }, "geometry": { "type": "Point", "coordinates": [ 127.990192762569848, 26.593491827476594 ] } },
{ "type": "Feature", "properties": { "P29_001": "47209", "P29_002": "A247320900022", "P29_003": "16013", "P29_004": "幼保連携型あすなろ認定こども園", "P29_005": "沖縄県名護市大東3-17-9-1", "P29_006": "4", "P29_007": "0", "P29_008": "00", "P29_009": null }, "geometry": { "type": "Point", "coordinates": [ 127.990233795832353, 26.5934052446385 ] } },
{ "type": "Feature", "properties": { "P29_001": "47209", "P29_002": "A247320900031", "P29_003": "16013", "P29_004": "幼保連携型あすなろ東認定こども園", "P29_005": "沖縄県名護市東江2-6-9", "P29_006": "4", "P29_007": "0", "P29_008": "00", "P29_009": null }, "geometry": { "type": "Point", "coordinates": [ 127.992185002080049, 26.586707999455164 ] } },
{ "type": "Feature", "properties": { "P29_001": "47209", "P29_002": "A247320900040", "P29_003": "16013", "P29_004": "あすなろグレース認定こども園", "P29_005": "沖縄県名護市大北1-18-4", "P29_006": "4", "P29_007": "0", "P29_008": "00", "P29_009": null }, "geometry": { "type": "Point", "coordinates": [ 127.989287048029382, 26.60112703247691 ] } },
{ "type": "Feature", "properties": { "P29_001": "47209", "P29_002": "A247320900059", "P29_003": "16013", "P29_004": "海青こども園", "P29_005": "沖縄県名護市大西3-14-3", "P29_006": "4", "P29_007": "0", "P29_008": "00", "P29_009": null }, "geometry": { "type": "Point", "coordinates": [ 127.98455999705277, 26.597640000426424 ] } },
{ "type": "Feature", "properties": { "P29_001": "47209", "P29_002": "A247320900068", "P29_003": "16013", "P29_004": "なごうら認定こども園", "P29_005": "沖縄県名護市屋部1716-1", "P29_006": "4", "P29_007": "0", "P29_008": "00", "P29_009": null }, "geometry": { "type": "Point", "coordinates": [ 127.959606473896059, 26.605991734733951 ] } },
{ "type": "Feature", "properties": { "P29_001": "47210", "P29_002": "A247321000010", "P29_003": "16013", "P29_004": "ちくば認定こども園", "P29_005": "沖縄県糸満市字大里741-13", "P29_006": "4", "P29_007": "0", "P29_008": "00", "P29_009": null }, "geometry": { "type": "Point", "coordinates": [ 127.686538001965602, 26.132083996445388 ] } },
{ "type": "Feature", "properties": { "P29_001": "47210", "P29_002": "A247321000029", "P29_003": "16013", "P29_004": "あいわこども園", "P29_005": "沖縄県糸満市西崎5-33-2", "P29_006": "4", "P29_007": "0", "P29_008": "00", "P29_009": null }, "geometry": { "type": "Point", "coordinates": [ 127.659484999592124, 26.1441360029674 ] } },
{ "type": "Feature", "properties": { "P29_001": "47210", "P29_002": "A247321000038", "P29_003": "16013", "P29_004": "こひつじこども園", "P29_005": "沖縄県糸満市字大里1837-1", "P29_006": "4", "P29_007": "0", "P29_008": "00", "P29_009": null }, "geometry": { "type": "Point", "coordinates": [ 127.685723997298837, 26.130641998239955 ] } },
{ "type": "Feature", "properties": { "P29_001": "47210", "P29_002": "A247321000047", "P29_003": "16013", "P29_004": "光洋こども園", "P29_005": "沖縄県糸満市西崎町3-7-14", "P29_006": "4", "P29_007": "0", "P29_008": "00", "P29_009": null }, "geometry": { "type": "Point", "coordinates": [ 127.664968321793907, 26.149269677438795 ] } },
{ "type": "Feature", "properties": { "P29_001": "47210", "P29_002": "A247321000056", "P29_003": "16013", "P29_004": "浜川こども園", "P29_005": "沖縄県糸満市潮平774-1", "P29_006": "4", "P29_007": "0", "P29_008": "00", "P29_009": null }, "geometry": { "type": "Point", "coordinates": [ 127.673451996488581, 26.149630000297343 ] } },
{ "type": "Feature", "properties": { "P29_001": "47210", "P29_002": "A247321000065", "P29_003": "16013", "P29_004": "ゆりかご認定こども園", "P29_005": "沖縄県糸満市字阿波根1550-1", "P29_006": "4", "P29_007": "0", "P29_008": "00", "P29_009": null }, "geometry": { "type": "Point", "coordinates": [ 127.672416176706321, 26.152046152745729 ] } },
{ "type": "Feature", "properties": { "P29_001": "47210", "P29_002": "A247321000074", "P29_003": "16013", "P29_004": "ちくば第２こども園", "P29_005": "沖縄県糸満市糸満1736-3", "P29_006": "4", "P29_007": "0", "P29_008": "00", "P29_009": null }, "geometry": { "type": "Point", "coordinates": [ 127.678598995903073, 26.126847998288774 ] } },
{ "type": "Feature", "properties": { "P29_001": "47210", "P29_002": "A247321000083", "P29_003": "16013", "P29_004": "米須こども園", "P29_005": "沖縄県糸満市大度84", "P29_006": "4", "P29_007": "0", "P29_008": "00", "P29_009": null }, "geometry": { "type": "Point", "coordinates": [ 127.703677269166278, 26.095903772083709 ] } },
{ "type": "Feature", "properties": { "P29_001": "47210", "P29_002": "A247321000092", "P29_003": "16013", "P29_004": "みつる認定こども園", "P29_005": "沖縄県糸満市真栄里2041-3", "P29_006": "4", "P29_007": "0", "P29_008": "00", "P29_009": null }, "geometry": { "type": "Point", "coordinates": [ 127.67016799698132, 26.120884996935139 ] } },
{ "type": "Feature", "properties": { "P29_001": "47210", "P29_002": "A247321000109", "P29_003": "16013", "P29_004": "のびしろこども園", "P29_005": "沖縄県糸満市字潮平東原373-1", "P29_006": "4", "P29_007": "0", "P29_008": "00", "P29_009": null }, "geometry": { "type": "Point", "coordinates": [ 127.682470528130636, 26.141265513750717 ] } },
{ "type": "Feature", "properties": { "P29_001": "47211", "P29_002": "A247321100019", "P29_003": "16013", "P29_004": "おきなわ地球こども園", "P29_005": "沖縄県沖縄市比屋根4-23-1", "P29_006": "4", "P29_007": "0", "P29_008": "00", "P29_009": null }, "geometry": { "type": "Point", "coordinates": [ 127.822106998285889, 26.313185003150036 ] } },
{ "type": "Feature", "properties": { "P29_001": "47211", "P29_002": "A247321100028", "P29_003": "16013", "P29_004": "きらきらこども園Ａｇｅｄａ", "P29_005": "沖縄県沖縄市安慶田5-2-2", "P29_006": "4", "P29_007": "0", "P29_008": "00", "P29_009": null }, "geometry": { "type": "Point", "coordinates": [ 127.811655760528623, 26.327950549728783 ] } },
{ "type": "Feature", "properties": { "P29_001": "47211", "P29_002": "A247321100037", "P29_003": "16013", "P29_004": "きらきらこども園", "P29_005": "沖縄県沖縄市大里2-32-6", "P29_006": "4", "P29_007": "0", "P29_008": "00", "P29_009": null }, "geometry": { "type": "Point", "coordinates": [ 127.820664777192292, 26.333152086235 ] } },
{ "type": "Feature", "properties": { "P29_001": "47212", "P29_002": "A247321200018", "P29_003": "16013", "P29_004": "おなが幼保連携型認定こども園", "P29_005": "沖縄県豊見城市字翁長647-6", "P29_006": "4", "P29_007": "0", "P29_008": "00", "P29_009": null }, "geometry": { "type": "Point", "coordinates": [ 127.67121218082292, 26.156304179562351 ] } },
{ "type": "Feature", "properties": { "P29_001": "47212", "P29_002": "A247321200027", "P29_003": "16013", "P29_004": "豊見城こども園", "P29_005": "沖縄県豊見城市字高嶺446-96", "P29_006": "4", "P29_007": "0", "P29_008": "00", "P29_009": null }, "geometry": { "type": "Point", "coordinates": [ 127.700211204617531, 26.166466324611715 ] } },
{ "type": "Feature", "properties": { "P29_001": "47212", "P29_002": "A247321200036", "P29_003": "16013", "P29_004": "伊良波こども園", "P29_005": "沖縄県豊見城市字伊良波382", "P29_006": "4", "P29_007": "0", "P29_008": "00", "P29_009": null }, "geometry": { "type": "Point", "coordinates": [ 127.673163153053366, 26.174023193023359 ] } },
{ "type": "Feature", "properties": { "P29_001": "47212", "P29_002": "A247321200045", "P29_003": "16013", "P29_004": "座安こども園", "P29_005": "沖縄県豊見城市字座安55-2", "P29_006": "4", "P29_007": "0", "P29_008": "00", "P29_009": null }, "geometry": { "type": "Point", "coordinates": [ 127.673573999531854, 26.16684499977832 ] } },
{ "type": "Feature", "properties": { "P29_001": "47212", "P29_002": "A247321200054", "P29_003": "16013", "P29_004": "豊崎こども園", "P29_005": "沖縄県豊見城市字豊崎1-1190", "P29_006": "4", "P29_007": "0", "P29_008": "00", "P29_009": null }, "geometry": { "type": "Point", "coordinates": [ 127.663276772355601, 26.157132485473934 ] } },
{ "type": "Feature", "properties": { "P29_001": "47212", "P29_002": "A247321200063", "P29_003": "16013", "P29_004": "とよみこども園", "P29_005": "沖縄県豊見城市字根差部579-1", "P29_006": "4", "P29_007": "0", "P29_008": "00", "P29_009": null }, "geometry": { "type": "Point", "coordinates": [ 127.688519004778001, 26.186596996992279 ] } },
{ "type": "Feature", "properties": { "P29_001": "47212", "P29_002": "A247321200072", "P29_003": "16013", "P29_004": "長嶺こども園", "P29_005": "沖縄県豊見城市字饒波1018-3", "P29_006": "4", "P29_007": "0", "P29_008": "00", "P29_009": null }, "geometry": { "type": "Point", "coordinates": [ 127.695822862000057, 26.181624201004077 ] } },
{ "type": "Feature", "properties": { "P29_001": "47212", "P29_002": "A247321200081", "P29_003": "16013", "P29_004": "ゆたかこども園", "P29_005": "沖縄県豊見城市字豊見城601-2", "P29_006": "4", "P29_007": "0", "P29_008": "00", "P29_009": null }, "geometry": { "type": "Point", "coordinates": [ 127.682431003343851, 26.180693997596112 ] } },
{ "type": "Feature", "properties": { "P29_001": "47212", "P29_002": "A247321200090", "P29_003": "16013", "P29_004": "ゆたか福祉会ゆたか認定こども園", "P29_005": "沖縄県豊見城市字髙嶺589", "P29_006": "4", "P29_007": "0", "P29_008": "00", "P29_009": null }, "geometry": { "type": "Point", "coordinates": [ 127.699404997775602, 26.165136996352633 ] } },
{ "type": "Feature", "properties": { "P29_001": "47212", "P29_002": "A247321200107", "P29_003": "16013", "P29_004": "認定こども園とよみ保育園", "P29_005": "沖縄県豊見城市字真玉橋238-1", "P29_006": "4", "P29_007": "0", "P29_008": "00", "P29_009": null }, "geometry": { "type": "Point", "coordinates": [ 127.689793259013541, 26.191170581618902 ] } },
{ "type": "Feature", "properties": { "P29_001": "47213", "P29_002": "A247321300017", "P29_003": "16013", "P29_004": "社会福祉法人みどり葉福祉会公私連携幼保連携型認定こども園天願こども園", "P29_005": "沖縄県うるま市みどり町1-8-2", "P29_006": "4", "P29_007": "0", "P29_008": "00", "P29_009": null }, "geometry": { "type": "Point", "coordinates": [ 127.859424001646516, 26.380826000940129 ] } },
{ "type": "Feature", "properties": { "P29_001": "47213", "P29_002": "A247321300026", "P29_003": "16013", "P29_004": "社会福祉法人かなさ福祉会公私連携幼保連携型認定こども園へしきや・かなさこども園", "P29_005": "沖縄県うるま市勝連平敷屋3850", "P29_006": "4", "P29_007": "0", "P29_008": "00", "P29_009": null }, "geometry": { "type": "Point", "coordinates": [ 127.917032999059813, 26.30740200121954 ] } },
{ "type": "Feature", "properties": { "P29_001": "47213", "P29_002": "A247321300035", "P29_003": "16013", "P29_004": "すくすくこども園", "P29_005": "沖縄県うるま市兼箇段1171-10", "P29_006": "4", "P29_007": "0", "P29_008": "00", "P29_009": null }, "geometry": { "type": "Point", "coordinates": [ 127.841299887476055, 26.366536950171167 ] } },
{ "type": "Feature", "properties": { "P29_001": "47213", "P29_002": "A247321300044", "P29_003": "16013", "P29_004": "中原こども園", "P29_005": "沖縄県うるま市宮里731", "P29_006": "4", "P29_007": "0", "P29_008": "00", "P29_009": null }, "geometry": { "type": "Point", "coordinates": [ 127.833798000474687, 26.349904999298143 ] } },
{ "type": "Feature", "properties": { "P29_001": "47213", "P29_002": "A247321300053", "P29_003": "16013", "P29_004": "ふくよか彩橋認定こども園", "P29_005": "沖縄県うるま市与那城平安座8146-1", "P29_006": "4", "P29_007": "0", "P29_008": "00", "P29_009": null }, "geometry": { "type": "Point", "coordinates": [ 127.951513001911508, 26.34162200453499 ] } },
{ "type": "Feature", "properties": { "P29_001": "47213", "P29_002": "A247321300062", "P29_003": "16013", "P29_004": "まことかわさきこども園", "P29_005": "沖縄県うるま市川崎117", "P29_006": "4", "P29_007": "0", "P29_008": "00", "P29_009": null }, "geometry": { "type": "Point", "coordinates": [ 127.844659678521666, 26.383548109397669 ] } },
{ "type": "Feature", "properties": { "P29_001": "47213", "P29_002": "A247321300071", "P29_003": "16013", "P29_004": "にじの色こども園", "P29_005": "沖縄県うるま市字髙江洲794-1", "P29_006": "4", "P29_007": "0", "P29_008": "00", "P29_009": null }, "geometry": { "type": "Point", "coordinates": [ 127.840612000568569, 26.356217998247772 ] } },
{ "type": "Feature", "properties": { "P29_001": "47213", "P29_002": "A247321300080", "P29_003": "16013", "P29_004": "ハッピーネスこども園", "P29_005": "沖縄県うるま市字仲嶺231", "P29_006": "4", "P29_007": "0", "P29_008": "00", "P29_009": null }, "geometry": { "type": "Point", "coordinates": [ 127.851536999762573, 26.358197000065498 ] } },
{ "type": "Feature", "properties": { "P29_001": "47213", "P29_002": "A247321300099", "P29_003": "16013", "P29_004": "豊原まどかこども園", "P29_005": "沖縄県うるま市字豊原230-1", "P29_006": "4", "P29_007": "0", "P29_008": "00", "P29_009": null }, "geometry": { "type": "Point", "coordinates": [ 127.852258950966558, 26.348139007806942 ] } },
{ "type": "Feature", "properties": { "P29_001": "47213", "P29_002": "A247321300106", "P29_003": "16013", "P29_004": "石川こども園", "P29_005": "沖縄県うるま市石川2-12-34", "P29_006": "4", "P29_007": "0", "P29_008": "00", "P29_009": null }, "geometry": { "type": "Point", "coordinates": [ 127.822807214583619, 26.428773844668232 ] } },
{ "type": "Feature", "properties": { "P29_001": "47213", "P29_002": "A247321300115", "P29_003": "16013", "P29_004": "勝連こども園", "P29_005": "沖縄県うるま市勝連平安名2976-1", "P29_006": "4", "P29_007": "0", "P29_008": "00", "P29_009": null }, "geometry": { "type": "Point", "coordinates": [ 127.898660000611386, 26.317090003529437 ] } },
{ "type": "Feature", "properties": { "P29_001": "47213", "P29_002": "A247321300124", "P29_003": "16013", "P29_004": "兼原こども園", "P29_005": "沖縄県うるま市字喜屋武384", "P29_006": "4", "P29_007": "0", "P29_008": "00", "P29_009": null }, "geometry": { "type": "Point", "coordinates": [ 127.848507937169714, 26.359940478777013 ] } },
{ "type": "Feature", "properties": { "P29_001": "47213", "P29_002": "A247321300133", "P29_003": "16013", "P29_004": "田場こども園", "P29_005": "沖縄県うるま市字田場874-1", "P29_006": "4", "P29_007": "0", "P29_008": "00", "P29_009": null }, "geometry": { "type": "Point", "coordinates": [ 127.861326727499744, 26.365461217945203 ] } },
{ "type": "Feature", "properties": { "P29_001": "47213", "P29_002": "A247321300142", "P29_003": "16013", "P29_004": "つくし認定こども園", "P29_005": "沖縄県うるま市石川東山本町2-4-32", "P29_006": "4", "P29_007": "0", "P29_008": "00", "P29_009": null }, "geometry": { "type": "Point", "coordinates": [ 127.834840003417384, 26.435799998908774 ] } },
{ "type": "Feature", "properties": { "P29_001": "47213", "P29_002": "A247321300151", "P29_003": "16013", "P29_004": "具志川こども園", "P29_005": "沖縄県うるま市字具志川3133", "P29_006": "4", "P29_007": "0", "P29_008": "00", "P29_009": null }, "geometry": { "type": "Point", "coordinates": [ 127.870572650930399, 26.364261409082371 ] } },
{ "type": "Feature", "properties": { "P29_001": "47213", "P29_002": "A247321300160", "P29_003": "16013", "P29_004": "高江洲こども園", "P29_005": "沖縄県うるま市字高江洲17-1", "P29_006": "4", "P29_007": "0", "P29_008": "00", "P29_009": null }, "geometry": { "type": "Point", "coordinates": [ 127.847830540939725, 26.347870165828898 ] } },
{ "type": "Feature", "properties": { "P29_001": "47213", "P29_002": "A247321300179", "P29_003": "16013", "P29_004": "まこときむたかこども園", "P29_005": "沖縄県うるま市勝連南風原272-1", "P29_006": "4", "P29_007": "0", "P29_008": "00", "P29_009": null }, "geometry": { "type": "Point", "coordinates": [ 127.874712569632067, 26.337507025792011 ] } },
{ "type": "Feature", "properties": { "P29_001": "47213", "P29_002": "A247321300188", "P29_003": "16013", "P29_004": "わくわくこども園", "P29_005": "沖縄県うるま市江洲1380", "P29_006": "4", "P29_007": "0", "P29_008": "00", "P29_009": null }, "geometry": { "type": "Point", "coordinates": [ 127.843631597260568, 26.340624714746887 ] } },
{ "type": "Feature", "properties": { "P29_001": "47214", "P29_002": "A247321400016", "P29_003": "16013", "P29_004": "はなぞのこどもえん", "P29_005": "沖縄県宮古島市平良字東仲宗根617-6", "P29_006": "4", "P29_007": "0", "P29_008": "00", "P29_009": null }, "geometry": { "type": "Point", "coordinates": [ 125.294318136032771, 24.807428218777382 ] } },
{ "type": "Feature", "properties": { "P29_001": "47214", "P29_002": "A247321400025", "P29_003": "16013", "P29_004": "クララこども園", "P29_005": "沖縄県宮古島市平良字西里2024-1", "P29_006": "4", "P29_007": "0", "P29_008": "00", "P29_009": null }, "geometry": { "type": "Point", "coordinates": [ 125.292875682157955, 24.796535733764479 ] } },
{ "type": "Feature", "properties": { "P29_001": "47214", "P29_002": "A247321400034", "P29_003": "16013", "P29_004": "いけむらこども園", "P29_005": "沖縄県宮古島市城辺字砂川599-5", "P29_006": "4", "P29_007": "0", "P29_008": "00", "P29_009": null }, "geometry": { "type": "Point", "coordinates": [ 125.349560327493364, 24.742733975272653 ] } },
{ "type": "Feature", "properties": { "P29_001": "47215", "P29_002": "A247321500015", "P29_003": "16013", "P29_004": "あおぞらこども園", "P29_005": "沖縄県南城市大里嶺井537", "P29_006": "4", "P29_007": "0", "P29_008": "00", "P29_009": null }, "geometry": { "type": "Point", "coordinates": [ 127.75083200307634, 26.196409997618463 ] } },
{ "type": "Feature", "properties": { "P29_001": "47215", "P29_002": "A247321500024", "P29_003": "16013", "P29_004": "あおぞら第２こども園", "P29_005": "沖縄県南城市大里嶺井556", "P29_006": "4", "P29_007": "0", "P29_008": "00", "P29_009": null }, "geometry": { "type": "Point", "coordinates": [ 127.751487004188306, 26.195373997639447 ] } },
{ "type": "Feature", "properties": { "P29_001": "47215", "P29_002": "A247321500033", "P29_003": "16013", "P29_004": "船越認定こども園", "P29_005": "沖縄県南城市玉城字船越939-2", "P29_006": "4", "P29_007": "0", "P29_008": "00", "P29_009": null }, "geometry": { "type": "Point", "coordinates": [ 127.752408998227679, 26.153195000812918 ] } },
{ "type": "Feature", "properties": { "P29_001": "47215", "P29_002": "A247321500042", "P29_003": "16013", "P29_004": "玉城こども園", "P29_005": "沖縄県南城市玉城字屋嘉部76", "P29_006": "4", "P29_007": "0", "P29_008": "00", "P29_009": null }, "geometry": { "type": "Point", "coordinates": [ 127.767110001277729, 26.147760000913681 ] } },
{ "type": "Feature", "properties": { "P29_001": "47215", "P29_002": "A247321500051", "P29_003": "16013", "P29_004": "知念こども園", "P29_005": "沖縄県南城市知念字久手堅679", "P29_006": "4", "P29_007": "0", "P29_008": "00", "P29_009": null }, "geometry": { "type": "Point", "coordinates": [ 127.820676874669701, 26.171574361271979 ] } },
{ "type": "Feature", "properties": { "P29_001": "47215", "P29_002": "A247321500060", "P29_003": "16013", "P29_004": "佐敷こども園", "P29_005": "沖縄県南城市佐敷字佐敷1246-2", "P29_006": "4", "P29_007": "0", "P29_008": "00", "P29_009": null }, "geometry": { "type": "Point", "coordinates": [ 127.783182522235052, 26.167610442252879 ] } },
{ "type": "Feature", "properties": { "P29_001": "47314", "P29_002": "A247331400015", "P29_003": "16013", "P29_004": "杉の子幼児学園", "P29_005": "沖縄県国頭郡金武町字金武4127", "P29_006": "4", "P29_007": "0", "P29_008": "00", "P29_009": null }, "geometry": { "type": "Point", "coordinates": [ 127.9182030025747, 26.452413997831307 ] } },
{ "type": "Feature", "properties": { "P29_001": "47314", "P29_002": "A247331400024", "P29_003": "16013", "P29_004": "みつばこども園", "P29_005": "沖縄県国頭郡金武町字金武10492-7", "P29_006": "4", "P29_007": "0", "P29_008": "00", "P29_009": null }, "geometry": { "type": "Point", "coordinates": [ 127.936979453187263, 26.467882486611948 ] } },
{ "type": "Feature", "properties": { "P29_001": "47314", "P29_002": "A247331400033", "P29_003": "16013", "P29_004": "認定こども園きんのほし", "P29_005": "沖縄県国頭郡金武町金武4223", "P29_006": "4", "P29_007": "0", "P29_008": "00", "P29_009": null }, "geometry": { "type": "Point", "coordinates": [ 127.913755999694843, 26.449968998625614 ] } },
{ "type": "Feature", "properties": { "P29_001": "47314", "P29_002": "A247331400042", "P29_003": "16013", "P29_004": "並里こども園", "P29_005": "沖縄県国頭郡金武町字金武806", "P29_006": "4", "P29_007": "0", "P29_008": "00", "P29_009": null }, "geometry": { "type": "Point", "coordinates": [ 127.929613996922228, 26.453203996207677 ] } },
{ "type": "Feature", "properties": { "P29_001": "47314", "P29_002": "A247331400051", "P29_003": "16013", "P29_004": "嘉芸こども園", "P29_005": "沖縄県国頭郡金武町金武町字屋嘉1470-3", "P29_006": "4", "P29_007": "0", "P29_008": "00", "P29_009": null }, "geometry": { "type": "Point", "coordinates": [ 127.858321198989941, 26.453683600896664 ] } },
{ "type": "Feature", "properties": { "P29_001": "47327", "P29_002": "A247332700010", "P29_003": "16013", "P29_004": "アリス幼稚園", "P29_005": "沖縄県中頭郡北中城村字美崎163", "P29_006": "4", "P29_007": "0", "P29_008": "00", "P29_009": null }, "geometry": { "type": "Point", "coordinates": [ 127.821154002133596, 26.305104996405369 ] } },
{ "type": "Feature", "properties": { "P29_001": "47327", "P29_002": "A247332700029", "P29_003": "16013", "P29_004": "すてらこども園", "P29_005": "沖縄県中頭郡北中城村仲順376-11", "P29_006": "4", "P29_007": "0", "P29_008": "00", "P29_009": null }, "geometry": { "type": "Point", "coordinates": [ 127.801989001930664, 26.302719001948489 ] } },
{ "type": "Feature", "properties": { "P29_001": "47328", "P29_002": "A247332800019", "P29_003": "16013", "P29_004": "クリスチャン教育センター幼稚園", "P29_005": "沖縄県中頭郡中城村字南上原387-3", "P29_006": "4", "P29_007": "0", "P29_008": "00", "P29_009": null }, "geometry": { "type": "Point", "coordinates": [ 127.769172003140113, 26.25975999867072 ] } },
{ "type": "Feature", "properties": { "P29_001": "47328", "P29_002": "A247332800028", "P29_003": "16013", "P29_004": "中城みなみ保育園・中城みなみ幼稚園", "P29_005": "沖縄県中頭郡中城村字南上原786", "P29_006": "4", "P29_007": "0", "P29_008": "00", "P29_009": null }, "geometry": { "type": "Point", "coordinates": [ 127.773579998459752, 26.248620001153153 ] } },
{ "type": "Feature", "properties": { "P29_001": "47328", "P29_002": "A247332800037", "P29_003": "16013", "P29_004": "夢の園こども園", "P29_005": "沖縄県中頭郡中城村南上原388", "P29_006": "4", "P29_007": "0", "P29_008": "00", "P29_009": null }, "geometry": { "type": "Point", "coordinates": [ 127.768899409953562, 26.260477946855715 ] } },
{ "type": "Feature", "properties": { "P29_001": "47328", "P29_002": "A247332800046", "P29_003": "16013", "P29_004": "中城ひらやすこども園", "P29_005": "沖縄県中頭郡中城村字当間595", "P29_006": "4", "P29_007": "0", "P29_008": "00", "P29_009": null }, "geometry": { "type": "Point", "coordinates": [ 127.789434572937282, 26.261394209065184 ] } },
{ "type": "Feature", "properties": { "P29_001": "47329", "P29_002": "A247332900018", "P29_003": "16013", "P29_004": "坂田こども園", "P29_005": "沖縄県中頭郡西原町字翁長626-1", "P29_006": "4", "P29_007": "0", "P29_008": "00", "P29_009": null }, "geometry": { "type": "Point", "coordinates": [ 127.751574524511341, 26.237482382127503 ] } },
{ "type": "Feature", "properties": { "P29_001": "47362", "P29_002": "A247336200016", "P29_003": "16013", "P29_004": "こちんだこども園", "P29_005": "沖縄県島尻郡八重瀬町字東風平1391-11", "P29_006": "4", "P29_007": "0", "P29_008": "00", "P29_009": null }, "geometry": { "type": "Point", "coordinates": [ 127.725742640256556, 26.155799741927247 ] } },
{ "type": "Feature", "properties": { "P29_001": "47362", "P29_002": "A247336200025", "P29_003": "16013", "P29_004": "あらしろこども園", "P29_005": "沖縄県島尻郡八重瀬町字新城1381", "P29_006": "4", "P29_007": "0", "P29_008": "00", "P29_009": null }, "geometry": { "type": "Point", "coordinates": [ 127.734744028480122, 26.135681274844362 ] } },
{ "type": "Feature", "properties": { "P29_001": "47362", "P29_002": "A247336200034", "P29_003": "16013", "P29_004": "しらかわこども園", "P29_005": "沖縄県島尻郡八重瀬町字小城550", "P29_006": "4", "P29_007": "0", "P29_008": "00", "P29_009": null }, "geometry": { "type": "Point", "coordinates": [ 127.710410754661496, 26.162456767584111 ] } }
]
}
