{
"type": "FeatureCollection",
"name": "geo_47_高校",
"crs": { "type": "name", "properties": { "name": "urn:ogc:def:crs:EPSG::6668" } },
"features": [
{ "type": "Feature", "properties": { "P29_001": "47201", "P29_002": "D147220100018", "P29_003": "16004", "P29_004": "沖縄県立首里高等学校", "P29_005": "沖縄県那覇市首里真和志町2-43", "P29_006": "2", "P29_007": "0", "P29_008": "00", "P29_009": null }, "geometry": { "type": "Point", "coordinates": [ 127.713611000645528, 26.219393003479432 ] } },
{ "type": "Feature", "properties": { "P29_001": "47201", "P29_002": "D147220100027", "P29_003": "16004", "P29_004": "沖縄県立沖縄工業高等学校", "P29_005": "沖縄県那覇市松川3-20-1", "P29_006": "2", "P29_007": "0", "P29_008": "00", "P29_009": null }, "geometry": { "type": "Point", "coordinates": [ 127.706356993253252, 26.21500305956652 ] } },
{ "type": "Feature", "properties": { "P29_001": "47201", "P29_002": "D147220100036", "P29_003": "16004", "P29_004": "沖縄県立那覇商業高等学校", "P29_005": "沖縄県那覇市松山1-16-1", "P29_006": "2", "P29_007": "0", "P29_008": "00", "P29_009": null }, "geometry": { "type": "Point", "coordinates": [ 127.67728100371022, 26.217474995873044 ] } },
{ "type": "Feature", "properties": { "P29_001": "47201", "P29_002": "D147220100045", "P29_003": "16004", "P29_004": "沖縄県立那覇高等学校", "P29_005": "沖縄県那覇市松尾1-21-44", "P29_006": "2", "P29_007": "0", "P29_008": "00", "P29_009": null }, "geometry": { "type": "Point", "coordinates": [ 127.683943377322592, 26.21139411487658 ] } },
{ "type": "Feature", "properties": { "P29_001": "47201", "P29_002": "D147220100054", "P29_003": "16004", "P29_004": "沖縄県立小禄高等学校", "P29_005": "沖縄県那覇市鏡原町22-1", "P29_006": "2", "P29_007": "0", "P29_008": "00", "P29_009": null }, "geometry": { "type": "Point", "coordinates": [ 127.67818425376845, 26.199850903696731 ] } },
{ "type": "Feature", "properties": { "P29_001": "47350", "P29_002": "D147220100063", "P29_003": "16004", "P29_004": "沖縄県立真和志高等学校", "P29_005": "沖縄県那覇市字真地248", "P29_006": "2", "P29_007": "0", "P29_008": "00", "P29_009": null }, "geometry": { "type": "Point", "coordinates": [ 127.722145327599719, 26.200191782094546 ] } },
{ "type": "Feature", "properties": { "P29_001": "47201", "P29_002": "D147220100072", "P29_003": "16004", "P29_004": "沖縄県立泊高等学校", "P29_005": "沖縄県那覇市泊3-19-2", "P29_006": "2", "P29_007": "0", "P29_008": "00", "P29_009": null }, "geometry": { "type": "Point", "coordinates": [ 127.682176482791007, 26.227586830159428 ] } },
{ "type": "Feature", "properties": { "P29_001": "47201", "P29_002": "D147220100081", "P29_003": "16004", "P29_004": "沖縄県立首里東高等学校", "P29_005": "沖縄県那覇市首里石嶺町3-178", "P29_006": "2", "P29_007": "0", "P29_008": "00", "P29_009": null }, "geometry": { "type": "Point", "coordinates": [ 127.724598870296049, 26.229611139990066 ] } },
{ "type": "Feature", "properties": { "P29_001": "47201", "P29_002": "D147220100090", "P29_003": "16004", "P29_004": "沖縄県立那覇西高等学校", "P29_005": "沖縄県那覇市金城3-5-1", "P29_006": "2", "P29_007": "0", "P29_008": "00", "P29_009": null }, "geometry": { "type": "Point", "coordinates": [ 127.665060996828586, 26.200532997963098 ] } },
{ "type": "Feature", "properties": { "P29_001": "47201", "P29_002": "D147220100107", "P29_003": "16004", "P29_004": "沖縄県立那覇国際高等学校", "P29_005": "沖縄県那覇市天久1-29-1", "P29_006": "2", "P29_007": "0", "P29_008": "00", "P29_009": null }, "geometry": { "type": "Point", "coordinates": [ 127.693534516297319, 26.231326964997372 ] } },
{ "type": "Feature", "properties": { "P29_001": "47205", "P29_002": "D147220500014", "P29_003": "16004", "P29_004": "沖縄県立普天間高等学校", "P29_005": "沖縄県宜野湾市普天間1-24-1", "P29_006": "2", "P29_007": "0", "P29_008": "00", "P29_009": null }, "geometry": { "type": "Point", "coordinates": [ 127.777903641075952, 26.291424783816659 ] } },
{ "type": "Feature", "properties": { "P29_001": "47205", "P29_002": "D147220500023", "P29_003": "16004", "P29_004": "沖縄県立中部商業高等学校", "P29_005": "沖縄県宜野湾市我如古2-2-1", "P29_006": "2", "P29_007": "0", "P29_008": "00", "P29_009": null }, "geometry": { "type": "Point", "coordinates": [ 127.755023742557682, 26.256340008664047 ] } },
{ "type": "Feature", "properties": { "P29_001": "47205", "P29_002": "D147220500032", "P29_003": "16004", "P29_004": "沖縄県立宜野湾高等学校", "P29_005": "沖縄県宜野湾市真志喜2-25-1", "P29_006": "2", "P29_007": "0", "P29_008": "00", "P29_009": null }, "geometry": { "type": "Point", "coordinates": [ 127.735897775234449, 26.277280297896006 ] } },
{ "type": "Feature", "properties": { "P29_001": "47207", "P29_002": "D147220700012", "P29_003": "16004", "P29_004": "沖縄県立八重山農林高等学校", "P29_005": "沖縄県石垣市字大川477-1", "P29_006": "2", "P29_007": "0", "P29_008": "00", "P29_009": null }, "geometry": { "type": "Point", "coordinates": [ 124.16410202874674, 24.344979718985844 ] } },
{ "type": "Feature", "properties": { "P29_001": "47207", "P29_002": "D147220700021", "P29_003": "16004", "P29_004": "沖縄県立八重山高等学校", "P29_005": "沖縄県石垣市字登野城275", "P29_006": "2", "P29_007": "0", "P29_008": "00", "P29_009": null }, "geometry": { "type": "Point", "coordinates": [ 124.164623035652653, 24.34192467439512 ] } },
{ "type": "Feature", "properties": { "P29_001": "47207", "P29_002": "D147220700030", "P29_003": "16004", "P29_004": "沖縄県立八重山商工高等学校", "P29_005": "沖縄県石垣市字真栄里180", "P29_006": "2", "P29_007": "0", "P29_008": "00", "P29_009": null }, "geometry": { "type": "Point", "coordinates": [ 124.173356063594909, 24.33381683304399 ] } },
{ "type": "Feature", "properties": { "P29_001": "47208", "P29_002": "D147220800011", "P29_003": "16004", "P29_004": "沖縄県立浦添高等学校", "P29_005": "沖縄県浦添市内間3-26-1", "P29_006": "2", "P29_007": "0", "P29_008": "00", "P29_009": null }, "geometry": { "type": "Point", "coordinates": [ 127.703164437696515, 26.237817125667672 ] } },
{ "type": "Feature", "properties": { "P29_001": "47208", "P29_002": "D147220800020", "P29_003": "16004", "P29_004": "沖縄県立那覇工業高等学校", "P29_005": "沖縄県浦添市勢理客4-22-1", "P29_006": "2", "P29_007": "0", "P29_008": "00", "P29_009": null }, "geometry": { "type": "Point", "coordinates": [ 127.687251003056147, 26.243584000520752 ] } },
{ "type": "Feature", "properties": { "P29_001": "47208", "P29_002": "D147220800039", "P29_003": "16004", "P29_004": "沖縄県立浦添商業高等学校", "P29_005": "沖縄県浦添市伊祖3-11-1", "P29_006": "2", "P29_007": "0", "P29_008": "00", "P29_009": null }, "geometry": { "type": "Point", "coordinates": [ 127.720470001053954, 26.258723000450797 ] } },
{ "type": "Feature", "properties": { "P29_001": "47208", "P29_002": "D147220800048", "P29_003": "16004", "P29_004": "沖縄県立陽明高等学校", "P29_005": "沖縄県浦添市字大平488", "P29_006": "2", "P29_007": "0", "P29_008": "00", "P29_009": null }, "geometry": { "type": "Point", "coordinates": [ 127.711796351490094, 26.243964373955478 ] } },
{ "type": "Feature", "properties": { "P29_001": "47208", "P29_002": "D147220800057", "P29_003": "16004", "P29_004": "沖縄県立浦添工業高等学校", "P29_005": "沖縄県浦添市経塚1-1-1", "P29_006": "2", "P29_007": "0", "P29_008": "00", "P29_009": null }, "geometry": { "type": "Point", "coordinates": [ 127.722246921809116, 26.242652449798928 ] } },
{ "type": "Feature", "properties": { "P29_001": "47209", "P29_002": "D147220900010", "P29_003": "16004", "P29_004": "沖縄県立名護高等学校", "P29_005": "沖縄県名護市大西5-17-1", "P29_006": "2", "P29_007": "0", "P29_008": "00", "P29_009": null }, "geometry": { "type": "Point", "coordinates": [ 127.985114951657451, 26.602159984925482 ] } },
{ "type": "Feature", "properties": { "P29_001": "47209", "P29_002": "D147220900029", "P29_003": "16004", "P29_004": "沖縄県立北部農林高等学校", "P29_005": "沖縄県名護市字宇茂佐13", "P29_006": "2", "P29_007": "0", "P29_008": "00", "P29_009": null }, "geometry": { "type": "Point", "coordinates": [ 127.962770442499334, 26.594064663308949 ] } },
{ "type": "Feature", "properties": { "P29_001": "47209", "P29_002": "D147220900038", "P29_003": "16004", "P29_004": "沖縄県立名護商工高等学校", "P29_005": "沖縄県名護市大北4-1-23", "P29_006": "2", "P29_007": "0", "P29_008": "00", "P29_009": null }, "geometry": { "type": "Point", "coordinates": [ 127.990259788962476, 26.603078427841044 ] } },
{ "type": "Feature", "properties": { "P29_001": "47210", "P29_002": "D147221000017", "P29_003": "16004", "P29_004": "沖縄県立沖縄水産高等学校", "P29_005": "沖縄県糸満市西崎1-1-1", "P29_006": "2", "P29_007": "0", "P29_008": "00", "P29_009": null }, "geometry": { "type": "Point", "coordinates": [ 127.666217279732507, 26.136048008215941 ] } },
{ "type": "Feature", "properties": { "P29_001": "47210", "P29_002": "D147221000026", "P29_003": "16004", "P29_004": "沖縄県立糸満高等学校", "P29_005": "沖縄県糸満市字糸満1696-1", "P29_006": "2", "P29_007": "0", "P29_008": "00", "P29_009": null }, "geometry": { "type": "Point", "coordinates": [ 127.676702002321591, 26.128789996534373 ] } },
{ "type": "Feature", "properties": { "P29_001": "47211", "P29_002": "D147221100016", "P29_003": "16004", "P29_004": "沖縄県立コザ高等学校", "P29_005": "沖縄県沖縄市照屋5-5-1", "P29_006": "2", "P29_007": "0", "P29_008": "00", "P29_009": null }, "geometry": { "type": "Point", "coordinates": [ 127.819566626873254, 26.332189354012595 ] } },
{ "type": "Feature", "properties": { "P29_001": "47211", "P29_002": "D147221100025", "P29_003": "16004", "P29_004": "沖縄県立美来工科高等学校", "P29_005": "沖縄県沖縄市越来3-17-1", "P29_006": "2", "P29_007": "0", "P29_008": "00", "P29_009": null }, "geometry": { "type": "Point", "coordinates": [ 127.809126998925436, 26.348467003704609 ] } },
{ "type": "Feature", "properties": { "P29_001": "47211", "P29_002": "D147221100034", "P29_003": "16004", "P29_004": "沖縄県立美里工業高等学校", "P29_005": "沖縄県沖縄市泡瀬5-42-2", "P29_006": "2", "P29_007": "0", "P29_008": "00", "P29_009": null }, "geometry": { "type": "Point", "coordinates": [ 127.829541999279726, 26.325635996396915 ] } },
{ "type": "Feature", "properties": { "P29_001": "47211", "P29_002": "D147221100043", "P29_003": "16004", "P29_004": "沖縄県立美里高等学校", "P29_005": "沖縄県沖縄市松本2-5-1", "P29_006": "2", "P29_007": "0", "P29_008": "00", "P29_009": null }, "geometry": { "type": "Point", "coordinates": [ 127.820208999024516, 26.354883000428014 ] } },
{ "type": "Feature", "properties": { "P29_001": "47211", "P29_002": "D147221100052", "P29_003": "16004", "P29_004": "沖縄県立球陽高等学校", "P29_005": "沖縄県沖縄市南桃原1-10-1", "P29_006": "2", "P29_007": "0", "P29_008": "00", "P29_009": null }, "geometry": { "type": "Point", "coordinates": [ 127.785073999609423, 26.319274997580912 ] } },
{ "type": "Feature", "properties": { "P29_001": "47212", "P29_002": "D147221200015", "P29_003": "16004", "P29_004": "沖縄県立南部農林高等学校", "P29_005": "沖縄県豊見城市字長堂182", "P29_006": "2", "P29_007": "0", "P29_008": "00", "P29_009": null }, "geometry": { "type": "Point", "coordinates": [ 127.70793236098973, 26.184575793667996 ] } },
{ "type": "Feature", "properties": { "P29_001": "47212", "P29_002": "D147221200024", "P29_003": "16004", "P29_004": "沖縄県立豊見城高等学校", "P29_005": "沖縄県豊見城市字真玉橋217", "P29_006": "2", "P29_007": "0", "P29_008": "00", "P29_009": null }, "geometry": { "type": "Point", "coordinates": [ 127.689264792633168, 26.19244258806021 ] } },
{ "type": "Feature", "properties": { "P29_001": "47212", "P29_002": "D147221200033", "P29_003": "16004", "P29_004": "沖縄県立豊見城南高等学校", "P29_005": "沖縄県豊見城市字翁長520", "P29_006": "2", "P29_007": "0", "P29_008": "00", "P29_009": null }, "geometry": { "type": "Point", "coordinates": [ 127.672119002892927, 26.160593003412405 ] } },
{ "type": "Feature", "properties": { "P29_001": "47213", "P29_002": "D147221300014", "P29_003": "16004", "P29_004": "沖縄県立石川高等学校", "P29_005": "沖縄県うるま市石川伊波861", "P29_006": "2", "P29_007": "0", "P29_008": "00", "P29_009": null }, "geometry": { "type": "Point", "coordinates": [ 127.82060022605107, 26.415345090907067 ] } },
{ "type": "Feature", "properties": { "P29_001": "47213", "P29_002": "D147221300023", "P29_003": "16004", "P29_004": "沖縄県立前原高等学校", "P29_005": "沖縄県うるま市字田場1827", "P29_006": "2", "P29_007": "0", "P29_008": "00", "P29_009": null }, "geometry": { "type": "Point", "coordinates": [ 127.861259998016891, 26.372437998139382 ] } },
{ "type": "Feature", "properties": { "P29_001": "47213", "P29_002": "D147221300032", "P29_003": "16004", "P29_004": "沖縄県立中部農林高等学校", "P29_005": "沖縄県うるま市字田場1570", "P29_006": "2", "P29_007": "0", "P29_008": "00", "P29_009": null }, "geometry": { "type": "Point", "coordinates": [ 127.855218914068843, 26.371713527018915 ] } },
{ "type": "Feature", "properties": { "P29_001": "47213", "P29_002": "D147221300041", "P29_003": "16004", "P29_004": "沖縄県立具志川商業高等学校", "P29_005": "沖縄県うるま市みどり町6-10-1", "P29_006": "2", "P29_007": "0", "P29_008": "00", "P29_009": null }, "geometry": { "type": "Point", "coordinates": [ 127.853595904961821, 26.380422051131589 ] } },
{ "type": "Feature", "properties": { "P29_001": "47213", "P29_002": "D147221300050", "P29_003": "16004", "P29_004": "沖縄県立与勝高等学校", "P29_005": "沖縄県うるま市勝連平安名3248", "P29_006": "2", "P29_007": "0", "P29_008": "00", "P29_009": null }, "geometry": { "type": "Point", "coordinates": [ 127.894867687766933, 26.312869979561981 ] } },
{ "type": "Feature", "properties": { "P29_001": "47213", "P29_002": "D147221300069", "P29_003": "16004", "P29_004": "沖縄県立具志川高等学校", "P29_005": "沖縄県うるま市喜仲3-28-1", "P29_006": "2", "P29_007": "0", "P29_008": "00", "P29_009": null }, "geometry": { "type": "Point", "coordinates": [ 127.845087731025785, 26.353954661861042 ] } },
{ "type": "Feature", "properties": { "P29_001": "47214", "P29_002": "D147221400013", "P29_003": "16004", "P29_004": "沖縄県立宮古高等学校", "P29_005": "沖縄県宮古島市平良字西里718-1", "P29_006": "2", "P29_007": "0", "P29_008": "00", "P29_009": null }, "geometry": { "type": "Point", "coordinates": [ 125.286674566041313, 24.798048845948113 ] } },
{ "type": "Feature", "properties": { "P29_001": "47214", "P29_002": "D147221400022", "P29_003": "16004", "P29_004": "沖縄県立宮古工業高等学校", "P29_005": "沖縄県宮古島市平良字東仲宗根968-4", "P29_006": "2", "P29_007": "0", "P29_008": "00", "P29_009": null }, "geometry": { "type": "Point", "coordinates": [ 125.300372686722639, 24.799060024031089 ] } },
{ "type": "Feature", "properties": { "P29_001": "47214", "P29_002": "D147221400040", "P29_003": "16004", "P29_004": "沖縄県立宮古総合実業高等学校", "P29_005": "沖縄県宮古島市平良字下里280", "P29_006": "2", "P29_007": "0", "P29_008": "00", "P29_009": null }, "geometry": { "type": "Point", "coordinates": [ 125.275440000496673, 24.801184999042377 ] } },
{ "type": "Feature", "properties": { "P29_001": "47302", "P29_002": "D147230200016", "P29_003": "16004", "P29_004": "沖縄県立辺土名高等学校", "P29_005": "沖縄県国頭郡大宜味村字饒波2015", "P29_006": "2", "P29_007": "0", "P29_008": "00", "P29_009": null }, "geometry": { "type": "Point", "coordinates": [ 128.13084815400066, 26.703071263903169 ] } },
{ "type": "Feature", "properties": { "P29_001": "47306", "P29_002": "D147230600012", "P29_003": "16004", "P29_004": "沖縄県立北山高等学校", "P29_005": "沖縄県国頭郡今帰仁村字仲尾次540-1", "P29_006": "2", "P29_007": "0", "P29_008": "00", "P29_009": null }, "geometry": { "type": "Point", "coordinates": [ 127.953605720717263, 26.692600807361814 ] } },
{ "type": "Feature", "properties": { "P29_001": "47308", "P29_002": "D147230800010", "P29_003": "16004", "P29_004": "沖縄県立本部高等学校", "P29_005": "沖縄県国頭郡本部町字渡久地377", "P29_006": "2", "P29_007": "0", "P29_008": "00", "P29_009": null }, "geometry": { "type": "Point", "coordinates": [ 127.896322678432, 26.663213155906391 ] } },
{ "type": "Feature", "properties": { "P29_001": "47313", "P29_002": "D147231300013", "P29_003": "16004", "P29_004": "沖縄県立宜野座高等学校", "P29_005": "沖縄県国頭郡宜野座村字宜野座1", "P29_006": "2", "P29_007": "0", "P29_008": "00", "P29_009": null }, "geometry": { "type": "Point", "coordinates": [ 127.978107093189735, 26.483116781051354 ] } },
{ "type": "Feature", "properties": { "P29_001": "47324", "P29_002": "D147232400010", "P29_003": "16004", "P29_004": "沖縄県立読谷高等学校", "P29_005": "沖縄県中頭郡読谷村字伊良皆198", "P29_006": "2", "P29_007": "0", "P29_008": "00", "P29_009": null }, "geometry": { "type": "Point", "coordinates": [ 127.752656379535665, 26.382922772493021 ] } },
{ "type": "Feature", "properties": { "P29_001": "47325", "P29_002": "D147232500019", "P29_003": "16004", "P29_004": "沖縄県立嘉手納高等学校", "P29_005": "沖縄県中頭郡嘉手納町字屋良806", "P29_006": "2", "P29_007": "0", "P29_008": "00", "P29_009": null }, "geometry": { "type": "Point", "coordinates": [ 127.766823997540087, 26.368214002398069 ] } },
{ "type": "Feature", "properties": { "P29_001": "47326", "P29_002": "D147232600018", "P29_003": "16004", "P29_004": "沖縄県立北谷高等学校", "P29_005": "沖縄県中頭郡北谷町字桑江414", "P29_006": "2", "P29_007": "0", "P29_008": "00", "P29_009": null }, "geometry": { "type": "Point", "coordinates": [ 127.764745033237773, 26.322025964327388 ] } },
{ "type": "Feature", "properties": { "P29_001": "47327", "P29_002": "D147232700017", "P29_003": "16004", "P29_004": "沖縄県立北中城高等学校", "P29_005": "沖縄県中頭郡北中城村字渡口1997-13", "P29_006": "2", "P29_007": "0", "P29_008": "00", "P29_009": null }, "geometry": { "type": "Point", "coordinates": [ 127.814846772058075, 26.304778085335354 ] } },
{ "type": "Feature", "properties": { "P29_001": "47329", "P29_002": "D147232900015", "P29_003": "16004", "P29_004": "沖縄県立西原高等学校", "P29_005": "沖縄県中頭郡西原町字翁長610", "P29_006": "2", "P29_007": "0", "P29_008": "00", "P29_009": null }, "geometry": { "type": "Point", "coordinates": [ 127.750849888924677, 26.238813556598551 ] } },
{ "type": "Feature", "properties": { "P29_001": "47348", "P29_002": "D147234800012", "P29_003": "16004", "P29_004": "沖縄県立知念高等学校", "P29_005": "沖縄県島尻郡与那原町字与那原11", "P29_006": "2", "P29_007": "0", "P29_008": "00", "P29_009": null }, "geometry": { "type": "Point", "coordinates": [ 127.764945904896109, 26.200162600370597 ] } },
{ "type": "Feature", "properties": { "P29_001": "47350", "P29_002": "D147235000017", "P29_003": "16004", "P29_004": "沖縄県立南風原高等学校", "P29_005": "沖縄県島尻郡南風原町字津嘉山1140", "P29_006": "2", "P29_007": "0", "P29_008": "00", "P29_009": null }, "geometry": { "type": "Point", "coordinates": [ 127.71518420726575, 26.196084940441352 ] } },
{ "type": "Feature", "properties": { "P29_001": "47350", "P29_002": "D147235000026", "P29_003": "16004", "P29_004": "沖縄県立開邦高等学校", "P29_005": "沖縄県島尻郡南風原町字新川646", "P29_006": "2", "P29_007": "0", "P29_008": "00", "P29_009": null }, "geometry": { "type": "Point", "coordinates": [ 127.7323310082907, 26.217371676401111 ] } },
{ "type": "Feature", "properties": { "P29_001": "47361", "P29_002": "D147236100014", "P29_003": "16004", "P29_004": "沖縄県立久米島高等学校", "P29_005": "沖縄県島尻郡久米島町字嘉手苅727", "P29_006": "2", "P29_007": "0", "P29_008": "00", "P29_009": null }, "geometry": { "type": "Point", "coordinates": [ 126.761655901363525, 26.337682477639056 ] } },
{ "type": "Feature", "properties": { "P29_001": "47362", "P29_002": "D147236200013", "P29_003": "16004", "P29_004": "沖縄県立南部工業高等学校", "P29_005": "沖縄県島尻郡八重瀬町字富盛1338", "P29_006": "2", "P29_007": "0", "P29_008": "00", "P29_009": null }, "geometry": { "type": "Point", "coordinates": [ 127.72730149765458, 26.137302199304077 ] } },
{ "type": "Feature", "properties": { "P29_001": "47362", "P29_002": "D147236200022", "P29_003": "16004", "P29_004": "沖縄県立南部商業高等学校", "P29_005": "沖縄県島尻郡八重瀬町字友寄850", "P29_006": "2", "P29_007": "0", "P29_008": "00", "P29_009": null }, "geometry": { "type": "Point", "coordinates": [ 127.723046722141561, 26.17079856148661 ] } },
{ "type": "Feature", "properties": { "P29_001": "47362", "P29_002": "D147236200031", "P29_003": "16004", "P29_004": "沖縄県立向陽高等学校", "P29_005": "沖縄県島尻郡八重瀬町字港川150", "P29_006": "2", "P29_007": "0", "P29_008": "00", "P29_009": null }, "geometry": { "type": "Point", "coordinates": [ 127.755029002152014, 26.126735999154342 ] } },
{ "type": "Feature", "properties": { "P29_001": "47201", "P29_002": "D147320100016", "P29_003": "16004", "P29_004": "沖縄尚学高等学校", "P29_005": "沖縄県那覇市字国場747", "P29_006": "4", "P29_007": "0", "P29_008": "00", "P29_009": null }, "geometry": { "type": "Point", "coordinates": [ 127.699406625317039, 26.200123647087668 ] } },
{ "type": "Feature", "properties": { "P29_001": "47201", "P29_002": "D147320100025", "P29_003": "16004", "P29_004": "興南高等学校", "P29_005": "沖縄県那覇市古島1-7-1", "P29_006": "4", "P29_007": "0", "P29_008": "00", "P29_009": null }, "geometry": { "type": "Point", "coordinates": [ 127.703606313226274, 26.228475750721543 ] } },
{ "type": "Feature", "properties": { "P29_001": "47201", "P29_002": "D147320100034", "P29_003": "16004", "P29_004": "つくば開成国際高等学校", "P29_005": "沖縄県那覇市樋川2-5-1", "P29_006": "4", "P29_007": "0", "P29_008": "00", "P29_009": null }, "geometry": { "type": "Point", "coordinates": [ 127.690964004268039, 26.211216001506202 ] } },
{ "type": "Feature", "properties": { "P29_001": "47205", "P29_002": "D147320500012", "P29_003": "16004", "P29_004": "沖縄カトリック高等学校", "P29_005": "沖縄県宜野湾市真栄原3-16-1", "P29_006": "4", "P29_007": "0", "P29_008": "00", "P29_009": null }, "geometry": { "type": "Point", "coordinates": [ 127.744882997099253, 26.261257941013238 ] } },
{ "type": "Feature", "properties": { "P29_001": "47207", "P29_002": "D147320700010", "P29_003": "16004", "P29_004": "瑞穂ＭＳＣ高等学校", "P29_005": "沖縄県石垣市新栄町6-18", "P29_006": "4", "P29_007": "0", "P29_008": "00", "P29_009": null }, "geometry": { "type": "Point", "coordinates": [ 124.152421559693465, 24.342025508911945 ] } },
{ "type": "Feature", "properties": { "P29_001": "47208", "P29_002": "D147320800019", "P29_003": "16004", "P29_004": "昭和薬科大学附属高等学校", "P29_005": "沖縄県浦添市字沢岻450", "P29_006": "4", "P29_007": "0", "P29_008": "00", "P29_009": null }, "geometry": { "type": "Point", "coordinates": [ 127.713110001983807, 26.23833499929458 ] } },
{ "type": "Feature", "properties": { "P29_001": "47209", "P29_002": "D147320900018", "P29_003": "16004", "P29_004": "ヒューマンキャンパス高等学校", "P29_005": "沖縄県名護市三原263", "P29_006": "4", "P29_007": "0", "P29_008": "00", "P29_009": null }, "geometry": { "type": "Point", "coordinates": [ 128.076554004835174, 26.55803800182731 ] } },
{ "type": "Feature", "properties": { "P29_001": "47211", "P29_002": "D147321100014", "P29_003": "16004", "P29_004": "仙台育英学園沖縄高等学校", "P29_005": "沖縄県沖縄市胡屋2-6-17", "P29_006": "4", "P29_007": "0", "P29_008": "00", "P29_009": null }, "geometry": { "type": "Point", "coordinates": [ 127.800544532632586, 26.334209888415465 ] } },
{ "type": "Feature", "properties": { "P29_001": "47213", "P29_002": "D147321300012", "P29_003": "16004", "P29_004": "Ｎ高等学校", "P29_005": "沖縄県うるま市与那城伊計224", "P29_006": "4", "P29_007": "0", "P29_008": "00", "P29_009": null }, "geometry": { "type": "Point", "coordinates": [ 127.994353998167284, 26.386263000964608 ] } },
{ "type": "Feature", "properties": { "P29_001": "47308", "P29_002": "D147330800018", "P29_003": "16004", "P29_004": "八洲学園大学国際高等学校", "P29_005": "沖縄県国頭郡本部町備瀬1249", "P29_006": "4", "P29_007": "0", "P29_008": "00", "P29_009": null }, "geometry": { "type": "Point", "coordinates": [ 127.88347107548023, 26.69535331771398 ] } }
]
}
