{
"type": "FeatureCollection",
"name": "geo_47_認知症対応型通所介護",
"crs": { "type": "name", "properties": { "name": "urn:ogc:def:crs:OGC:1.3:CRS84" } },
"features": [
{ "type": "Feature", "properties": { "内容": "デイサービスふれあい楚辺【認知症対応型通所介護】沖縄県那覇市楚辺２－３０－２", "url": "https://www.kaigokensaku.mhlw.go.jp/47/index.php?action_kouhyou_detail_004_kani=true&JigyosyoCd=4790100251-00&ServiceCd=720&Type=search", "url2": "http://fureai-kaigo.com/" }, "geometry": { "type": "Point", "coordinates": [ 127.6873015, 26.2032303 ] } },
{ "type": "Feature", "properties": { "内容": "認知症対応型通所グループホームたけとんぼ【認知症対応型通所介護】沖縄県那覇市国場911-2", "url": "https://www.kaigokensaku.mhlw.go.jp/47/index.php?action_kouhyou_detail_004_kani=true&JigyosyoCd=4790100228-00&ServiceCd=720&Type=search", "url2": "http://nankurugroup.com/" }, "geometry": { "type": "Point", "coordinates": [ 127.698481500000085, 26.1986729 ] } },
{ "type": "Feature", "properties": { "内容": "認知症デイサービスひやみかち小禄【認知症対応型通所介護】沖縄県那覇市字小禄172番地1", "url": "https://www.kaigokensaku.mhlw.go.jp/47/index.php?action_kouhyou_detail_004_kani=true&JigyosyoCd=4790100277-00&ServiceCd=720&Type=search", "url2": "hiyamikati_ork@mist.ocn.ne.jp" }, "geometry": { "type": "Point", "coordinates": [ 127.6745764, 26.1962619 ] } },
{ "type": "Feature", "properties": { "内容": "ライブリーハウス【認知症対応型通所介護】沖縄県那覇市古波蔵三丁目５番３５号", "url": "https://www.kaigokensaku.mhlw.go.jp/47/index.php?action_kouhyou_detail_004_kani=true&JigyosyoCd=4770100164-00&ServiceCd=720&Type=search", "url2": null }, "geometry": { "type": "Point", "coordinates": [ 127.683588099999966, 26.2010527 ] } },
{ "type": "Feature", "properties": { "内容": "グループホーム真栄原2丁目【認知症対応型通所介護】宜野湾市真栄原2-25-10", "url": "https://www.kaigokensaku.mhlw.go.jp/47/index.php?action_kouhyou_detail_004_kani=true&JigyosyoCd=4790500104-00&ServiceCd=720&Type=search", "url2": null }, "geometry": { "type": "Point", "coordinates": [ 127.738578, 26.2609281 ] } },
{ "type": "Feature", "properties": { "内容": "ふれあいデイサービス我如古【認知症対応型通所介護】沖縄県宜野湾市我如古402番地ケアビレッジふれあい我如古", "url": "https://www.kaigokensaku.mhlw.go.jp/47/index.php?action_kouhyou_detail_004_kani=true&JigyosyoCd=4790500146-00&ServiceCd=720&Type=search", "url2": null }, "geometry": { "type": "Point", "coordinates": [ 127.7466603, 26.2602475 ] } },
{ "type": "Feature", "properties": { "内容": "デイサービス若松ぎのわん【認知症対応型通所介護】沖縄県宜野湾市新城1丁目20番6号", "url": "https://www.kaigokensaku.mhlw.go.jp/47/index.php?action_kouhyou_detail_004_kani=true&JigyosyoCd=4790500062-00&ServiceCd=720&Type=search", "url2": "www.agape-wakamatsu.or.jp" }, "geometry": { "type": "Point", "coordinates": [ 127.771642899999961, 26.2884078 ] } },
{ "type": "Feature", "properties": { "内容": "ふれあいデイサービス長田【認知症対応型通所介護】沖縄県宜野湾市長田1丁目4番9号ふれあい介護センター　長田事業所", "url": "https://www.kaigokensaku.mhlw.go.jp/47/index.php?action_kouhyou_detail_004_kani=true&JigyosyoCd=4790500021-00&ServiceCd=720&Type=search", "url2": "http:fureai-kaigo.com" }, "geometry": { "type": "Point", "coordinates": [ 127.766027800000074, 26.2643263 ] } },
{ "type": "Feature", "properties": { "内容": "デイサービス　あらかわ【認知症対応型通所介護】沖縄県石垣市字新川2372－11", "url": "https://www.kaigokensaku.mhlw.go.jp/47/index.php?action_kouhyou_detail_004_kani=true&JigyosyoCd=4770700229-00&ServiceCd=720&Type=search", "url2": "https://www.kariyushi-hp.com/" }, "geometry": { "type": "Point", "coordinates": [ 124.1433594, 24.3516825 ] } },
{ "type": "Feature", "properties": { "内容": "デイサービス　かびら【認知症対応型通所介護】石垣市川平559-1", "url": "https://www.kaigokensaku.mhlw.go.jp/47/index.php?action_kouhyou_detail_004_kani=true&JigyosyoCd=4790700035-00&ServiceCd=720&Type=search", "url2": "https://www.kariyushi-hp.com/" }, "geometry": { "type": "Point", "coordinates": [ 124.134905800000084, 24.4644149 ] } },
{ "type": "Feature", "properties": { "内容": "デイサービスハピネス高田【認知症対応型通所介護】沖縄県石垣市字真栄里４３６番地１０", "url": "https://www.kaigokensaku.mhlw.go.jp/47/index.php?action_kouhyou_detail_004_kani=true&JigyosyoCd=4790700118-00&ServiceCd=720&Type=search", "url2": "happiness901.com" }, "geometry": { "type": "Point", "coordinates": [ 124.187631300000021, 24.3412829 ] } },
{ "type": "Feature", "properties": { "内容": "デイサービス浦西【認知症対応型通所介護】沖縄県浦添市当山1-17-7-", "url": "https://www.kaigokensaku.mhlw.go.jp/47/index.php?action_kouhyou_detail_004_kani=true&JigyosyoCd=4790800082-00&ServiceCd=720&Type=search", "url2": null }, "geometry": { "type": "Point", "coordinates": [ 127.731002453752637, 26.251872806814763 ] } },
{ "type": "Feature", "properties": { "内容": "認知症対応型通所介護　ひだまり【認知症対応型通所介護】沖縄県名護市大西三丁目１９番地４２号", "url": "https://www.kaigokensaku.mhlw.go.jp/47/index.php?action_kouhyou_detail_004_kani=true&JigyosyoCd=4790900015-00&ServiceCd=720&Type=search", "url2": null }, "geometry": { "type": "Point", "coordinates": [ 127.983779499999955, 26.598435 ] } },
{ "type": "Feature", "properties": { "内容": "認知症対応型通所介護　デイサービス希新【認知症対応型通所介護】沖縄県名護市大東1丁目6番16号1F", "url": "https://www.kaigokensaku.mhlw.go.jp/47/index.php?action_kouhyou_detail_004_kani=true&JigyosyoCd=4790900148-00&ServiceCd=720&Type=search", "url2": "https://www.peoplelad-okinawa.com" }, "geometry": { "type": "Point", "coordinates": [ 127.987416, 26.5885217 ] } },
{ "type": "Feature", "properties": { "内容": "デイサービスセンター寿【認知症対応型通所介護】沖縄県糸満市字真栄里３２３番地", "url": "https://www.kaigokensaku.mhlw.go.jp/47/index.php?action_kouhyou_detail_004_kani=true&JigyosyoCd=4771000066-00&ServiceCd=720&Type=search", "url2": "http://www.okinawa-senjukai.com/" }, "geometry": { "type": "Point", "coordinates": [ 127.671029501852445, 26.117768783395327 ] } },
{ "type": "Feature", "properties": { "内容": "デイサービス　日々草【認知症対応型通所介護】字武富595-272", "url": "https://www.kaigokensaku.mhlw.go.jp/47/index.php?action_kouhyou_detail_004_kani=true&JigyosyoCd=4771000348-00&ServiceCd=720&Type=search", "url2": "http://www.nichi-nichi.okinawa/" }, "geometry": { "type": "Point", "coordinates": [ 127.705720700000043, 26.1661334 ] } },
{ "type": "Feature", "properties": { "内容": "デイサービスセンター　心若苑（みわか苑）【認知症対応型通所介護】沖縄県沖縄市山里2丁目7番2号おおやまビル１Ｆ", "url": "https://www.kaigokensaku.mhlw.go.jp/47/index.php?action_kouhyou_detail_004_kani=true&JigyosyoCd=4790400198-00&ServiceCd=720&Type=search", "url2": "http://www.ojp.co.jp" }, "geometry": { "type": "Point", "coordinates": [ 127.7921682, 26.3225647 ] } },
{ "type": "Feature", "properties": { "内容": "たぴっくデイサービスセンター【認知症対応型通所介護】沖縄県沖縄市比屋根二丁目１番２２号たぴっく地域ケアホームひやごん1階", "url": "https://www.kaigokensaku.mhlw.go.jp/47/index.php?action_kouhyou_detail_004_kani=true&JigyosyoCd=4790400339-00&ServiceCd=720&Type=search", "url2": null }, "geometry": { "type": "Point", "coordinates": [ 127.824604391986966, 26.315280951357035 ] } },
{ "type": "Feature", "properties": { "内容": "デイサービスセンターすみれ【認知症対応型通所介護】沖縄県豊見城市字渡嘉敷150番地おもととよみの杜　2階", "url": "https://www.kaigokensaku.mhlw.go.jp/47/index.php?action_kouhyou_detail_004_kani=true&JigyosyoCd=4772800035-00&ServiceCd=720&Type=search", "url2": "http://www.omotokai.or.jp" }, "geometry": { "type": "Point", "coordinates": [ 127.683421, 26.1727698 ] } },
{ "type": "Feature", "properties": { "内容": "認知症対応型デイサービス千家【認知症対応型通所介護】沖縄県うるま市勝連南風原4090番地", "url": "https://www.kaigokensaku.mhlw.go.jp/47/index.php?action_kouhyou_detail_004_kani=true&JigyosyoCd=4790300091-00&ServiceCd=720&Type=search", "url2": null }, "geometry": { "type": "Point", "coordinates": [ 127.882372700000019, 26.3342538 ] } },
{ "type": "Feature", "properties": { "内容": "グループホームease【認知症対応型通所介護】沖縄県うるま市字宇堅１３２２-1", "url": "https://www.kaigokensaku.mhlw.go.jp/47/index.php?action_kouhyou_detail_004_kani=true&JigyosyoCd=4790300216-00&ServiceCd=720&Type=search", "url2": "http//uruma-sato.com" }, "geometry": { "type": "Point", "coordinates": [ 127.8736329, 26.3779961 ] } },
{ "type": "Feature", "properties": { "内容": "デイサービスひふみ【認知症対応型通所介護】沖縄県うるま市石川伊波１０２３番地３ｸﾞﾙｰﾌﾟﾎｰﾑひふみ", "url": "https://www.kaigokensaku.mhlw.go.jp/47/index.php?action_kouhyou_detail_004_kani=true&JigyosyoCd=4790300224-00&ServiceCd=720&Type=search", "url2": "http://www.irohanomori.com/" }, "geometry": { "type": "Point", "coordinates": [ 127.8127512, 26.4266902 ] } },
{ "type": "Feature", "properties": { "内容": "デイサービスかえで【認知症対応型通所介護】沖縄県うるま市兼箇段９２２グループホームかえで", "url": "https://www.kaigokensaku.mhlw.go.jp/47/index.php?action_kouhyou_detail_004_kani=true&JigyosyoCd=4790300125-00&ServiceCd=720&Type=search", "url2": "http://www.gh-kaede.com/" }, "geometry": { "type": "Point", "coordinates": [ 127.84289, 26.3678825 ] } },
{ "type": "Feature", "properties": { "内容": "認知症対応型共同生活介護ひまわり宮城【認知症対応型通所介護】与那城宮城１２２番地２", "url": "https://www.kaigokensaku.mhlw.go.jp/47/index.php?action_kouhyou_detail_004_kani=true&JigyosyoCd=4790300240-00&ServiceCd=720&Type=search", "url2": null }, "geometry": { "type": "Point", "coordinates": [ 127.9916978, 26.3649413 ] } },
{ "type": "Feature", "properties": { "内容": "デイホームいろは【認知症対応型通所介護】沖縄県うるま市字仲嶺２９８番地２グループホームいろは", "url": "https://www.kaigokensaku.mhlw.go.jp/47/index.php?action_kouhyou_detail_004_kani=true&JigyosyoCd=4790300075-00&ServiceCd=720&Type=search", "url2": "info-iroha@yellow.plala.or.jp" }, "geometry": { "type": "Point", "coordinates": [ 127.852294900000061, 26.3598362 ] } },
{ "type": "Feature", "properties": { "内容": "認知症対応型通所介護　ひまわりケアサービス【認知症対応型通所介護】沖縄県うるま市字具志川１３４５番地１", "url": "https://www.kaigokensaku.mhlw.go.jp/47/index.php?action_kouhyou_detail_004_kani=true&JigyosyoCd=4770300277-00&ServiceCd=720&Type=search", "url2": null }, "geometry": { "type": "Point", "coordinates": [ 127.8738376, 26.3452524 ] } },
{ "type": "Feature", "properties": { "内容": "グループホーム　やすらぎの家【認知症対応型通所介護】沖縄県うるま市勝連南風原４９１４番地", "url": "https://www.kaigokensaku.mhlw.go.jp/47/index.php?action_kouhyou_detail_004_kani=true&JigyosyoCd=4772100048-00&ServiceCd=720&Type=search", "url2": "http://www.yokatsu.okinawa" }, "geometry": { "type": "Point", "coordinates": [ 127.877515, 26.342514 ] } },
{ "type": "Feature", "properties": { "内容": "地域支援ホーム津堅いこいの家【認知症対応型通所介護】沖縄県うるま市勝連津堅１１４４番地", "url": "https://www.kaigokensaku.mhlw.go.jp/47/index.php?action_kouhyou_detail_004_kani=true&JigyosyoCd=4790300042-00&ServiceCd=720&Type=search", "url2": "http://www.yokatsu.okinawa" }, "geometry": { "type": "Point", "coordinates": [ 127.938977499999964, 26.2485302 ] } },
{ "type": "Feature", "properties": { "内容": "デイサービスみなみ【認知症対応型通所介護】沖縄県宮古島市平良字下里3107番地の364", "url": "https://www.kaigokensaku.mhlw.go.jp/47/index.php?action_kouhyou_detail_004_kani=true&JigyosyoCd=4795500042-00&ServiceCd=720&Type=search", "url2": null }, "geometry": { "type": "Point", "coordinates": [ 125.309701, 24.782854 ] } },
{ "type": "Feature", "properties": { "内容": "デイサービス　あまね【認知症対応型通所介護】沖縄県島尻郡南城市玉城字屋嘉部455番地1", "url": "https://www.kaigokensaku.mhlw.go.jp/47/index.php?action_kouhyou_detail_004_kani=true&JigyosyoCd=4795600024-00&ServiceCd=720&Type=search", "url2": "qqfw5fy9k@chive.ocn.ne.jp" }, "geometry": { "type": "Point", "coordinates": [ 131.233723599999962, 25.8291094 ] } },
{ "type": "Feature", "properties": { "内容": "通所介護鏡地【認知症対応型通所介護】国頭村字鏡地172番地2", "url": "https://www.kaigokensaku.mhlw.go.jp/47/index.php?action_kouhyou_detail_004_kani=true&JigyosyoCd=4791100045-00&ServiceCd=720&Type=search", "url2": null }, "geometry": { "type": "Point", "coordinates": [ 128.162988399999989, 26.7308002 ] } },
{ "type": "Feature", "properties": { "内容": "通所介護ほしくぼ【認知症対応型通所介護】沖縄県国頭郡今帰仁村湧川1578-3グループホームほしくぼ", "url": "https://www.kaigokensaku.mhlw.go.jp/47/index.php?action_kouhyou_detail_004_kani=true&JigyosyoCd=4771400035-00&ServiceCd=720&Type=search", "url2": null }, "geometry": { "type": "Point", "coordinates": [ 127.980525100000023, 26.6603573 ] } },
{ "type": "Feature", "properties": { "内容": "デイサービス　かるすと【認知症対応型通所介護】国頭郡本部町豊原262番地4", "url": "https://www.kaigokensaku.mhlw.go.jp/47/index.php?action_kouhyou_detail_004_kani=true&JigyosyoCd=4771500040-00&ServiceCd=720&Type=search", "url2": null }, "geometry": { "type": "Point", "coordinates": [ 127.888981300000083, 26.6816539 ] } },
{ "type": "Feature", "properties": { "内容": "認知症対応型グループホーム結の郷【認知症対応型通所介護】1180-1結の郷", "url": "https://www.kaigokensaku.mhlw.go.jp/47/index.php?action_kouhyou_detail_004_kani=true&JigyosyoCd=4792400030-00&ServiceCd=720&Type=search", "url2": null }, "geometry": { "type": "Point", "coordinates": [ 138.207194, 36.653594 ] } },
{ "type": "Feature", "properties": { "内容": "グループホームわかまつ【認知症対応型通所介護】沖縄県北中城字喜舎場360番地１", "url": "https://www.kaigokensaku.mhlw.go.jp/47/index.php?action_kouhyou_detail_004_kani=true&JigyosyoCd=4772500056-00&ServiceCd=720&Type=search", "url2": "http://www.agape-wakamatsu.or.jp" }, "geometry": { "type": "Point", "coordinates": [ 127.793588107934553, 26.300233509118407 ] } },
{ "type": "Feature", "properties": { "内容": "デイサービス事業所　とことん【認知症対応型通所介護】沖縄県島尻郡与那原町字上与那原431番地5", "url": "https://www.kaigokensaku.mhlw.go.jp/47/index.php?action_kouhyou_detail_004_kani=true&JigyosyoCd=4793400021-00&ServiceCd=720&Type=search", "url2": "tokoton2963.jimdofree.com" }, "geometry": { "type": "Point", "coordinates": [ 127.748601698147596, 26.200626110631685 ] } },
{ "type": "Feature", "properties": { "内容": "まがい友遊宛【認知症対応型通所介護】沖縄県島尻郡久米島町字真我里366番地", "url": "https://www.kaigokensaku.mhlw.go.jp/47/index.php?action_kouhyou_detail_004_kani=true&JigyosyoCd=4773800034-00&ServiceCd=720&Type=search", "url2": null }, "geometry": { "type": "Point", "coordinates": [ 126.804729859524514, 26.325989600000124 ] } },
{ "type": "Feature", "properties": { "内容": "デイサービスくめしま【認知症対応型通所介護】沖縄県久米島町字兼城1464番地5", "url": "https://www.kaigokensaku.mhlw.go.jp/47/index.php?action_kouhyou_detail_004_kani=true&JigyosyoCd=4795800012-00&ServiceCd=720&Type=search", "url2": "https://kyusenkaikumeshima.wixsite.com/kyusenkai" }, "geometry": { "type": "Point", "coordinates": [ 126.764171400000023, 26.3545801 ] } },
{ "type": "Feature", "properties": { "内容": "デイホームくしばる【認知症対応型通所介護】沖縄県島尻郡八重瀬町字後原２６８番地３グループホームくしばる", "url": "https://www.kaigokensaku.mhlw.go.jp/47/index.php?action_kouhyou_detail_004_kani=true&JigyosyoCd=4795700030-00&ServiceCd=720&Type=search", "url2": "http://www.koshunkai.com/" }, "geometry": { "type": "Point", "coordinates": [ 127.7311669, 26.1490784 ] } }
]
}
