{
"type": "FeatureCollection",
"name": "geo_47_小学校",
"crs": { "type": "name", "properties": { "name": "urn:ogc:def:crs:EPSG::6668" } },
"features": [
{ "type": "Feature", "properties": { "P29_001": "47328", "P29_002": "B147110000016", "P29_003": "16001", "P29_004": "琉球大学教育学部附属小学校", "P29_005": "沖縄県中頭郡西原町千原1", "P29_006": "1", "P29_007": "1", "P29_008": "00", "P29_009": null }, "geometry": { "type": "Point", "coordinates": [ 127.765284113079531, 26.243652462858883 ] } },
{ "type": "Feature", "properties": { "P29_001": "47201", "P29_002": "B147220100012", "P29_003": "16001", "P29_004": "那覇市立真和志小学校", "P29_005": "沖縄県那覇市寄宮3-1-1", "P29_006": "3", "P29_007": "1", "P29_008": "00", "P29_009": null }, "geometry": { "type": "Point", "coordinates": [ 127.699278150249697, 26.206620550611575 ] } },
{ "type": "Feature", "properties": { "P29_001": "47201", "P29_002": "B147220100021", "P29_003": "16001", "P29_004": "那覇市立城南小学校", "P29_005": "沖縄県那覇市首里崎山町4-35-2", "P29_006": "3", "P29_007": "1", "P29_008": "00", "P29_009": null }, "geometry": { "type": "Point", "coordinates": [ 127.721947706693626, 26.213226244992061 ] } },
{ "type": "Feature", "properties": { "P29_001": "47201", "P29_002": "B147220100030", "P29_003": "16001", "P29_004": "那覇市立泊小学校", "P29_005": "沖縄県那覇市泊2-23-9", "P29_006": "3", "P29_007": "1", "P29_008": "00", "P29_009": null }, "geometry": { "type": "Point", "coordinates": [ 127.688446002604991, 26.224419004522577 ] } },
{ "type": "Feature", "properties": { "P29_001": "47201", "P29_002": "B147220100049", "P29_003": "16001", "P29_004": "那覇市立城西小学校", "P29_005": "沖縄県那覇市首里真和志町1-5", "P29_006": "3", "P29_007": "1", "P29_008": "00", "P29_009": null }, "geometry": { "type": "Point", "coordinates": [ 127.717222001141195, 26.218753999526601 ] } },
{ "type": "Feature", "properties": { "P29_001": "47201", "P29_002": "B147220100058", "P29_003": "16001", "P29_004": "那覇市立天妃小学校", "P29_005": "沖縄県那覇市久米1-3-2", "P29_006": "3", "P29_007": "1", "P29_008": "00", "P29_009": null }, "geometry": { "type": "Point", "coordinates": [ 127.674058076685398, 26.214621738876119 ] } },
{ "type": "Feature", "properties": { "P29_001": "47201", "P29_002": "B147220100067", "P29_003": "16001", "P29_004": "那覇市立城北小学校", "P29_005": "沖縄県那覇市首里石嶺町1-162", "P29_006": "3", "P29_007": "1", "P29_008": "00", "P29_009": null }, "geometry": { "type": "Point", "coordinates": [ 127.722110001231172, 26.227559002140492 ] } },
{ "type": "Feature", "properties": { "P29_001": "47201", "P29_002": "B147220100076", "P29_003": "16001", "P29_004": "那覇市立安謝小学校", "P29_005": "沖縄県那覇市安謝2-15-28", "P29_006": "3", "P29_007": "1", "P29_008": "00", "P29_009": null }, "geometry": { "type": "Point", "coordinates": [ 127.690251002567976, 26.237251004007959 ] } },
{ "type": "Feature", "properties": { "P29_001": "47201", "P29_002": "B147220100085", "P29_003": "16001", "P29_004": "那覇市立大道小学校", "P29_005": "沖縄県那覇市字大道146-1", "P29_006": "3", "P29_007": "1", "P29_008": "00", "P29_009": null }, "geometry": { "type": "Point", "coordinates": [ 127.699450034231802, 26.215235505876286 ] } },
{ "type": "Feature", "properties": { "P29_001": "47201", "P29_002": "B147220100094", "P29_003": "16001", "P29_004": "那覇市立与儀小学校", "P29_005": "沖縄県那覇市与儀1-1-1", "P29_006": "3", "P29_007": "1", "P29_008": "00", "P29_009": null }, "geometry": { "type": "Point", "coordinates": [ 127.690961559399057, 26.205367351735333 ] } },
{ "type": "Feature", "properties": { "P29_001": "47201", "P29_002": "B147220100101", "P29_003": "16001", "P29_004": "那覇市立壺屋小学校", "P29_005": "沖縄県那覇市牧志3-14-12", "P29_006": "3", "P29_007": "1", "P29_008": "00", "P29_009": null }, "geometry": { "type": "Point", "coordinates": [ 127.691807000464863, 26.216754000161139 ] } },
{ "type": "Feature", "properties": { "P29_001": "47201", "P29_002": "B147220100110", "P29_003": "16001", "P29_004": "那覇市立高良小学校", "P29_005": "沖縄県那覇市高良2-12-1", "P29_006": "3", "P29_007": "1", "P29_008": "00", "P29_009": null }, "geometry": { "type": "Point", "coordinates": [ 127.664266308558766, 26.18342151226145 ] } },
{ "type": "Feature", "properties": { "P29_001": "47201", "P29_002": "B147220100129", "P29_003": "16001", "P29_004": "那覇市立小禄小学校", "P29_005": "沖縄県那覇市字小禄1150", "P29_006": "3", "P29_007": "1", "P29_008": "00", "P29_009": null }, "geometry": { "type": "Point", "coordinates": [ 127.672180644944106, 26.197765117324035 ] } },
{ "type": "Feature", "properties": { "P29_001": "47201", "P29_002": "B147220100138", "P29_003": "16001", "P29_004": "那覇市立垣花小学校", "P29_005": "沖縄県那覇市山下町17-1", "P29_006": "3", "P29_007": "1", "P29_008": "00", "P29_009": null }, "geometry": { "type": "Point", "coordinates": [ 127.671005000343129, 26.202198996417259 ] } },
{ "type": "Feature", "properties": { "P29_001": "47201", "P29_002": "B147220100147", "P29_003": "16001", "P29_004": "那覇市立城岳小学校", "P29_005": "沖縄県那覇市楚辺2-1-1", "P29_006": "3", "P29_007": "1", "P29_008": "00", "P29_009": null }, "geometry": { "type": "Point", "coordinates": [ 127.685420004980955, 26.206033000743613 ] } },
{ "type": "Feature", "properties": { "P29_001": "47201", "P29_002": "B147220100156", "P29_003": "16001", "P29_004": "那覇市立開南小学校", "P29_005": "沖縄県那覇市泉崎1-1-6", "P29_006": "3", "P29_007": "1", "P29_008": "00", "P29_009": null }, "geometry": { "type": "Point", "coordinates": [ 127.679864000549145, 26.211087002376857 ] } },
{ "type": "Feature", "properties": { "P29_001": "47201", "P29_002": "B147220100165", "P29_003": "16001", "P29_004": "那覇市立若狭小学校", "P29_005": "沖縄県那覇市若狭2-16-1", "P29_006": "3", "P29_007": "1", "P29_008": "00", "P29_009": null }, "geometry": { "type": "Point", "coordinates": [ 127.675986001132515, 26.222433997407194 ] } },
{ "type": "Feature", "properties": { "P29_001": "47201", "P29_002": "B147220100174", "P29_003": "16001", "P29_004": "那覇市立松川小学校", "P29_005": "沖縄県那覇市松川1-7-1", "P29_006": "3", "P29_007": "1", "P29_008": "00", "P29_009": null }, "geometry": { "type": "Point", "coordinates": [ 127.702974005129477, 26.213781998567296 ] } },
{ "type": "Feature", "properties": { "P29_001": "47201", "P29_002": "B147220100183", "P29_003": "16001", "P29_004": "那覇市立神原小学校", "P29_005": "沖縄県那覇市樋川2-7-1", "P29_006": "3", "P29_007": "1", "P29_008": "00", "P29_009": null }, "geometry": { "type": "Point", "coordinates": [ 127.691732659108794, 26.210672245080936 ] } },
{ "type": "Feature", "properties": { "P29_001": "47201", "P29_002": "B147220100192", "P29_003": "16001", "P29_004": "那覇市立識名小学校", "P29_005": "沖縄県那覇市識名2-2-1", "P29_006": "3", "P29_007": "1", "P29_008": "00", "P29_009": null }, "geometry": { "type": "Point", "coordinates": [ 127.707918000301447, 26.208644000905089 ] } },
{ "type": "Feature", "properties": { "P29_001": "47201", "P29_002": "B147220100209", "P29_003": "16001", "P29_004": "那覇市立真嘉比小学校", "P29_005": "沖縄県那覇市真嘉比1-17-1", "P29_006": "3", "P29_007": "1", "P29_008": "00", "P29_009": null }, "geometry": { "type": "Point", "coordinates": [ 127.700311128093489, 26.222567057493006 ] } },
{ "type": "Feature", "properties": { "P29_001": "47201", "P29_002": "B147220100218", "P29_003": "16001", "P29_004": "那覇市立城東小学校", "P29_005": "沖縄県那覇市首里石嶺町2-74-1", "P29_006": "3", "P29_007": "1", "P29_008": "00", "P29_009": null }, "geometry": { "type": "Point", "coordinates": [ 127.732193999147356, 26.223027001177318 ] } },
{ "type": "Feature", "properties": { "P29_001": "47201", "P29_002": "B147220100227", "P29_003": "16001", "P29_004": "那覇市立宇栄原小学校", "P29_005": "沖縄県那覇市字小禄1066", "P29_006": "3", "P29_007": "1", "P29_008": "00", "P29_009": null }, "geometry": { "type": "Point", "coordinates": [ 127.674819416558265, 26.187159459672436 ] } },
{ "type": "Feature", "properties": { "P29_001": "47201", "P29_002": "B147220100236", "P29_003": "16001", "P29_004": "那覇市立松島小学校", "P29_005": "沖縄県那覇市古島2-30-12", "P29_006": "3", "P29_007": "1", "P29_008": "00", "P29_009": null }, "geometry": { "type": "Point", "coordinates": [ 127.708392996695608, 26.22792200243131 ] } },
{ "type": "Feature", "properties": { "P29_001": "47201", "P29_002": "B147220100245", "P29_003": "16001", "P29_004": "那覇市立古蔵小学校", "P29_005": "沖縄県那覇市古波蔵1-33-1", "P29_006": "3", "P29_007": "1", "P29_008": "00", "P29_009": null }, "geometry": { "type": "Point", "coordinates": [ 127.692976005144573, 26.199422995700459 ] } },
{ "type": "Feature", "properties": { "P29_001": "47201", "P29_002": "B147220100254", "P29_003": "16001", "P29_004": "那覇市立上間小学校", "P29_005": "沖縄県那覇市長田2-11-60", "P29_006": "3", "P29_007": "1", "P29_008": "00", "P29_009": null }, "geometry": { "type": "Point", "coordinates": [ 127.702599527288811, 26.201555557924163 ] } },
{ "type": "Feature", "properties": { "P29_001": "47201", "P29_002": "B147220100263", "P29_003": "16001", "P29_004": "那覇市立大名小学校", "P29_005": "沖縄県那覇市首里大名町1-49", "P29_006": "3", "P29_007": "1", "P29_008": "00", "P29_009": null }, "geometry": { "type": "Point", "coordinates": [ 127.71191007866824, 26.232030097623092 ] } },
{ "type": "Feature", "properties": { "P29_001": "47201", "P29_002": "B147220100272", "P29_003": "16001", "P29_004": "那覇市立石嶺小学校", "P29_005": "沖縄県那覇市首里石嶺町4-360-8", "P29_006": "3", "P29_007": "1", "P29_008": "00", "P29_009": null }, "geometry": { "type": "Point", "coordinates": [ 127.731682831751939, 26.230922583534952 ] } },
{ "type": "Feature", "properties": { "P29_001": "47201", "P29_002": "B147220100281", "P29_003": "16001", "P29_004": "那覇市立仲井真小学校", "P29_005": "沖縄県那覇市字仲井真173", "P29_006": "3", "P29_007": "1", "P29_008": "00", "P29_009": null }, "geometry": { "type": "Point", "coordinates": [ 127.707391000232747, 26.196312001356176 ] } },
{ "type": "Feature", "properties": { "P29_001": "47201", "P29_002": "B147220100290", "P29_003": "16001", "P29_004": "那覇市立金城小学校", "P29_005": "沖縄県那覇市金城4-3-1", "P29_006": "3", "P29_007": "1", "P29_008": "00", "P29_009": null }, "geometry": { "type": "Point", "coordinates": [ 127.663060995621137, 26.197811002716136 ] } },
{ "type": "Feature", "properties": { "P29_001": "47201", "P29_002": "B147220100307", "P29_003": "16001", "P29_004": "那覇市立曙小学校", "P29_005": "沖縄県那覇市曙2-18-1", "P29_006": "3", "P29_007": "1", "P29_008": "00", "P29_009": null }, "geometry": { "type": "Point", "coordinates": [ 127.682751001993154, 26.240222998047049 ] } },
{ "type": "Feature", "properties": { "P29_001": "47201", "P29_002": "B147220100316", "P29_003": "16001", "P29_004": "那覇市立小禄南小学校", "P29_005": "沖縄県那覇市小禄4-14-1", "P29_006": "3", "P29_007": "1", "P29_008": "00", "P29_009": null }, "geometry": { "type": "Point", "coordinates": [ 127.673052005272879, 26.189764998548128 ] } },
{ "type": "Feature", "properties": { "P29_001": "47201", "P29_002": "B147220100325", "P29_003": "16001", "P29_004": "那覇市立真地小学校", "P29_005": "沖縄県那覇市字真地313", "P29_006": "3", "P29_007": "1", "P29_008": "00", "P29_009": null }, "geometry": { "type": "Point", "coordinates": [ 127.718740387907332, 26.200053520437852 ] } },
{ "type": "Feature", "properties": { "P29_001": "47201", "P29_002": "B147220100334", "P29_003": "16001", "P29_004": "那覇市立さつき小学校", "P29_005": "沖縄県那覇市宇栄原1-12-1", "P29_006": "3", "P29_007": "1", "P29_008": "00", "P29_009": null }, "geometry": { "type": "Point", "coordinates": [ 127.66433602164561, 26.191716075924806 ] } },
{ "type": "Feature", "properties": { "P29_001": "47201", "P29_002": "B147220100343", "P29_003": "16001", "P29_004": "那覇市立銘苅小学校", "P29_005": "沖縄県那覇市銘苅2-3-20", "P29_006": "3", "P29_007": "1", "P29_008": "00", "P29_009": null }, "geometry": { "type": "Point", "coordinates": [ 127.69822931509924, 26.231604989279944 ] } },
{ "type": "Feature", "properties": { "P29_001": "47201", "P29_002": "B147220100352", "P29_003": "16001", "P29_004": "那覇市立天久小学校", "P29_005": "沖縄県那覇市天久1-4-1", "P29_006": "3", "P29_007": "1", "P29_008": "00", "P29_009": null }, "geometry": { "type": "Point", "coordinates": [ 127.690049003644148, 26.231446001031845 ] } },
{ "type": "Feature", "properties": { "P29_001": "47201", "P29_002": "B147220100361", "P29_003": "16001", "P29_004": "那覇市立那覇小学校", "P29_005": "沖縄県那覇市前島1-7-1", "P29_006": "3", "P29_007": "1", "P29_008": "00", "P29_009": null }, "geometry": { "type": "Point", "coordinates": [ 127.686530004449239, 26.220642000011647 ] } },
{ "type": "Feature", "properties": { "P29_001": "47205", "P29_002": "B147220500018", "P29_003": "16001", "P29_004": "宜野湾市立宜野湾小学校", "P29_005": "沖縄県宜野湾市神山1-1-1", "P29_006": "3", "P29_007": "1", "P29_008": "00", "P29_009": null }, "geometry": { "type": "Point", "coordinates": [ 127.767016980237599, 26.269058598562076 ] } },
{ "type": "Feature", "properties": { "P29_001": "47205", "P29_002": "B147220500027", "P29_003": "16001", "P29_004": "宜野湾市立普天間小学校", "P29_005": "沖縄県宜野湾市普天間1-10-1", "P29_006": "3", "P29_007": "1", "P29_008": "00", "P29_009": null }, "geometry": { "type": "Point", "coordinates": [ 127.778630996223541, 26.290388000061686 ] } },
{ "type": "Feature", "properties": { "P29_001": "47205", "P29_002": "B147220500036", "P29_003": "16001", "P29_004": "宜野湾市立嘉数小学校", "P29_005": "沖縄県宜野湾市真栄原1-13-1", "P29_006": "3", "P29_007": "1", "P29_008": "00", "P29_009": null }, "geometry": { "type": "Point", "coordinates": [ 127.744967999448946, 26.257362002549193 ] } },
{ "type": "Feature", "properties": { "P29_001": "47205", "P29_002": "B147220500045", "P29_003": "16001", "P29_004": "宜野湾市立大山小学校", "P29_005": "沖縄県宜野湾市大山5-16-1", "P29_006": "3", "P29_007": "1", "P29_008": "00", "P29_009": null }, "geometry": { "type": "Point", "coordinates": [ 127.746050995544351, 26.279416003119671 ] } },
{ "type": "Feature", "properties": { "P29_001": "47205", "P29_002": "B147220500054", "P29_003": "16001", "P29_004": "宜野湾市立普天間第二小学校", "P29_005": "沖縄県宜野湾市新城2-8-19", "P29_006": "3", "P29_007": "1", "P29_008": "00", "P29_009": null }, "geometry": { "type": "Point", "coordinates": [ 127.770028485174365, 26.284902101319393 ] } },
{ "type": "Feature", "properties": { "P29_001": "47205", "P29_002": "B147220500063", "P29_003": "16001", "P29_004": "宜野湾市立大謝名小学校", "P29_005": "沖縄県宜野湾市大謝名5-12-1", "P29_006": "3", "P29_007": "1", "P29_008": "00", "P29_009": null }, "geometry": { "type": "Point", "coordinates": [ 127.732913994889344, 26.266417002301857 ] } },
{ "type": "Feature", "properties": { "P29_001": "47205", "P29_002": "B147220500072", "P29_003": "16001", "P29_004": "宜野湾市立志真志小学校", "P29_005": "沖縄県宜野湾市宜野湾3-5-1", "P29_006": "3", "P29_007": "1", "P29_008": "00", "P29_009": null }, "geometry": { "type": "Point", "coordinates": [ 127.755939996104601, 26.259834999816221 ] } },
{ "type": "Feature", "properties": { "P29_001": "47205", "P29_002": "B147220500081", "P29_003": "16001", "P29_004": "宜野湾市立長田小学校", "P29_005": "沖縄県宜野湾市長田3-19-1", "P29_006": "3", "P29_007": "1", "P29_008": "00", "P29_009": null }, "geometry": { "type": "Point", "coordinates": [ 127.767190887240687, 26.259841438100384 ] } },
{ "type": "Feature", "properties": { "P29_001": "47205", "P29_002": "B147220500090", "P29_003": "16001", "P29_004": "宜野湾市立はごろも小学校", "P29_005": "沖縄県宜野湾市大山6-23-1", "P29_006": "3", "P29_007": "1", "P29_008": "00", "P29_009": null }, "geometry": { "type": "Point", "coordinates": [ 127.739835247518457, 26.278076051852587 ] } },
{ "type": "Feature", "properties": { "P29_001": "47207", "P29_002": "B147220700016", "P29_003": "16001", "P29_004": "石垣市立八島小学校", "P29_005": "沖縄県石垣市八島町2-3", "P29_006": "3", "P29_007": "1", "P29_008": "00", "P29_009": null }, "geometry": { "type": "Point", "coordinates": [ 124.16646411264594, 24.331552016287162 ] } },
{ "type": "Feature", "properties": { "P29_001": "47207", "P29_002": "B147220700025", "P29_003": "16001", "P29_004": "石垣市立真喜良小学校", "P29_005": "沖縄県石垣市字新川2018-2", "P29_006": "3", "P29_007": "1", "P29_008": "00", "P29_009": null }, "geometry": { "type": "Point", "coordinates": [ 124.137473443127107, 24.35622429059606 ] } },
{ "type": "Feature", "properties": { "P29_001": "47207", "P29_002": "B147220700034", "P29_003": "16001", "P29_004": "石垣市立石垣小学校", "P29_005": "沖縄県石垣市字石垣204", "P29_006": "3", "P29_007": "1", "P29_008": "00", "P29_009": null }, "geometry": { "type": "Point", "coordinates": [ 124.158520606660701, 24.345355325524871 ] } },
{ "type": "Feature", "properties": { "P29_001": "47207", "P29_002": "B147220700043", "P29_003": "16001", "P29_004": "石垣市立登野城小学校", "P29_005": "沖縄県石垣市字登野城290", "P29_006": "3", "P29_007": "1", "P29_008": "00", "P29_009": null }, "geometry": { "type": "Point", "coordinates": [ 124.163814000465109, 24.342709001602966 ] } },
{ "type": "Feature", "properties": { "P29_001": "47207", "P29_002": "B147220700052", "P29_003": "16001", "P29_004": "石垣市立川平小学校", "P29_005": "沖縄県石垣市字川平969", "P29_006": "3", "P29_007": "1", "P29_008": "00", "P29_009": null }, "geometry": { "type": "Point", "coordinates": [ 124.139480076367846, 24.458876661042755 ] } },
{ "type": "Feature", "properties": { "P29_001": "47207", "P29_002": "B147220700061", "P29_003": "16001", "P29_004": "石垣市立白保小学校", "P29_005": "沖縄県石垣市字白保73-1", "P29_006": "3", "P29_007": "1", "P29_008": "00", "P29_009": null }, "geometry": { "type": "Point", "coordinates": [ 124.238979734082434, 24.354449993690203 ] } },
{ "type": "Feature", "properties": { "P29_001": "47207", "P29_002": "B147220700070", "P29_003": "16001", "P29_004": "石垣市立宮良小学校", "P29_005": "沖縄県石垣市宮良327", "P29_006": "3", "P29_007": "1", "P29_008": "00", "P29_009": null }, "geometry": { "type": "Point", "coordinates": [ 124.223134546401425, 24.355775666588787 ] } },
{ "type": "Feature", "properties": { "P29_001": "47207", "P29_002": "B147220700089", "P29_003": "16001", "P29_004": "石垣市立川原小学校", "P29_005": "沖縄県石垣市字大浜2064-356", "P29_006": "3", "P29_007": "1", "P29_008": "00", "P29_009": null }, "geometry": { "type": "Point", "coordinates": [ 124.208618921192979, 24.388879103519368 ] } },
{ "type": "Feature", "properties": { "P29_001": "47207", "P29_002": "B147220700098", "P29_003": "16001", "P29_004": "石垣市立大浜小学校", "P29_005": "沖縄県石垣市大浜182", "P29_006": "3", "P29_007": "1", "P29_008": "00", "P29_009": null }, "geometry": { "type": "Point", "coordinates": [ 124.199644996793495, 24.346179003895738 ] } },
{ "type": "Feature", "properties": { "P29_001": "47207", "P29_002": "B147220700105", "P29_003": "16001", "P29_004": "石垣市立平真小学校", "P29_005": "沖縄県石垣市字平得174", "P29_006": "3", "P29_007": "1", "P29_008": "00", "P29_009": null }, "geometry": { "type": "Point", "coordinates": [ 124.171730000871605, 24.339098001577913 ] } },
{ "type": "Feature", "properties": { "P29_001": "47207", "P29_002": "B147220700114", "P29_003": "16001", "P29_004": "石垣市立名蔵小学校", "P29_005": "沖縄県石垣市字名蔵243", "P29_006": "3", "P29_007": "1", "P29_008": "00", "P29_009": null }, "geometry": { "type": "Point", "coordinates": [ 124.161758505238069, 24.393236396096238 ] } },
{ "type": "Feature", "properties": { "P29_001": "47207", "P29_002": "B147220700123", "P29_003": "16001", "P29_004": "石垣市立伊野田小学校", "P29_005": "沖縄県石垣市桃里168-56", "P29_006": "3", "P29_007": "1", "P29_008": "00", "P29_009": null }, "geometry": { "type": "Point", "coordinates": [ 124.247930897156365, 24.453538476883846 ] } },
{ "type": "Feature", "properties": { "P29_001": "47207", "P29_002": "B147220700132", "P29_003": "16001", "P29_004": "石垣市立崎枝小学校", "P29_005": "沖縄県石垣市字崎枝530-18", "P29_006": "3", "P29_007": "1", "P29_008": "00", "P29_009": null }, "geometry": { "type": "Point", "coordinates": [ 124.104614966523599, 24.440840637753492 ] } },
{ "type": "Feature", "properties": { "P29_001": "47207", "P29_002": "B147220700141", "P29_003": "16001", "P29_004": "石垣市立平久保小学校", "P29_005": "沖縄県石垣市字平久保77", "P29_006": "3", "P29_007": "1", "P29_008": "00", "P29_009": null }, "geometry": { "type": "Point", "coordinates": [ 124.310714453220086, 24.58632819933214 ] } },
{ "type": "Feature", "properties": { "P29_001": "47207", "P29_002": "B147220700150", "P29_003": "16001", "P29_004": "石垣市立野底小学校", "P29_005": "沖縄県石垣市字野底138", "P29_006": "3", "P29_007": "1", "P29_008": "00", "P29_009": null }, "geometry": { "type": "Point", "coordinates": [ 124.235800977202047, 24.497085801532013 ] } },
{ "type": "Feature", "properties": { "P29_001": "47207", "P29_002": "B147220700169", "P29_003": "16001", "P29_004": "石垣市立吉原小学校", "P29_005": "沖縄県石垣市川平1218-137", "P29_006": "3", "P29_007": "1", "P29_008": "00", "P29_009": null }, "geometry": { "type": "Point", "coordinates": [ 124.157728940116485, 24.447590716781303 ] } },
{ "type": "Feature", "properties": { "P29_001": "47207", "P29_002": "B147220700178", "P29_003": "16001", "P29_004": "石垣市立明石小学校", "P29_005": "沖縄県石垣市字伊原間249-17", "P29_006": "3", "P29_007": "1", "P29_008": "00", "P29_009": null }, "geometry": { "type": "Point", "coordinates": [ 124.301078440193251, 24.537202775059743 ] } },
{ "type": "Feature", "properties": { "P29_001": "47207", "P29_002": "B147220700187", "P29_003": "16001", "P29_004": "石垣市立富野小学校", "P29_005": "沖縄県石垣市字桴海299-45", "P29_006": "3", "P29_007": "1", "P29_008": "00", "P29_009": null }, "geometry": { "type": "Point", "coordinates": [ 124.201721531885426, 24.453784763988573 ] } },
{ "type": "Feature", "properties": { "P29_001": "47207", "P29_002": "B147220700196", "P29_003": "16001", "P29_004": "石垣市立新川小学校", "P29_005": "沖縄県石垣市新栄町74", "P29_006": "3", "P29_007": "1", "P29_008": "00", "P29_009": null }, "geometry": { "type": "Point", "coordinates": [ 124.149287001580376, 24.346293001032809 ] } },
{ "type": "Feature", "properties": { "P29_001": "47207", "P29_002": "B147220700203", "P29_003": "16001", "P29_004": "石垣市立大本小学校", "P29_005": "沖縄県石垣市字真栄里1111", "P29_006": "3", "P29_007": "1", "P29_008": "00", "P29_009": null }, "geometry": { "type": "Point", "coordinates": [ 124.197652830489957, 24.411118580826766 ] } },
{ "type": "Feature", "properties": { "P29_001": "47208", "P29_002": "B147220800015", "P29_003": "16001", "P29_004": "浦添市立浦添小学校", "P29_005": "沖縄県浦添市仲間2-47-1", "P29_006": "3", "P29_007": "1", "P29_008": "00", "P29_009": null }, "geometry": { "type": "Point", "coordinates": [ 127.729556876202821, 26.246721467706372 ] } },
{ "type": "Feature", "properties": { "P29_001": "47208", "P29_002": "B147220800024", "P29_003": "16001", "P29_004": "浦添市立仲西小学校", "P29_005": "沖縄県浦添市屋富祖2-32-1", "P29_006": "3", "P29_007": "1", "P29_008": "00", "P29_009": null }, "geometry": { "type": "Point", "coordinates": [ 127.707192924363468, 26.250139249680956 ] } },
{ "type": "Feature", "properties": { "P29_001": "47208", "P29_002": "B147220800033", "P29_003": "16001", "P29_004": "浦添市立神森小学校", "P29_005": "沖縄県浦添市勢理客1-4-1", "P29_006": "3", "P29_007": "1", "P29_008": "00", "P29_009": null }, "geometry": { "type": "Point", "coordinates": [ 127.699944001320645, 26.24200099881665 ] } },
{ "type": "Feature", "properties": { "P29_001": "47208", "P29_002": "B147220800042", "P29_003": "16001", "P29_004": "浦添市立浦城小学校", "P29_005": "沖縄県浦添市伊祖2-13-1", "P29_006": "3", "P29_007": "1", "P29_008": "00", "P29_009": null }, "geometry": { "type": "Point", "coordinates": [ 127.716679746557674, 26.253867680754169 ] } },
{ "type": "Feature", "properties": { "P29_001": "47208", "P29_002": "B147220800051", "P29_003": "16001", "P29_004": "浦添市立牧港小学校", "P29_005": "沖縄県浦添市牧港2-14-1", "P29_006": "3", "P29_007": "1", "P29_008": "00", "P29_009": null }, "geometry": { "type": "Point", "coordinates": [ 127.724720001964883, 26.25958399603152 ] } },
{ "type": "Feature", "properties": { "P29_001": "47208", "P29_002": "B147220800060", "P29_003": "16001", "P29_004": "浦添市立当山小学校", "P29_005": "沖縄県浦添市当山2-34-1", "P29_006": "3", "P29_007": "1", "P29_008": "00", "P29_009": null }, "geometry": { "type": "Point", "coordinates": [ 127.73358213950344, 26.251882010426581 ] } },
{ "type": "Feature", "properties": { "P29_001": "47208", "P29_002": "B147220800079", "P29_003": "16001", "P29_004": "浦添市立内間小学校", "P29_005": "沖縄県浦添市内間4-3-1", "P29_006": "3", "P29_007": "1", "P29_008": "00", "P29_009": null }, "geometry": { "type": "Point", "coordinates": [ 127.704389004691222, 26.238974002415361 ] } },
{ "type": "Feature", "properties": { "P29_001": "47208", "P29_002": "B147220800088", "P29_003": "16001", "P29_004": "浦添市立港川小学校", "P29_005": "沖縄県浦添市城間4-37-1", "P29_006": "3", "P29_007": "1", "P29_008": "00", "P29_009": null }, "geometry": { "type": "Point", "coordinates": [ 127.716071481652307, 26.260717011653902 ] } },
{ "type": "Feature", "properties": { "P29_001": "47208", "P29_002": "B147220800097", "P29_003": "16001", "P29_004": "浦添市立沢岻小学校", "P29_005": "沖縄県浦添市字沢岻998", "P29_006": "3", "P29_007": "1", "P29_008": "00", "P29_009": null }, "geometry": { "type": "Point", "coordinates": [ 127.717248995472147, 26.237114000115618 ] } },
{ "type": "Feature", "properties": { "P29_001": "47208", "P29_002": "B147220800104", "P29_003": "16001", "P29_004": "浦添市立宮城小学校", "P29_005": "沖縄県浦添市宮城3-7-3", "P29_006": "3", "P29_007": "1", "P29_008": "00", "P29_009": null }, "geometry": { "type": "Point", "coordinates": [ 127.706309776870384, 26.246885279056109 ] } },
{ "type": "Feature", "properties": { "P29_001": "47208", "P29_002": "B147220800113", "P29_003": "16001", "P29_004": "浦添市立前田小学校", "P29_005": "沖縄県浦添市字前田333", "P29_006": "3", "P29_007": "1", "P29_008": "00", "P29_009": null }, "geometry": { "type": "Point", "coordinates": [ 127.734109002362572, 26.239196998003916 ] } },
{ "type": "Feature", "properties": { "P29_001": "47209", "P29_002": "B147220900014", "P29_003": "16001", "P29_004": "名護市立久志小学校", "P29_005": "沖縄県名護市汀間122", "P29_006": "3", "P29_007": "1", "P29_008": "00", "P29_009": null }, "geometry": { "type": "Point", "coordinates": [ 128.061840454564447, 26.553019382032325 ] } },
{ "type": "Feature", "properties": { "P29_001": "47209", "P29_002": "B147220900023", "P29_003": "16001", "P29_004": "名護市立羽地小学校", "P29_005": "沖縄県名護市字田井等601-2", "P29_006": "3", "P29_007": "1", "P29_008": "00", "P29_009": null }, "geometry": { "type": "Point", "coordinates": [ 128.010786946063433, 26.618761890379535 ] } },
{ "type": "Feature", "properties": { "P29_001": "47209", "P29_002": "B147220900032", "P29_003": "16001", "P29_004": "名護市立東江小学校", "P29_005": "沖縄県名護市東江1-7-2", "P29_006": "3", "P29_007": "1", "P29_008": "00", "P29_009": null }, "geometry": { "type": "Point", "coordinates": [ 127.98804900039444, 26.586171998012421 ] } },
{ "type": "Feature", "properties": { "P29_001": "47209", "P29_002": "B147220900041", "P29_003": "16001", "P29_004": "名護市立名護小学校", "P29_005": "沖縄県名護市大西2-2-22", "P29_006": "3", "P29_007": "1", "P29_008": "00", "P29_009": null }, "geometry": { "type": "Point", "coordinates": [ 127.98239264274126, 26.593696903195656 ] } },
{ "type": "Feature", "properties": { "P29_001": "47209", "P29_002": "B147220900050", "P29_003": "16001", "P29_004": "名護市立屋我地小学校", "P29_005": "沖縄県名護市字饒平名159", "P29_006": "3", "P29_007": "1", "P29_008": "00", "P29_009": null }, "geometry": { "type": "Point", "coordinates": [ 128.008114335926649, 26.655859973541791 ] } },
{ "type": "Feature", "properties": { "P29_001": "47209", "P29_002": "B147220900069", "P29_003": "16001", "P29_004": "名護市立屋部小学校", "P29_005": "沖縄県名護市字屋部47", "P29_006": "3", "P29_007": "1", "P29_008": "00", "P29_009": null }, "geometry": { "type": "Point", "coordinates": [ 127.953857728572146, 26.601052181413902 ] } },
{ "type": "Feature", "properties": { "P29_001": "47209", "P29_002": "B147220900078", "P29_003": "16001", "P29_004": "名護市立瀬喜田小学校", "P29_005": "沖縄県名護市字幸喜4-1", "P29_006": "3", "P29_007": "1", "P29_008": "00", "P29_009": null }, "geometry": { "type": "Point", "coordinates": [ 127.950508449430998, 26.539943425791819 ] } },
{ "type": "Feature", "properties": { "P29_001": "47209", "P29_002": "B147220900087", "P29_003": "16001", "P29_004": "名護市立久辺小学校", "P29_005": "沖縄県名護市豊原208", "P29_006": "3", "P29_007": "1", "P29_008": "00", "P29_009": null }, "geometry": { "type": "Point", "coordinates": [ 128.023667482322082, 26.520052456891939 ] } },
{ "type": "Feature", "properties": { "P29_001": "47209", "P29_002": "B147220900096", "P29_003": "16001", "P29_004": "名護市立真喜屋小学校", "P29_005": "沖縄県名護市字真喜屋571", "P29_006": "3", "P29_007": "1", "P29_008": "00", "P29_009": null }, "geometry": { "type": "Point", "coordinates": [ 128.039303140344117, 26.633670813991081 ] } },
{ "type": "Feature", "properties": { "P29_001": "47209", "P29_002": "B147220900103", "P29_003": "16001", "P29_004": "名護市立安和小学校", "P29_005": "沖縄県名護市字安和174", "P29_006": "3", "P29_007": "1", "P29_008": "00", "P29_009": null }, "geometry": { "type": "Point", "coordinates": [ 127.931881895091536, 26.609615126439991 ] } },
{ "type": "Feature", "properties": { "P29_001": "47209", "P29_002": "B147220900112", "P29_003": "16001", "P29_004": "名護市立屋部小学校中山分校", "P29_005": "沖縄県名護市中山208-1", "P29_006": "3", "P29_007": "1", "P29_008": "00", "P29_009": null }, "geometry": { "type": "Point", "coordinates": [ 127.96573075312017, 26.623929185944103 ] } },
{ "type": "Feature", "properties": { "P29_001": "47209", "P29_002": "B147220900121", "P29_003": "16001", "P29_004": "名護市立稲田小学校", "P29_005": "沖縄県名護市我部祖河440-1", "P29_006": "3", "P29_007": "1", "P29_008": "00", "P29_009": null }, "geometry": { "type": "Point", "coordinates": [ 128.003294598907189, 26.622956231614481 ] } },
{ "type": "Feature", "properties": { "P29_001": "47209", "P29_002": "B147220900130", "P29_003": "16001", "P29_004": "名護市立大宮小学校", "P29_005": "沖縄県名護市宮里5-13-22", "P29_006": "3", "P29_007": "1", "P29_008": "00", "P29_009": null }, "geometry": { "type": "Point", "coordinates": [ 127.97378688810258, 26.597064257812228 ] } },
{ "type": "Feature", "properties": { "P29_001": "47209", "P29_002": "B147220900149", "P29_003": "16001", "P29_004": "名護市立大北小学校", "P29_005": "沖縄県名護市大北4-19-37", "P29_006": "3", "P29_007": "1", "P29_008": "00", "P29_009": null }, "geometry": { "type": "Point", "coordinates": [ 127.992051998635873, 26.605662000079612 ] } },
{ "type": "Feature", "properties": { "P29_001": "47210", "P29_002": "B147221000011", "P29_003": "16001", "P29_004": "糸満市立兼城小学校", "P29_005": "沖縄県糸満市字賀数1", "P29_006": "3", "P29_007": "1", "P29_008": "00", "P29_009": null }, "geometry": { "type": "Point", "coordinates": [ 127.690618004205149, 26.145567002076632 ] } },
{ "type": "Feature", "properties": { "P29_001": "47210", "P29_002": "B147221000020", "P29_003": "16001", "P29_004": "糸満市立喜屋武小学校", "P29_005": "沖縄県糸満市字喜屋武555", "P29_006": "3", "P29_007": "1", "P29_008": "00", "P29_009": null }, "geometry": { "type": "Point", "coordinates": [ 127.664980997246047, 26.094431002450964 ] } },
{ "type": "Feature", "properties": { "P29_001": "47210", "P29_002": "B147221000039", "P29_003": "16001", "P29_004": "糸満市立真壁小学校", "P29_005": "沖縄県糸満市字真壁630", "P29_006": "3", "P29_007": "1", "P29_008": "00", "P29_009": null }, "geometry": { "type": "Point", "coordinates": [ 127.689166677227874, 26.103841933418657 ] } },
{ "type": "Feature", "properties": { "P29_001": "47210", "P29_002": "B147221000048", "P29_003": "16001", "P29_004": "糸満市立米須小学校", "P29_005": "沖縄県糸満市字米須632", "P29_006": "3", "P29_007": "1", "P29_008": "00", "P29_009": null }, "geometry": { "type": "Point", "coordinates": [ 127.698664017488852, 26.097017164148351 ] } },
{ "type": "Feature", "properties": { "P29_001": "47210", "P29_002": "B147221000057", "P29_003": "16001", "P29_004": "糸満市立糸満小学校", "P29_005": "沖縄県糸満市字糸満673", "P29_006": "3", "P29_007": "1", "P29_008": "00", "P29_009": null }, "geometry": { "type": "Point", "coordinates": [ 127.674757092605347, 26.130949480609249 ] } },
{ "type": "Feature", "properties": { "P29_001": "47210", "P29_002": "B147221000066", "P29_003": "16001", "P29_004": "糸満市立高嶺小学校", "P29_005": "沖縄県糸満市字大里1901", "P29_006": "3", "P29_007": "1", "P29_008": "00", "P29_009": null }, "geometry": { "type": "Point", "coordinates": [ 127.688935603468394, 26.128022953046226 ] } },
{ "type": "Feature", "properties": { "P29_001": "47210", "P29_002": "B147221000075", "P29_003": "16001", "P29_004": "糸満市立糸満南小学校", "P29_005": "沖縄県糸満市字潮崎町3-1", "P29_006": "3", "P29_007": "1", "P29_008": "00", "P29_009": null }, "geometry": { "type": "Point", "coordinates": [ 127.665842002907482, 26.120040004144183 ] } },
{ "type": "Feature", "properties": { "P29_001": "47210", "P29_002": "B147221000084", "P29_003": "16001", "P29_004": "糸満市立西崎小学校", "P29_005": "沖縄県糸満市西崎2-4-1", "P29_006": "3", "P29_007": "1", "P29_008": "00", "P29_009": null }, "geometry": { "type": "Point", "coordinates": [ 127.666356576780359, 26.141951593659307 ] } },
{ "type": "Feature", "properties": { "P29_001": "47210", "P29_002": "B147221000093", "P29_003": "16001", "P29_004": "糸満市立潮平小学校", "P29_005": "沖縄県糸満市字潮平634-2", "P29_006": "3", "P29_007": "1", "P29_008": "00", "P29_009": null }, "geometry": { "type": "Point", "coordinates": [ 127.67464493269344, 26.145468024996561 ] } },
{ "type": "Feature", "properties": { "P29_001": "47210", "P29_002": "B147221000100", "P29_003": "16001", "P29_004": "糸満市立光洋小学校", "P29_005": "沖縄県糸満市西崎町3-7-12", "P29_006": "3", "P29_007": "1", "P29_008": "00", "P29_009": null }, "geometry": { "type": "Point", "coordinates": [ 127.663663977737883, 26.149180932474067 ] } },
{ "type": "Feature", "properties": { "P29_001": "47210", "P29_002": "B147221000119", "P29_003": "16001", "P29_004": "糸満市立米須小学校大度分校", "P29_005": "沖縄県糸満市字大度1255", "P29_006": "3", "P29_007": "1", "P29_008": "00", "P29_009": null }, "geometry": { "type": "Point", "coordinates": [ 127.717158004482982, 26.104263995503196 ] } },
{ "type": "Feature", "properties": { "P29_001": "47211", "P29_002": "B147221100010", "P29_003": "16001", "P29_004": "沖縄市立越来小学校", "P29_005": "沖縄県沖縄市越来1-2-2", "P29_006": "3", "P29_007": "1", "P29_008": "00", "P29_009": null }, "geometry": { "type": "Point", "coordinates": [ 127.812287328067626, 26.342152081006123 ] } },
{ "type": "Feature", "properties": { "P29_001": "47211", "P29_002": "B147221100029", "P29_003": "16001", "P29_004": "沖縄市立美里小学校", "P29_005": "沖縄県沖縄市美里4-1-1", "P29_006": "3", "P29_007": "1", "P29_008": "00", "P29_009": null }, "geometry": { "type": "Point", "coordinates": [ 127.813051482251254, 26.350198987462793 ] } },
{ "type": "Feature", "properties": { "P29_001": "47211", "P29_002": "B147221100038", "P29_003": "16001", "P29_004": "沖縄市立美東小学校", "P29_005": "沖縄県沖縄市桃原3-4-1", "P29_006": "3", "P29_007": "1", "P29_008": "00", "P29_009": null }, "geometry": { "type": "Point", "coordinates": [ 127.827585164870996, 26.333926467563781 ] } },
{ "type": "Feature", "properties": { "P29_001": "47211", "P29_002": "B147221100047", "P29_003": "16001", "P29_004": "沖縄市立安慶田小学校", "P29_005": "沖縄県沖縄市安慶田2-18-1", "P29_006": "3", "P29_007": "1", "P29_008": "00", "P29_009": null }, "geometry": { "type": "Point", "coordinates": [ 127.81351599634985, 26.33555199865231 ] } },
{ "type": "Feature", "properties": { "P29_001": "47211", "P29_002": "B147221100056", "P29_003": "16001", "P29_004": "沖縄市立コザ小学校", "P29_005": "沖縄県沖縄市中央4-16-1", "P29_006": "3", "P29_007": "1", "P29_008": "00", "P29_009": null }, "geometry": { "type": "Point", "coordinates": [ 127.801956967810014, 26.341812517681369 ] } },
{ "type": "Feature", "properties": { "P29_001": "47211", "P29_002": "B147221100065", "P29_003": "16001", "P29_004": "沖縄市立諸見小学校", "P29_005": "沖縄県沖縄市胡屋2-3-1", "P29_006": "3", "P29_007": "1", "P29_008": "00", "P29_009": null }, "geometry": { "type": "Point", "coordinates": [ 127.799932996510208, 26.332829000336208 ] } },
{ "type": "Feature", "properties": { "P29_001": "47211", "P29_002": "B147221100074", "P29_003": "16001", "P29_004": "沖縄市立島袋小学校", "P29_005": "沖縄県沖縄市久保田2-21-1", "P29_006": "3", "P29_007": "1", "P29_008": "00", "P29_009": null }, "geometry": { "type": "Point", "coordinates": [ 127.797710998593359, 26.324414001499832 ] } },
{ "type": "Feature", "properties": { "P29_001": "47211", "P29_002": "B147221100083", "P29_003": "16001", "P29_004": "沖縄市立北美小学校", "P29_005": "沖縄県沖縄市登川1515", "P29_006": "3", "P29_007": "1", "P29_008": "00", "P29_009": null }, "geometry": { "type": "Point", "coordinates": [ 127.821291995866304, 26.376936997305869 ] } },
{ "type": "Feature", "properties": { "P29_001": "47211", "P29_002": "B147221100092", "P29_003": "16001", "P29_004": "沖縄市立中の町小学校", "P29_005": "沖縄県沖縄市上地3-4-1", "P29_006": "3", "P29_007": "1", "P29_008": "00", "P29_009": null }, "geometry": { "type": "Point", "coordinates": [ 127.793390807359359, 26.333447121196343 ] } },
{ "type": "Feature", "properties": { "P29_001": "47211", "P29_002": "B147221100109", "P29_003": "16001", "P29_004": "沖縄市立高原小学校", "P29_005": "沖縄県沖縄市高原5-12-2", "P29_006": "3", "P29_007": "1", "P29_008": "00", "P29_009": null }, "geometry": { "type": "Point", "coordinates": [ 127.825610540079495, 26.323139820077067 ] } },
{ "type": "Feature", "properties": { "P29_001": "47211", "P29_002": "B147221100118", "P29_003": "16001", "P29_004": "沖縄市立宮里小学校", "P29_005": "沖縄県沖縄市宮里3-27-1", "P29_006": "3", "P29_007": "1", "P29_008": "00", "P29_009": null }, "geometry": { "type": "Point", "coordinates": [ 127.822625999299234, 26.338329003416316 ] } },
{ "type": "Feature", "properties": { "P29_001": "47211", "P29_002": "B147221100127", "P29_003": "16001", "P29_004": "沖縄市立山内小学校", "P29_005": "沖縄県沖縄市山内2-32-2", "P29_006": "3", "P29_007": "1", "P29_008": "00", "P29_009": null }, "geometry": { "type": "Point", "coordinates": [ 127.783512150734424, 26.324477982295839 ] } },
{ "type": "Feature", "properties": { "P29_001": "47211", "P29_002": "B147221100136", "P29_003": "16001", "P29_004": "沖縄市立室川小学校", "P29_005": "沖縄県沖縄市室川2-24-1", "P29_006": "3", "P29_007": "1", "P29_008": "00", "P29_009": null }, "geometry": { "type": "Point", "coordinates": [ 127.808463384834127, 26.334936573458737 ] } },
{ "type": "Feature", "properties": { "P29_001": "47211", "P29_002": "B147221100145", "P29_003": "16001", "P29_004": "沖縄市立美原小学校", "P29_005": "沖縄県沖縄市美原4-20-1", "P29_006": "3", "P29_007": "1", "P29_008": "00", "P29_009": null }, "geometry": { "type": "Point", "coordinates": [ 127.82126800369997, 26.349957996691696 ] } },
{ "type": "Feature", "properties": { "P29_001": "47211", "P29_002": "B147221100154", "P29_003": "16001", "P29_004": "沖縄市立泡瀬小学校", "P29_005": "沖縄県沖縄市泡瀬2-33-10", "P29_006": "3", "P29_007": "1", "P29_008": "00", "P29_009": null }, "geometry": { "type": "Point", "coordinates": [ 127.834430996163547, 26.316581998070927 ] } },
{ "type": "Feature", "properties": { "P29_001": "47211", "P29_002": "B147221100163", "P29_003": "16001", "P29_004": "沖縄市立比屋根小学校", "P29_005": "沖縄県沖縄市比屋根6-2-1", "P29_006": "3", "P29_007": "1", "P29_008": "00", "P29_009": null }, "geometry": { "type": "Point", "coordinates": [ 127.8159619996446, 26.314003996585445 ] } },
{ "type": "Feature", "properties": { "P29_001": "47212", "P29_002": "B147221200019", "P29_003": "16001", "P29_004": "豊見城市立座安小学校", "P29_005": "沖縄県豊見城市字座安230-1", "P29_006": "3", "P29_007": "1", "P29_008": "00", "P29_009": null }, "geometry": { "type": "Point", "coordinates": [ 127.673071729583668, 26.165957318492296 ] } },
{ "type": "Feature", "properties": { "P29_001": "47212", "P29_002": "B147221200028", "P29_003": "16001", "P29_004": "豊見城市立長嶺小学校", "P29_005": "沖縄県豊見城市字饒波1018", "P29_006": "3", "P29_007": "1", "P29_008": "00", "P29_009": null }, "geometry": { "type": "Point", "coordinates": [ 127.695262995040011, 26.181485997367922 ] } },
{ "type": "Feature", "properties": { "P29_001": "47212", "P29_002": "B147221200037", "P29_003": "16001", "P29_004": "豊見城市立上田小学校", "P29_005": "沖縄県豊見城市字宜保1-1-4", "P29_006": "3", "P29_007": "1", "P29_008": "00", "P29_009": null }, "geometry": { "type": "Point", "coordinates": [ 127.679218546225329, 26.177286235767919 ] } },
{ "type": "Feature", "properties": { "P29_001": "47212", "P29_002": "B147221200046", "P29_003": "16001", "P29_004": "豊見城市立豊見城小学校", "P29_005": "沖縄県豊見城市字高嶺446-15", "P29_006": "3", "P29_007": "1", "P29_008": "00", "P29_009": null }, "geometry": { "type": "Point", "coordinates": [ 127.699591730184466, 26.167002578888145 ] } },
{ "type": "Feature", "properties": { "P29_001": "47212", "P29_002": "B147221200055", "P29_003": "16001", "P29_004": "豊見城市立伊良波小学校", "P29_005": "沖縄県豊見城市字伊良波300", "P29_006": "3", "P29_007": "1", "P29_008": "00", "P29_009": null }, "geometry": { "type": "Point", "coordinates": [ 127.672509559675873, 26.17335023416317 ] } },
{ "type": "Feature", "properties": { "P29_001": "47212", "P29_002": "B147221200064", "P29_003": "16001", "P29_004": "豊見城市立とよみ小学校", "P29_005": "沖縄県豊見城市字高安1132-2", "P29_006": "3", "P29_007": "1", "P29_008": "00", "P29_009": null }, "geometry": { "type": "Point", "coordinates": [ 127.688727998137338, 26.18534100157714 ] } },
{ "type": "Feature", "properties": { "P29_001": "47212", "P29_002": "B147221200073", "P29_003": "16001", "P29_004": "豊見城市立豊崎小学校", "P29_005": "沖縄県豊見城市字豊崎1-406", "P29_006": "3", "P29_007": "1", "P29_008": "00", "P29_009": null }, "geometry": { "type": "Point", "coordinates": [ 127.663163548045191, 26.158019935121334 ] } },
{ "type": "Feature", "properties": { "P29_001": "47212", "P29_002": "B147221200082", "P29_003": "16001", "P29_004": "豊見城市立ゆたか小学校", "P29_005": "沖縄県豊見城市字豊見城601-1", "P29_006": "3", "P29_007": "1", "P29_008": "00", "P29_009": null }, "geometry": { "type": "Point", "coordinates": [ 127.681990002288231, 26.18136399961724 ] } },
{ "type": "Feature", "properties": { "P29_001": "47213", "P29_002": "B147221300018", "P29_003": "16001", "P29_004": "うるま市立具志川小学校", "P29_005": "沖縄県うるま市字具志川3133", "P29_006": "3", "P29_007": "1", "P29_008": "00", "P29_009": null }, "geometry": { "type": "Point", "coordinates": [ 127.871218482397012, 26.363855483039956 ] } },
{ "type": "Feature", "properties": { "P29_001": "47213", "P29_002": "B147221300027", "P29_003": "16001", "P29_004": "うるま市立勝連小学校", "P29_005": "沖縄県うるま市勝連字内間1173", "P29_006": "3", "P29_007": "1", "P29_008": "00", "P29_009": null }, "geometry": { "type": "Point", "coordinates": [ 127.898949590074153, 26.316831650276757 ] } },
{ "type": "Feature", "properties": { "P29_001": "47213", "P29_002": "B147221300036", "P29_003": "16001", "P29_004": "うるま市立伊波小学校", "P29_005": "沖縄県うるま市石川伊波287-1", "P29_006": "3", "P29_007": "1", "P29_008": "00", "P29_009": null }, "geometry": { "type": "Point", "coordinates": [ 127.820171951314293, 26.417358660656841 ] } },
{ "type": "Feature", "properties": { "P29_001": "47213", "P29_002": "B147221300045", "P29_003": "16001", "P29_004": "うるま市立津堅小学校", "P29_005": "沖縄県うるま市勝連津堅1327-2", "P29_006": "3", "P29_007": "1", "P29_008": "00", "P29_009": null }, "geometry": { "type": "Point", "coordinates": [ 127.936221458475075, 26.248034014327548 ] } },
{ "type": "Feature", "properties": { "P29_001": "47213", "P29_002": "B147221300054", "P29_003": "16001", "P29_004": "うるま市立天願小学校", "P29_005": "沖縄県うるま市みどり町1-8-1", "P29_006": "3", "P29_007": "1", "P29_008": "00", "P29_009": null }, "geometry": { "type": "Point", "coordinates": [ 127.860269233759368, 26.381413529177951 ] } },
{ "type": "Feature", "properties": { "P29_001": "47213", "P29_002": "B147221300063", "P29_003": "16001", "P29_004": "うるま市立高江洲小学校", "P29_005": "沖縄県うるま市字高江洲118-1", "P29_006": "3", "P29_007": "1", "P29_008": "00", "P29_009": null }, "geometry": { "type": "Point", "coordinates": [ 127.848116156529244, 26.348151432265066 ] } },
{ "type": "Feature", "properties": { "P29_001": "47213", "P29_002": "B147221300072", "P29_003": "16001", "P29_004": "うるま市立与那城小学校", "P29_005": "沖縄県うるま市与那城屋慶名468-29", "P29_006": "3", "P29_007": "1", "P29_008": "00", "P29_009": null }, "geometry": { "type": "Point", "coordinates": [ 127.902751640295335, 26.327495946002731 ] } },
{ "type": "Feature", "properties": { "P29_001": "47213", "P29_002": "B147221300081", "P29_003": "16001", "P29_004": "うるま市立城前小学校", "P29_005": "沖縄県うるま市石川400", "P29_006": "3", "P29_007": "1", "P29_008": "00", "P29_009": null }, "geometry": { "type": "Point", "coordinates": [ 127.822790000401952, 26.424264999605739 ] } },
{ "type": "Feature", "properties": { "P29_001": "47213", "P29_002": "B147221300090", "P29_003": "16001", "P29_004": "うるま市立宮森小学校", "P29_005": "沖縄県うるま市石川1-46-1", "P29_006": "3", "P29_007": "1", "P29_008": "00", "P29_009": null }, "geometry": { "type": "Point", "coordinates": [ 127.827043369749703, 26.431240836329231 ] } },
{ "type": "Feature", "properties": { "P29_001": "47213", "P29_002": "B147221300107", "P29_003": "16001", "P29_004": "うるま市立川崎小学校", "P29_005": "沖縄県うるま市字川崎117", "P29_006": "3", "P29_007": "1", "P29_008": "00", "P29_009": null }, "geometry": { "type": "Point", "coordinates": [ 127.844817286761767, 26.384067431783912 ] } },
{ "type": "Feature", "properties": { "P29_001": "47213", "P29_002": "B147221300116", "P29_003": "16001", "P29_004": "うるま市立田場小学校", "P29_005": "沖縄県うるま市字田場876", "P29_006": "3", "P29_007": "1", "P29_008": "00", "P29_009": null }, "geometry": { "type": "Point", "coordinates": [ 127.86226000034047, 26.365132996425665 ] } },
{ "type": "Feature", "properties": { "P29_001": "47213", "P29_002": "B147221300125", "P29_003": "16001", "P29_004": "うるま市立南原小学校", "P29_005": "沖縄県うるま市勝連南風原279-1", "P29_006": "3", "P29_007": "1", "P29_008": "00", "P29_009": null }, "geometry": { "type": "Point", "coordinates": [ 127.874069132848376, 26.338152699921721 ] } },
{ "type": "Feature", "properties": { "P29_001": "47213", "P29_002": "B147221300134", "P29_003": "16001", "P29_004": "うるま市立兼原小学校", "P29_005": "沖縄県うるま市字喜屋武66", "P29_006": "3", "P29_007": "1", "P29_008": "00", "P29_009": null }, "geometry": { "type": "Point", "coordinates": [ 127.850545184910558, 26.363769413433282 ] } },
{ "type": "Feature", "properties": { "P29_001": "47213", "P29_002": "B147221300143", "P29_003": "16001", "P29_004": "うるま市立あげな小学校", "P29_005": "沖縄県うるま市字西原151", "P29_006": "3", "P29_007": "1", "P29_008": "00", "P29_009": null }, "geometry": { "type": "Point", "coordinates": [ 127.848512000306002, 26.375047999388912 ] } },
{ "type": "Feature", "properties": { "P29_001": "47213", "P29_002": "B147221300152", "P29_003": "16001", "P29_004": "うるま市立中原小学校", "P29_005": "沖縄県うるま市字宮里731", "P29_006": "3", "P29_007": "1", "P29_008": "00", "P29_009": null }, "geometry": { "type": "Point", "coordinates": [ 127.833764004157629, 26.350633996022463 ] } },
{ "type": "Feature", "properties": { "P29_001": "47213", "P29_002": "B147221300161", "P29_003": "16001", "P29_004": "うるま市立平敷屋小学校", "P29_005": "沖縄県うるま市勝連平敷屋3850", "P29_006": "3", "P29_007": "1", "P29_008": "00", "P29_009": null }, "geometry": { "type": "Point", "coordinates": [ 127.917698814616614, 26.306623822100729 ] } },
{ "type": "Feature", "properties": { "P29_001": "47213", "P29_002": "B147221300170", "P29_003": "16001", "P29_004": "うるま市立赤道小学校", "P29_005": "沖縄県うるま市字赤道921", "P29_006": "3", "P29_007": "1", "P29_008": "00", "P29_009": null }, "geometry": { "type": "Point", "coordinates": [ 127.830793807007183, 26.363106081709436 ] } },
{ "type": "Feature", "properties": { "P29_001": "47213", "P29_002": "B147221300189", "P29_003": "16001", "P29_004": "うるま市立彩橋小学校", "P29_005": "沖縄県うるま市与那城平安座8169-1", "P29_006": "3", "P29_007": "1", "P29_008": "00", "P29_009": null }, "geometry": { "type": "Point", "coordinates": [ 127.949635441811679, 26.341795033517254 ] } },
{ "type": "Feature", "properties": { "P29_001": "47214", "P29_002": "B147221400017", "P29_003": "16001", "P29_004": "宮古島市立北小学校", "P29_005": "沖縄県宮古島市平良字西里217", "P29_006": "3", "P29_007": "1", "P29_008": "00", "P29_009": null }, "geometry": { "type": "Point", "coordinates": [ 125.281973981581288, 24.805958980801201 ] } },
{ "type": "Feature", "properties": { "P29_001": "47214", "P29_002": "B147221400026", "P29_003": "16001", "P29_004": "宮古島市立平良第一小学校", "P29_005": "沖縄県宮古島市平良字下里1141", "P29_006": "3", "P29_007": "1", "P29_008": "00", "P29_009": null }, "geometry": { "type": "Point", "coordinates": [ 125.284714720531525, 24.798178061634751 ] } },
{ "type": "Feature", "properties": { "P29_001": "47214", "P29_002": "B147221400035", "P29_003": "16001", "P29_004": "宮古島市立狩俣小学校", "P29_005": "沖縄県宮古島市平良字狩俣1242", "P29_006": "3", "P29_007": "1", "P29_008": "00", "P29_009": null }, "geometry": { "type": "Point", "coordinates": [ 125.276194728014858, 24.894413833943879 ] } },
{ "type": "Feature", "properties": { "P29_001": "47214", "P29_002": "B147221400044", "P29_003": "16001", "P29_004": "宮古島市立下地小学校", "P29_005": "沖縄県宮古島市下地字洲鎌305", "P29_006": "3", "P29_007": "1", "P29_008": "00", "P29_009": null }, "geometry": { "type": "Point", "coordinates": [ 125.284313104878208, 24.746186137277519 ] } },
{ "type": "Feature", "properties": { "P29_001": "47214", "P29_002": "B147221400053", "P29_003": "16001", "P29_004": "宮古島市立西辺小学校", "P29_005": "沖縄県宮古島市平良字西原1081", "P29_006": "3", "P29_007": "1", "P29_008": "00", "P29_009": null }, "geometry": { "type": "Point", "coordinates": [ 125.298507479368141, 24.830288164097148 ] } },
{ "type": "Feature", "properties": { "P29_001": "47214", "P29_002": "B147221400062", "P29_003": "16001", "P29_004": "宮古島市立城辺小学校", "P29_005": "沖縄県宮古島市城辺字福里878", "P29_006": "3", "P29_007": "1", "P29_008": "00", "P29_009": null }, "geometry": { "type": "Point", "coordinates": [ 125.393665267957871, 24.753464191468417 ] } },
{ "type": "Feature", "properties": { "P29_001": "47214", "P29_002": "B147221400071", "P29_003": "16001", "P29_004": "宮古島市立上野小学校", "P29_005": "沖縄県宮古島市上野字野原734-2", "P29_006": "3", "P29_007": "1", "P29_008": "00", "P29_009": null }, "geometry": { "type": "Point", "coordinates": [ 125.332465540127089, 24.743132238613672 ] } },
{ "type": "Feature", "properties": { "P29_001": "47214", "P29_002": "B147221400080", "P29_003": "16001", "P29_004": "宮古島市立久松小学校", "P29_005": "沖縄県宮古島市平良字久貝933", "P29_006": "3", "P29_007": "1", "P29_008": "00", "P29_009": null }, "geometry": { "type": "Point", "coordinates": [ 125.271255454263738, 24.7925298598335 ] } },
{ "type": "Feature", "properties": { "P29_001": "47214", "P29_002": "B147221400099", "P29_003": "16001", "P29_004": "宮古島市立池間小学校", "P29_005": "沖縄県宮古島市平良字池間903", "P29_006": "3", "P29_007": "1", "P29_008": "00", "P29_009": null }, "geometry": { "type": "Point", "coordinates": [ 125.247911582010346, 24.927422489120026 ] } },
{ "type": "Feature", "properties": { "P29_001": "47214", "P29_002": "B147221400106", "P29_003": "16001", "P29_004": "宮古島市立西城小学校", "P29_005": "沖縄県宮古島市城辺字西里添1048", "P29_006": "3", "P29_007": "1", "P29_008": "00", "P29_009": null }, "geometry": { "type": "Point", "coordinates": [ 125.364497904736282, 24.760235203638445 ] } },
{ "type": "Feature", "properties": { "P29_001": "47214", "P29_002": "B147221400115", "P29_003": "16001", "P29_004": "宮古島市立砂川小学校", "P29_005": "沖縄県宮古島市城辺字砂川605", "P29_006": "3", "P29_007": "1", "P29_008": "00", "P29_009": null }, "geometry": { "type": "Point", "coordinates": [ 125.348318334825464, 24.743755354845462 ] } },
{ "type": "Feature", "properties": { "P29_001": "47214", "P29_002": "B147221400124", "P29_003": "16001", "P29_004": "宮古島市立福嶺小学校", "P29_005": "沖縄県宮古島市城辺字新城448", "P29_006": "3", "P29_007": "1", "P29_008": "00", "P29_009": null }, "geometry": { "type": "Point", "coordinates": [ 125.411010362151558, 24.74287992130547 ] } },
{ "type": "Feature", "properties": { "P29_001": "47214", "P29_002": "B147221400133", "P29_003": "16001", "P29_004": "宮古島市立鏡原小学校", "P29_005": "沖縄県宮古島市平良字下里3107-2", "P29_006": "3", "P29_007": "1", "P29_008": "00", "P29_009": null }, "geometry": { "type": "Point", "coordinates": [ 125.310879609439269, 24.781937609046636 ] } },
{ "type": "Feature", "properties": { "P29_001": "47214", "P29_002": "B147221400142", "P29_003": "16001", "P29_004": "宮古島市立南小学校", "P29_005": "沖縄県宮古島市平良字下里1068", "P29_006": "3", "P29_007": "1", "P29_008": "00", "P29_009": null }, "geometry": { "type": "Point", "coordinates": [ 125.282640647444296, 24.79436410171629 ] } },
{ "type": "Feature", "properties": { "P29_001": "47214", "P29_002": "B147221400151", "P29_003": "16001", "P29_004": "宮古島市立東小学校", "P29_005": "沖縄県宮古島市平良字東仲宗根698", "P29_006": "3", "P29_007": "1", "P29_008": "00", "P29_009": null }, "geometry": { "type": "Point", "coordinates": [ 125.297819898509786, 24.806387878305962 ] } },
{ "type": "Feature", "properties": { "P29_001": "47214", "P29_002": "B147221400160", "P29_003": "16001", "P29_004": "宮古島市立伊良部島小学校", "P29_005": "沖縄県宮古島市伊良部字池間添1720", "P29_006": "3", "P29_007": "1", "P29_008": "00", "P29_009": null }, "geometry": { "type": "Point", "coordinates": [ 125.207154998474806, 24.837477377688948 ] } },
{ "type": "Feature", "properties": { "P29_001": "47215", "P29_002": "B147221500016", "P29_003": "16001", "P29_004": "南城市立大里北小学校", "P29_005": "沖縄県南城市大里字嶺井392", "P29_006": "3", "P29_007": "1", "P29_008": "00", "P29_009": null }, "geometry": { "type": "Point", "coordinates": [ 127.75217573139571, 26.190176812274128 ] } },
{ "type": "Feature", "properties": { "P29_001": "47215", "P29_002": "B147221500025", "P29_003": "16001", "P29_004": "南城市立玉城小学校", "P29_005": "沖縄県南城市玉城字屋嘉部3", "P29_006": "3", "P29_007": "1", "P29_008": "00", "P29_009": null }, "geometry": { "type": "Point", "coordinates": [ 127.765002930341026, 26.146039897506725 ] } },
{ "type": "Feature", "properties": { "P29_001": "47215", "P29_002": "B147221500034", "P29_003": "16001", "P29_004": "南城市立佐敷小学校", "P29_005": "沖縄県南城市佐敷字佐敷1193", "P29_006": "3", "P29_007": "1", "P29_008": "00", "P29_009": null }, "geometry": { "type": "Point", "coordinates": [ 127.785134060097434, 26.167506930492745 ] } },
{ "type": "Feature", "properties": { "P29_001": "47215", "P29_002": "B147221500043", "P29_003": "16001", "P29_004": "南城市立知念小学校", "P29_005": "沖縄県南城市知念字久手堅679", "P29_006": "3", "P29_007": "1", "P29_008": "00", "P29_009": null }, "geometry": { "type": "Point", "coordinates": [ 127.819435936227535, 26.170797021117878 ] } },
{ "type": "Feature", "properties": { "P29_001": "47215", "P29_002": "B147221500052", "P29_003": "16001", "P29_004": "南城市立大里南小学校", "P29_005": "沖縄県南城市大里字仲間1375", "P29_006": "3", "P29_007": "1", "P29_008": "00", "P29_009": null }, "geometry": { "type": "Point", "coordinates": [ 127.748692002707813, 26.173122000908375 ] } },
{ "type": "Feature", "properties": { "P29_001": "47215", "P29_002": "B147221500061", "P29_003": "16001", "P29_004": "南城市立久高小学校", "P29_005": "沖縄県南城市知念字久高46", "P29_006": "3", "P29_007": "1", "P29_008": "00", "P29_009": null }, "geometry": { "type": "Point", "coordinates": [ 127.886411133954411, 26.156936498246413 ] } },
{ "type": "Feature", "properties": { "P29_001": "47215", "P29_002": "B147221500070", "P29_003": "16001", "P29_004": "南城市立百名小学校", "P29_005": "沖縄県南城市玉城字百名54", "P29_006": "3", "P29_007": "1", "P29_008": "00", "P29_009": null }, "geometry": { "type": "Point", "coordinates": [ 127.791287004238328, 26.142380998377472 ] } },
{ "type": "Feature", "properties": { "P29_001": "47215", "P29_002": "B147221500089", "P29_003": "16001", "P29_004": "南城市立船越小学校", "P29_005": "沖縄県南城市玉城字船越960", "P29_006": "3", "P29_007": "1", "P29_008": "00", "P29_009": null }, "geometry": { "type": "Point", "coordinates": [ 127.751489887336447, 26.153140595926988 ] } },
{ "type": "Feature", "properties": { "P29_001": "47215", "P29_002": "B147221500098", "P29_003": "16001", "P29_004": "南城市立馬天小学校", "P29_005": "沖縄県南城市佐敷字津波古1800", "P29_006": "3", "P29_007": "1", "P29_008": "00", "P29_009": null }, "geometry": { "type": "Point", "coordinates": [ 127.768312965371777, 26.181010543884486 ] } },
{ "type": "Feature", "properties": { "P29_001": "47301", "P29_002": "B147230100011", "P29_003": "16001", "P29_004": "国頭村立辺土名小学校", "P29_005": "沖縄県国頭郡国頭村字辺土名181", "P29_006": "3", "P29_007": "1", "P29_008": "00", "P29_009": null }, "geometry": { "type": "Point", "coordinates": [ 128.177167998227219, 26.747245995434064 ] } },
{ "type": "Feature", "properties": { "P29_001": "47301", "P29_002": "B147230100039", "P29_003": "16001", "P29_004": "国頭村立奥間小学校", "P29_005": "沖縄県国頭郡国頭村字奥間1", "P29_006": "3", "P29_007": "1", "P29_008": "00", "P29_009": null }, "geometry": { "type": "Point", "coordinates": [ 128.172919408932557, 26.73316462648981 ] } },
{ "type": "Feature", "properties": { "P29_001": "47301", "P29_002": "B147230100048", "P29_003": "16001", "P29_004": "国頭村立安田小学校", "P29_005": "沖縄県国頭郡国頭村安田279", "P29_006": "3", "P29_007": "1", "P29_008": "00", "P29_009": null }, "geometry": { "type": "Point", "coordinates": [ 128.318867714829707, 26.746518521616554 ] } },
{ "type": "Feature", "properties": { "P29_001": "47301", "P29_002": "B147230100066", "P29_003": "16001", "P29_004": "国頭村立安波小学校", "P29_005": "沖縄県国頭郡国頭村安波601", "P29_006": "3", "P29_007": "1", "P29_008": "00", "P29_009": null }, "geometry": { "type": "Point", "coordinates": [ 128.283242999882589, 26.718113002843587 ] } },
{ "type": "Feature", "properties": { "P29_001": "47301", "P29_002": "B147230100075", "P29_003": "16001", "P29_004": "国頭村立奥小学校", "P29_005": "沖縄県国頭郡国頭村奥313", "P29_006": "3", "P29_007": "1", "P29_008": "00", "P29_009": null }, "geometry": { "type": "Point", "coordinates": [ 128.28921387219296, 26.841008465380554 ] } },
{ "type": "Feature", "properties": { "P29_001": "47302", "P29_002": "B147230200010", "P29_003": "16001", "P29_004": "大宜味村立大宜味小学校", "P29_005": "沖縄県国頭郡大宜味村字塩屋1306-6", "P29_006": "3", "P29_007": "1", "P29_008": "00", "P29_009": null }, "geometry": { "type": "Point", "coordinates": [ 128.102497811691165, 26.682121785177667 ] } },
{ "type": "Feature", "properties": { "P29_001": "47303", "P29_002": "B147230300019", "P29_003": "16001", "P29_004": "東村立東小学校", "P29_005": "沖縄県国頭郡東村字川田837", "P29_006": "3", "P29_007": "1", "P29_008": "00", "P29_009": null }, "geometry": { "type": "Point", "coordinates": [ 128.166090996214109, 26.629840000243139 ] } },
{ "type": "Feature", "properties": { "P29_001": "47303", "P29_002": "B147230300028", "P29_003": "16001", "P29_004": "東村立有銘小学校", "P29_005": "沖縄県国頭郡東村字有銘1", "P29_006": "3", "P29_007": "1", "P29_008": "00", "P29_009": null }, "geometry": { "type": "Point", "coordinates": [ 128.121622001022672, 26.603812996400634 ] } },
{ "type": "Feature", "properties": { "P29_001": "47303", "P29_002": "B147230300037", "P29_003": "16001", "P29_004": "東村立高江小学校", "P29_005": "沖縄県国頭郡東村字高江83-8", "P29_006": "3", "P29_007": "1", "P29_008": "00", "P29_009": null }, "geometry": { "type": "Point", "coordinates": [ 128.252448186344282, 26.662463383985447 ] } },
{ "type": "Feature", "properties": { "P29_001": "47306", "P29_002": "B147230600016", "P29_003": "16001", "P29_004": "今帰仁村立今帰仁小学校", "P29_005": "沖縄県国頭郡今帰仁村字越地207", "P29_006": "3", "P29_007": "1", "P29_008": "00", "P29_009": null }, "geometry": { "type": "Point", "coordinates": [ 127.967380000286255, 26.687717999712866 ] } },
{ "type": "Feature", "properties": { "P29_001": "47306", "P29_002": "B147230600025", "P29_003": "16001", "P29_004": "今帰仁村立天底小学校", "P29_005": "沖縄県国頭郡今帰仁村天底420", "P29_006": "3", "P29_007": "1", "P29_008": "00", "P29_009": null }, "geometry": { "type": "Point", "coordinates": [ 127.982546002656676, 26.673969997018673 ] } },
{ "type": "Feature", "properties": { "P29_001": "47306", "P29_002": "B147230600034", "P29_003": "16001", "P29_004": "今帰仁村立兼次小学校", "P29_005": "沖縄県国頭郡今帰仁村字今泊3933-1", "P29_006": "3", "P29_007": "1", "P29_008": "00", "P29_009": null }, "geometry": { "type": "Point", "coordinates": [ 127.936462790454627, 26.697795417333889 ] } },
{ "type": "Feature", "properties": { "P29_001": "47308", "P29_002": "B147230800014", "P29_003": "16001", "P29_004": "本部町立本部小学校", "P29_005": "沖縄県国頭郡本部町字東605", "P29_006": "3", "P29_007": "1", "P29_008": "00", "P29_009": null }, "geometry": { "type": "Point", "coordinates": [ 127.901475341324414, 26.660382214584288 ] } },
{ "type": "Feature", "properties": { "P29_001": "47308", "P29_002": "B147230800023", "P29_003": "16001", "P29_004": "本部町立瀬底小学校", "P29_005": "沖縄県国頭郡本部町字瀬底693", "P29_006": "3", "P29_007": "1", "P29_008": "00", "P29_009": null }, "geometry": { "type": "Point", "coordinates": [ 127.862637159005502, 26.648172024403973 ] } },
{ "type": "Feature", "properties": { "P29_001": "47308", "P29_002": "B147230800032", "P29_003": "16001", "P29_004": "本部町立伊豆味小学校", "P29_005": "沖縄県国頭郡本部町字伊豆味13", "P29_006": "3", "P29_007": "1", "P29_008": "00", "P29_009": null }, "geometry": { "type": "Point", "coordinates": [ 127.945945499901882, 26.650449650602713 ] } },
{ "type": "Feature", "properties": { "P29_001": "47308", "P29_002": "B147230800041", "P29_003": "16001", "P29_004": "本部町立水納小学校", "P29_005": "沖縄県国頭郡本部町字瀬底6260", "P29_006": "3", "P29_007": "9", "P29_008": "00", "P29_009": null }, "geometry": { "type": "Point", "coordinates": [ 127.815318214346092, 26.648944263724733 ] } },
{ "type": "Feature", "properties": { "P29_001": "47308", "P29_002": "B147230800050", "P29_003": "16001", "P29_004": "本部町立上本部小学校", "P29_005": "沖縄県国頭郡本部町北里1317", "P29_006": "3", "P29_007": "1", "P29_008": "00", "P29_009": null }, "geometry": { "type": "Point", "coordinates": [ 127.900135000362141, 26.69232499763072 ] } },
{ "type": "Feature", "properties": { "P29_001": "47311", "P29_002": "B147231100019", "P29_003": "16001", "P29_004": "恩納村立恩納小学校", "P29_005": "沖縄県国頭郡恩納村字恩納6069-1", "P29_006": "3", "P29_007": "1", "P29_008": "00", "P29_009": null }, "geometry": { "type": "Point", "coordinates": [ 127.845203237868802, 26.489102458305908 ] } },
{ "type": "Feature", "properties": { "P29_001": "47311", "P29_002": "B147231100028", "P29_003": "16001", "P29_004": "恩納村立山田小学校", "P29_005": "沖縄県国頭郡恩納村字山田997", "P29_006": "3", "P29_007": "1", "P29_008": "00", "P29_009": null }, "geometry": { "type": "Point", "coordinates": [ 127.7769870016364, 26.433236004556004 ] } },
{ "type": "Feature", "properties": { "P29_001": "47311", "P29_002": "B147231100037", "P29_003": "16001", "P29_004": "恩納村立安富祖小学校", "P29_005": "沖縄県国頭郡恩納村字安富祖1868-1", "P29_006": "3", "P29_007": "1", "P29_008": "00", "P29_009": null }, "geometry": { "type": "Point", "coordinates": [ 127.898925363783121, 26.512730060462296 ] } },
{ "type": "Feature", "properties": { "P29_001": "47311", "P29_002": "B147231100046", "P29_003": "16001", "P29_004": "恩納村立仲泊小学校", "P29_005": "沖縄県国頭郡恩納村字仲泊433-1", "P29_006": "3", "P29_007": "1", "P29_008": "00", "P29_009": null }, "geometry": { "type": "Point", "coordinates": [ 127.802705442817981, 26.441003059981348 ] } },
{ "type": "Feature", "properties": { "P29_001": "47311", "P29_002": "B147231100055", "P29_003": "16001", "P29_004": "恩納村立喜瀬武原小学校", "P29_005": "沖縄県国頭郡恩納村字喜瀬武原458-16", "P29_006": "3", "P29_007": "9", "P29_008": "00", "P29_009": null }, "geometry": { "type": "Point", "coordinates": [ 127.910288791819511, 26.489819646698166 ] } },
{ "type": "Feature", "properties": { "P29_001": "47313", "P29_002": "B147231300017", "P29_003": "16001", "P29_004": "宜野座村立宜野座小学校", "P29_005": "沖縄県国頭郡宜野座村字宜野座1190", "P29_006": "3", "P29_007": "1", "P29_008": "00", "P29_009": null }, "geometry": { "type": "Point", "coordinates": [ 127.975241978954301, 26.480631638579716 ] } },
{ "type": "Feature", "properties": { "P29_001": "47313", "P29_002": "B147231300026", "P29_003": "16001", "P29_004": "宜野座村立漢那小学校", "P29_005": "沖縄県国頭郡宜野座村字漢那1987-5", "P29_006": "3", "P29_007": "1", "P29_008": "00", "P29_009": null }, "geometry": { "type": "Point", "coordinates": [ 127.95335099941245, 26.477899002614251 ] } },
{ "type": "Feature", "properties": { "P29_001": "47313", "P29_002": "B147231300035", "P29_003": "16001", "P29_004": "宜野座村立松田小学校", "P29_005": "沖縄県国頭郡宜野座村字松田601", "P29_006": "3", "P29_007": "1", "P29_008": "00", "P29_009": null }, "geometry": { "type": "Point", "coordinates": [ 127.991704237652954, 26.488418158416696 ] } },
{ "type": "Feature", "properties": { "P29_001": "47314", "P29_002": "B147231400016", "P29_003": "16001", "P29_004": "金武町立嘉芸小学校", "P29_005": "沖縄県国頭郡金武町字屋嘉1470", "P29_006": "3", "P29_007": "1", "P29_008": "00", "P29_009": null }, "geometry": { "type": "Point", "coordinates": [ 127.858452997547261, 26.453764001350937 ] } },
{ "type": "Feature", "properties": { "P29_001": "47314", "P29_002": "B147231400025", "P29_003": "16001", "P29_004": "金武町立金武小学校", "P29_005": "沖縄県国頭郡金武町字金武491-1", "P29_006": "3", "P29_007": "1", "P29_008": "00", "P29_009": null }, "geometry": { "type": "Point", "coordinates": [ 127.925876663127127, 26.453375615130298 ] } },
{ "type": "Feature", "properties": { "P29_001": "47314", "P29_002": "B147231400034", "P29_003": "16001", "P29_004": "金武町立中川小学校", "P29_005": "沖縄県国頭郡金武町字金武10154", "P29_006": "3", "P29_007": "1", "P29_008": "00", "P29_009": null }, "geometry": { "type": "Point", "coordinates": [ 127.93761199595005, 26.471347002123299 ] } },
{ "type": "Feature", "properties": { "P29_001": "47315", "P29_002": "B147231500015", "P29_003": "16001", "P29_004": "伊江村立伊江小学校", "P29_005": "沖縄県国頭郡伊江村字東江前364", "P29_006": "3", "P29_007": "1", "P29_008": "00", "P29_009": null }, "geometry": { "type": "Point", "coordinates": [ 127.812942803151401, 26.715089970360907 ] } },
{ "type": "Feature", "properties": { "P29_001": "47315", "P29_002": "B147231500024", "P29_003": "16001", "P29_004": "伊江村立西小学校", "P29_005": "沖縄県国頭郡伊江村字川平600", "P29_006": "3", "P29_007": "1", "P29_008": "00", "P29_009": null }, "geometry": { "type": "Point", "coordinates": [ 127.797476002306908, 26.712598998309954 ] } },
{ "type": "Feature", "properties": { "P29_001": "47324", "P29_002": "B147232400014", "P29_003": "16001", "P29_004": "読谷村立読谷小学校", "P29_005": "沖縄県中頭郡読谷村高志保1277-1", "P29_006": "3", "P29_007": "1", "P29_008": "00", "P29_009": null }, "geometry": { "type": "Point", "coordinates": [ 127.732463998759343, 26.407236996730845 ] } },
{ "type": "Feature", "properties": { "P29_001": "47324", "P29_002": "B147232400023", "P29_003": "16001", "P29_004": "読谷村立渡慶次小学校", "P29_005": "沖縄県中頭郡読谷村字瀬名波510", "P29_006": "3", "P29_007": "1", "P29_008": "00", "P29_009": null }, "geometry": { "type": "Point", "coordinates": [ 127.728955515938225, 26.418315280948633 ] } },
{ "type": "Feature", "properties": { "P29_001": "47324", "P29_002": "B147232400032", "P29_003": "16001", "P29_004": "読谷村立古堅小学校", "P29_005": "沖縄県中頭郡読谷村楚辺999-1", "P29_006": "3", "P29_007": "1", "P29_008": "00", "P29_009": null }, "geometry": { "type": "Point", "coordinates": [ 127.741727591027882, 26.381308961423795 ] } },
{ "type": "Feature", "properties": { "P29_001": "47324", "P29_002": "B147232400041", "P29_003": "16001", "P29_004": "読谷村立喜名小学校", "P29_005": "沖縄県中頭郡読谷村喜名401", "P29_006": "3", "P29_007": "1", "P29_008": "00", "P29_009": null }, "geometry": { "type": "Point", "coordinates": [ 127.7574057264234, 26.400572964389617 ] } },
{ "type": "Feature", "properties": { "P29_001": "47324", "P29_002": "B147232400050", "P29_003": "16001", "P29_004": "読谷村立古堅南小学校", "P29_005": "沖縄県中頭郡読谷村字古堅612-1", "P29_006": "3", "P29_007": "1", "P29_008": "00", "P29_009": null }, "geometry": { "type": "Point", "coordinates": [ 127.747960121845679, 26.370967929332281 ] } },
{ "type": "Feature", "properties": { "P29_001": "47325", "P29_002": "B147232500013", "P29_003": "16001", "P29_004": "嘉手納町立屋良小学校", "P29_005": "沖縄県中頭郡嘉手納町屋良1-31-1", "P29_006": "3", "P29_007": "1", "P29_008": "00", "P29_009": null }, "geometry": { "type": "Point", "coordinates": [ 127.764767165415009, 26.364490199506491 ] } },
{ "type": "Feature", "properties": { "P29_001": "47325", "P29_002": "B147232500022", "P29_003": "16001", "P29_004": "嘉手納町立嘉手納小学校", "P29_005": "沖縄県中頭郡嘉手納町嘉手納312", "P29_006": "3", "P29_007": "1", "P29_008": "00", "P29_009": null }, "geometry": { "type": "Point", "coordinates": [ 127.752027359875783, 26.364747397045942 ] } },
{ "type": "Feature", "properties": { "P29_001": "47211", "P29_002": "B147232600012", "P29_003": "16001", "P29_004": "北谷町立北谷小学校", "P29_005": "沖縄県沖縄市南桃原4-13-1", "P29_006": "3", "P29_007": "1", "P29_008": "00", "P29_009": null }, "geometry": { "type": "Point", "coordinates": [ 127.778741085194554, 26.32499347050009 ] } },
{ "type": "Feature", "properties": { "P29_001": "47326", "P29_002": "B147232600021", "P29_003": "16001", "P29_004": "北谷町立北玉小学校", "P29_005": "沖縄県中頭郡北谷町字吉原875", "P29_006": "3", "P29_007": "1", "P29_008": "00", "P29_009": null }, "geometry": { "type": "Point", "coordinates": [ 127.772996687190414, 26.313739102052125 ] } },
{ "type": "Feature", "properties": { "P29_001": "47326", "P29_002": "B147232600030", "P29_003": "16001", "P29_004": "北谷町立浜川小学校", "P29_005": "沖縄県中頭郡北谷町字宮城1-172", "P29_006": "3", "P29_007": "1", "P29_008": "00", "P29_009": null }, "geometry": { "type": "Point", "coordinates": [ 127.749016676798405, 26.326659960043102 ] } },
{ "type": "Feature", "properties": { "P29_001": "47326", "P29_002": "B147232600049", "P29_003": "16001", "P29_004": "北谷町立北谷第二小学校", "P29_005": "沖縄県中頭郡北谷町字桑江567-1", "P29_006": "3", "P29_007": "1", "P29_008": "00", "P29_009": null }, "geometry": { "type": "Point", "coordinates": [ 127.772601997779617, 26.324413002828717 ] } },
{ "type": "Feature", "properties": { "P29_001": "47327", "P29_002": "B147232700011", "P29_003": "16001", "P29_004": "北中城村立北中城小学校", "P29_005": "沖縄県中頭郡北中城村喜舎場1", "P29_006": "3", "P29_007": "1", "P29_008": "00", "P29_009": null }, "geometry": { "type": "Point", "coordinates": [ 127.79510100284628, 26.301442996676439 ] } },
{ "type": "Feature", "properties": { "P29_001": "47327", "P29_002": "B147232700020", "P29_003": "16001", "P29_004": "北中城村立島袋小学校", "P29_005": "沖縄県中頭郡北中城村字島袋1234", "P29_006": "3", "P29_007": "1", "P29_008": "00", "P29_009": null }, "geometry": { "type": "Point", "coordinates": [ 127.805516991727018, 26.321386411060182 ] } },
{ "type": "Feature", "properties": { "P29_001": "47328", "P29_002": "B147232800010", "P29_003": "16001", "P29_004": "中城村立中城小学校", "P29_005": "沖縄県中頭郡中城村屋宜239", "P29_006": "3", "P29_007": "1", "P29_008": "00", "P29_009": null }, "geometry": { "type": "Point", "coordinates": [ 127.795686001506525, 26.270556997157708 ] } },
{ "type": "Feature", "properties": { "P29_001": "47328", "P29_002": "B147232800029", "P29_003": "16001", "P29_004": "中城村立津覇小学校", "P29_005": "沖縄県中頭郡中城村字津覇1174", "P29_006": "3", "P29_007": "1", "P29_008": "00", "P29_009": null }, "geometry": { "type": "Point", "coordinates": [ 127.780766729641002, 26.248691371192951 ] } },
{ "type": "Feature", "properties": { "P29_001": "47328", "P29_002": "B147232800038", "P29_003": "16001", "P29_004": "中城村立中城南小学校", "P29_005": "沖縄県中頭郡中城村字南上原800", "P29_006": "3", "P29_007": "1", "P29_008": "00", "P29_009": null }, "geometry": { "type": "Point", "coordinates": [ 127.773433140826128, 26.247872742892731 ] } },
{ "type": "Feature", "properties": { "P29_001": "47329", "P29_002": "B147232900019", "P29_003": "16001", "P29_004": "西原町立西原小学校", "P29_005": "沖縄県中頭郡西原町字与那城353", "P29_006": "3", "P29_007": "1", "P29_008": "00", "P29_009": null }, "geometry": { "type": "Point", "coordinates": [ 127.761803119306563, 26.218108559757336 ] } },
{ "type": "Feature", "properties": { "P29_001": "47329", "P29_002": "B147232900028", "P29_003": "16001", "P29_004": "西原町立坂田小学校", "P29_005": "沖縄県中頭郡西原町字翁長627", "P29_006": "3", "P29_007": "1", "P29_008": "00", "P29_009": null }, "geometry": { "type": "Point", "coordinates": [ 127.750949526317839, 26.23717670502673 ] } },
{ "type": "Feature", "properties": { "P29_001": "47329", "P29_002": "B147232900037", "P29_003": "16001", "P29_004": "西原町立西原東小学校", "P29_005": "沖縄県中頭郡西原町字嘉手苅90", "P29_006": "3", "P29_007": "1", "P29_008": "00", "P29_009": null }, "geometry": { "type": "Point", "coordinates": [ 127.766155621914763, 26.228272815794867 ] } },
{ "type": "Feature", "properties": { "P29_001": "47329", "P29_002": "B147232900046", "P29_003": "16001", "P29_004": "西原町立西原南小学校", "P29_005": "沖縄県中頭郡西原町字安室123-2", "P29_006": "3", "P29_007": "1", "P29_008": "00", "P29_009": null }, "geometry": { "type": "Point", "coordinates": [ 127.754302000942417, 26.220171999029709 ] } },
{ "type": "Feature", "properties": { "P29_001": "47348", "P29_002": "B147234800016", "P29_003": "16001", "P29_004": "与那原町立与那原小学校", "P29_005": "沖縄県島尻郡与那原町字与那原735", "P29_006": "3", "P29_007": "1", "P29_008": "00", "P29_009": null }, "geometry": { "type": "Point", "coordinates": [ 127.75503283428003, 26.204300293160923 ] } },
{ "type": "Feature", "properties": { "P29_001": "47348", "P29_002": "B147234800025", "P29_003": "16001", "P29_004": "与那原町立与那原東小学校", "P29_005": "沖縄県島尻郡与那原町字板良敷50", "P29_006": "3", "P29_007": "1", "P29_008": "00", "P29_009": null }, "geometry": { "type": "Point", "coordinates": [ 127.768500256946766, 26.199057757924663 ] } },
{ "type": "Feature", "properties": { "P29_001": "47350", "P29_002": "B147235000011", "P29_003": "16001", "P29_004": "南風原町立南風原小学校", "P29_005": "沖縄県島尻郡南風原町字兼城685", "P29_006": "3", "P29_007": "1", "P29_008": "00", "P29_009": null }, "geometry": { "type": "Point", "coordinates": [ 127.729555998641644, 26.1920350026618 ] } },
{ "type": "Feature", "properties": { "P29_001": "47350", "P29_002": "B147235000020", "P29_003": "16001", "P29_004": "南風原町立津嘉山小学校", "P29_005": "沖縄県島尻郡南風原町字津嘉山684", "P29_006": "3", "P29_007": "1", "P29_008": "00", "P29_009": null }, "geometry": { "type": "Point", "coordinates": [ 127.717816647831512, 26.184477254958463 ] } },
{ "type": "Feature", "properties": { "P29_001": "47350", "P29_002": "B147235000039", "P29_003": "16001", "P29_004": "南風原町立北丘小学校", "P29_005": "沖縄県島尻郡南風原町字宮平336", "P29_006": "3", "P29_007": "1", "P29_008": "00", "P29_009": null }, "geometry": { "type": "Point", "coordinates": [ 127.732428326779811, 26.202092433719422 ] } },
{ "type": "Feature", "properties": { "P29_001": "47350", "P29_002": "B147235000048", "P29_003": "16001", "P29_004": "南風原町立翔南小学校", "P29_005": "沖縄県島尻郡南風原町字喜屋武450", "P29_006": "3", "P29_007": "1", "P29_008": "00", "P29_009": null }, "geometry": { "type": "Point", "coordinates": [ 127.728907544767338, 26.183618365667151 ] } },
{ "type": "Feature", "properties": { "P29_001": "47353", "P29_002": "B147235300018", "P29_003": "16001", "P29_004": "渡嘉敷村立渡嘉敷小学校", "P29_005": "沖縄県島尻郡渡嘉敷村字渡嘉敷355", "P29_006": "3", "P29_007": "1", "P29_008": "00", "P29_009": null }, "geometry": { "type": "Point", "coordinates": [ 127.365798443424111, 26.198688919593334 ] } },
{ "type": "Feature", "properties": { "P29_001": "47353", "P29_002": "B147235300027", "P29_003": "16001", "P29_004": "渡嘉敷村立阿波連小学校", "P29_005": "沖縄県島尻郡渡嘉敷村字阿波連160", "P29_006": "3", "P29_007": "1", "P29_008": "00", "P29_009": null }, "geometry": { "type": "Point", "coordinates": [ 127.346241163782238, 26.170805599838314 ] } },
{ "type": "Feature", "properties": { "P29_001": "47354", "P29_002": "B147235400017", "P29_003": "16001", "P29_004": "座間味村立座間味小学校", "P29_005": "沖縄県島尻郡座間味村座間味943", "P29_006": "3", "P29_007": "1", "P29_008": "00", "P29_009": null }, "geometry": { "type": "Point", "coordinates": [ 127.30414696594049, 26.229689307138742 ] } },
{ "type": "Feature", "properties": { "P29_001": "47354", "P29_002": "B147235400026", "P29_003": "16001", "P29_004": "座間味村立阿嘉小学校", "P29_005": "沖縄県島尻郡座間味村字阿嘉316", "P29_006": "3", "P29_007": "1", "P29_008": "00", "P29_009": null }, "geometry": { "type": "Point", "coordinates": [ 127.282143237301128, 26.192306082688088 ] } },
{ "type": "Feature", "properties": { "P29_001": "47354", "P29_002": "B147235400035", "P29_003": "16001", "P29_004": "座間味村立慶留間小学校", "P29_005": "沖縄県島尻郡座間味村字慶留間82", "P29_006": "3", "P29_007": "1", "P29_008": "00", "P29_009": null }, "geometry": { "type": "Point", "coordinates": [ 127.292258815302091, 26.176703059748483 ] } },
{ "type": "Feature", "properties": { "P29_001": "47355", "P29_002": "B147235500016", "P29_003": "16001", "P29_004": "粟国村立粟国小学校", "P29_005": "沖縄県島尻郡粟国村字東447", "P29_006": "3", "P29_007": "1", "P29_008": "00", "P29_009": null }, "geometry": { "type": "Point", "coordinates": [ 127.229656178183376, 26.582412119021846 ] } },
{ "type": "Feature", "properties": { "P29_001": "47356", "P29_002": "B147235600015", "P29_003": "16001", "P29_004": "渡名喜村立渡名喜小学校", "P29_005": "沖縄県島尻郡渡名喜村639", "P29_006": "3", "P29_007": "1", "P29_008": "00", "P29_009": null }, "geometry": { "type": "Point", "coordinates": [ 127.142089302410383, 26.372951742837405 ] } },
{ "type": "Feature", "properties": { "P29_001": "47357", "P29_002": "B147235700014", "P29_003": "16001", "P29_004": "南大東村立南大東小学校", "P29_005": "沖縄県島尻郡南大東村字池之沢317", "P29_006": "3", "P29_007": "1", "P29_008": "00", "P29_009": null }, "geometry": { "type": "Point", "coordinates": [ 131.228183816029656, 25.835765553232207 ] } },
{ "type": "Feature", "properties": { "P29_001": "47358", "P29_002": "B147235800013", "P29_003": "16001", "P29_004": "北大東村立北大東小学校", "P29_005": "沖縄県島尻郡北大東村字中野181", "P29_006": "3", "P29_007": "1", "P29_008": "00", "P29_009": null }, "geometry": { "type": "Point", "coordinates": [ 131.296809643826833, 25.94517296930702 ] } },
{ "type": "Feature", "properties": { "P29_001": "47359", "P29_002": "B147235900012", "P29_003": "16001", "P29_004": "伊平屋村立伊平屋小学校", "P29_005": "沖縄県島尻郡伊平屋村字我喜屋2132", "P29_006": "3", "P29_007": "1", "P29_008": "00", "P29_009": null }, "geometry": { "type": "Point", "coordinates": [ 127.962044614266887, 27.034446225961172 ] } },
{ "type": "Feature", "properties": { "P29_001": "47359", "P29_002": "B147235900021", "P29_003": "16001", "P29_004": "伊平屋村立野甫小学校", "P29_005": "沖縄県島尻郡伊平屋村字野甫401", "P29_006": "3", "P29_007": "9", "P29_008": "00", "P29_009": null }, "geometry": { "type": "Point", "coordinates": [ 127.923692560997438, 26.99428897031288 ] } },
{ "type": "Feature", "properties": { "P29_001": "47360", "P29_002": "B147236000019", "P29_003": "16001", "P29_004": "伊是名村立伊是名小学校", "P29_005": "沖縄県島尻郡伊是名村字仲田1163", "P29_006": "3", "P29_007": "1", "P29_008": "00", "P29_009": null }, "geometry": { "type": "Point", "coordinates": [ 127.941491315257821, 26.92989371714534 ] } },
{ "type": "Feature", "properties": { "P29_001": "47361", "P29_002": "B147236100018", "P29_003": "16001", "P29_004": "久米島町立仲里小学校", "P29_005": "沖縄県島尻郡久米島町字謝名堂970", "P29_006": "3", "P29_007": "1", "P29_008": "00", "P29_009": null }, "geometry": { "type": "Point", "coordinates": [ 126.806835215157292, 26.339491267970637 ] } },
{ "type": "Feature", "properties": { "P29_001": "47361", "P29_002": "B147236100027", "P29_003": "16001", "P29_004": "久米島町立大岳小学校", "P29_005": "沖縄県島尻郡久米島町字山里177", "P29_006": "3", "P29_007": "1", "P29_008": "00", "P29_009": null }, "geometry": { "type": "Point", "coordinates": [ 126.749394874624315, 26.359618036288683 ] } },
{ "type": "Feature", "properties": { "P29_001": "47361", "P29_002": "B147236100036", "P29_003": "16001", "P29_004": "久米島町立久米島小学校", "P29_005": "沖縄県島尻郡久米島町字儀間1", "P29_006": "3", "P29_007": "1", "P29_008": "00", "P29_009": null }, "geometry": { "type": "Point", "coordinates": [ 126.765771843722433, 26.333811812657991 ] } },
{ "type": "Feature", "properties": { "P29_001": "47361", "P29_002": "B147236100045", "P29_003": "16001", "P29_004": "久米島町立比屋定小学校", "P29_005": "沖縄県島尻郡久米島町字宇江城2220", "P29_006": "3", "P29_007": "1", "P29_008": "00", "P29_009": null }, "geometry": { "type": "Point", "coordinates": [ 126.776041001719307, 26.380545999638382 ] } },
{ "type": "Feature", "properties": { "P29_001": "47361", "P29_002": "B147236100054", "P29_003": "16001", "P29_004": "久米島町立清水小学校", "P29_005": "沖縄県島尻郡久米島町字鳥島198", "P29_006": "3", "P29_007": "1", "P29_008": "00", "P29_009": null }, "geometry": { "type": "Point", "coordinates": [ 126.73987545986428, 26.34809534892381 ] } },
{ "type": "Feature", "properties": { "P29_001": "47361", "P29_002": "B147236100063", "P29_003": "16001", "P29_004": "久米島町立美崎小学校", "P29_005": "沖縄県島尻郡久米島町字真謝103", "P29_006": "3", "P29_007": "1", "P29_008": "00", "P29_009": null }, "geometry": { "type": "Point", "coordinates": [ 126.807508953689165, 26.355554685931654 ] } },
{ "type": "Feature", "properties": { "P29_001": "47362", "P29_002": "B147236200017", "P29_003": "16001", "P29_004": "八重瀬町立東風平小学校", "P29_005": "沖縄県島尻郡八重瀬町字東風平304", "P29_006": "3", "P29_007": "1", "P29_008": "00", "P29_009": null }, "geometry": { "type": "Point", "coordinates": [ 127.722087898420057, 26.153663947972305 ] } },
{ "type": "Feature", "properties": { "P29_001": "47362", "P29_002": "B147236200026", "P29_003": "16001", "P29_004": "八重瀬町立具志頭小学校", "P29_005": "沖縄県島尻郡八重瀬町字具志頭666", "P29_006": "3", "P29_007": "1", "P29_008": "00", "P29_009": null }, "geometry": { "type": "Point", "coordinates": [ 127.74208599760685, 26.122652999368434 ] } },
{ "type": "Feature", "properties": { "P29_001": "47362", "P29_002": "B147236200035", "P29_003": "16001", "P29_004": "八重瀬町立新城小学校", "P29_005": "沖縄県島尻郡八重瀬町字新城1381", "P29_006": "3", "P29_007": "1", "P29_008": "00", "P29_009": null }, "geometry": { "type": "Point", "coordinates": [ 127.736053807303037, 26.136307419873347 ] } },
{ "type": "Feature", "properties": { "P29_001": "47362", "P29_002": "B147236200044", "P29_003": "16001", "P29_004": "八重瀬町立白川小学校", "P29_005": "沖縄県島尻郡八重瀬町字小城551", "P29_006": "3", "P29_007": "1", "P29_008": "00", "P29_009": null }, "geometry": { "type": "Point", "coordinates": [ 127.708643420168357, 26.161877893130367 ] } },
{ "type": "Feature", "properties": { "P29_001": "47375", "P29_002": "B147237500012", "P29_003": "16001", "P29_004": "多良間村立多良間小学校", "P29_005": "沖縄県宮古郡多良間村字仲筋108", "P29_006": "3", "P29_007": "1", "P29_008": "00", "P29_009": null }, "geometry": { "type": "Point", "coordinates": [ 124.700753996633097, 24.669026000469479 ] } },
{ "type": "Feature", "properties": { "P29_001": "47381", "P29_002": "B147238100014", "P29_003": "16001", "P29_004": "竹富町立西表小学校", "P29_005": "沖縄県八重山郡竹富町西表869", "P29_006": "3", "P29_007": "1", "P29_008": "00", "P29_009": null }, "geometry": { "type": "Point", "coordinates": [ 123.749312997180752, 24.390970997020801 ] } },
{ "type": "Feature", "properties": { "P29_001": "47381", "P29_002": "B147238100023", "P29_003": "16001", "P29_004": "竹富町立竹富小学校", "P29_005": "沖縄県八重山郡竹富町竹富545", "P29_006": "3", "P29_007": "1", "P29_008": "00", "P29_009": null }, "geometry": { "type": "Point", "coordinates": [ 124.086284314026912, 24.328775191720208 ] } },
{ "type": "Feature", "properties": { "P29_001": "47381", "P29_002": "B147238100032", "P29_003": "16001", "P29_004": "竹富町立黒島小学校", "P29_005": "沖縄県八重山郡竹富町黒島1140", "P29_006": "3", "P29_007": "1", "P29_008": "00", "P29_009": null }, "geometry": { "type": "Point", "coordinates": [ 124.007210000803042, 24.241735997932384 ] } },
{ "type": "Feature", "properties": { "P29_001": "47381", "P29_002": "B147238100041", "P29_003": "16001", "P29_004": "竹富町立波照間小学校", "P29_005": "沖縄県八重山郡竹富町波照間54", "P29_006": "3", "P29_007": "1", "P29_008": "00", "P29_009": null }, "geometry": { "type": "Point", "coordinates": [ 123.775882779113289, 24.061726387846349 ] } },
{ "type": "Feature", "properties": { "P29_001": "47381", "P29_002": "B147238100050", "P29_003": "16001", "P29_004": "竹富町立小浜小学校", "P29_005": "沖縄県八重山郡竹富町小浜2575", "P29_006": "3", "P29_007": "1", "P29_008": "00", "P29_009": null }, "geometry": { "type": "Point", "coordinates": [ 123.982697575302723, 24.340220560111483 ] } },
{ "type": "Feature", "properties": { "P29_001": "47381", "P29_002": "B147238100069", "P29_003": "16001", "P29_004": "竹富町立古見小学校", "P29_005": "沖縄県八重山郡竹富町字古見88-2", "P29_006": "3", "P29_007": "1", "P29_008": "00", "P29_009": null }, "geometry": { "type": "Point", "coordinates": [ 123.906957003338974, 24.318987002809042 ] } },
{ "type": "Feature", "properties": { "P29_001": "47381", "P29_002": "B147238100078", "P29_003": "16001", "P29_004": "竹富町立鳩間小学校", "P29_005": "沖縄県八重山郡竹富町字鳩間588", "P29_006": "3", "P29_007": "1", "P29_008": "00", "P29_009": null }, "geometry": { "type": "Point", "coordinates": [ 123.824615598844588, 24.4690622721523 ] } },
{ "type": "Feature", "properties": { "P29_001": "47381", "P29_002": "B147238100087", "P29_003": "16001", "P29_004": "竹富町立船浮小学校", "P29_005": "沖縄県八重山郡竹富町西表2435", "P29_006": "3", "P29_007": "1", "P29_008": "00", "P29_009": null }, "geometry": { "type": "Point", "coordinates": [ 123.728761554514321, 24.338825093419935 ] } },
{ "type": "Feature", "properties": { "P29_001": "47381", "P29_002": "B147238100096", "P29_003": "16001", "P29_004": "竹富町立白浜小学校", "P29_005": "沖縄県八重山郡竹富町西表1499", "P29_006": "3", "P29_007": "1", "P29_008": "00", "P29_009": null }, "geometry": { "type": "Point", "coordinates": [ 123.751501999327587, 24.360175996332941 ] } },
{ "type": "Feature", "properties": { "P29_001": "47381", "P29_002": "B147238100103", "P29_003": "16001", "P29_004": "竹富町立大原小学校", "P29_005": "沖縄県八重山郡竹富町南風見201-2", "P29_006": "3", "P29_007": "1", "P29_008": "00", "P29_009": null }, "geometry": { "type": "Point", "coordinates": [ 123.878271112188386, 24.27237385431717 ] } },
{ "type": "Feature", "properties": { "P29_001": "47381", "P29_002": "B147238100112", "P29_003": "16001", "P29_004": "竹富町立上原小学校", "P29_005": "沖縄県八重山郡竹富町上原383", "P29_006": "3", "P29_007": "1", "P29_008": "00", "P29_009": null }, "geometry": { "type": "Point", "coordinates": [ 123.790508004436433, 24.425401001665634 ] } },
{ "type": "Feature", "properties": { "P29_001": "47382", "P29_002": "B147238200013", "P29_003": "16001", "P29_004": "与那国町立与那国小学校", "P29_005": "沖縄県八重山郡与那国町与那国1025", "P29_006": "3", "P29_007": "1", "P29_008": "00", "P29_009": null }, "geometry": { "type": "Point", "coordinates": [ 123.008055515091911, 24.467627918577815 ] } },
{ "type": "Feature", "properties": { "P29_001": "47382", "P29_002": "B147238200022", "P29_003": "16001", "P29_004": "与那国町立久部良小学校", "P29_005": "沖縄県八重山郡与那国町与那国4022", "P29_006": "3", "P29_007": "1", "P29_008": "00", "P29_009": null }, "geometry": { "type": "Point", "coordinates": [ 122.944566620021448, 24.454650347572901 ] } },
{ "type": "Feature", "properties": { "P29_001": "47382", "P29_002": "B147238200031", "P29_003": "16001", "P29_004": "与那国町立比川小学校", "P29_005": "沖縄県八重山郡与那国町与那国3031", "P29_006": "3", "P29_007": "1", "P29_008": "00", "P29_009": null }, "geometry": { "type": "Point", "coordinates": [ 122.982139699211885, 24.442877520054815 ] } },
{ "type": "Feature", "properties": { "P29_001": "47205", "P29_002": "B147320500016", "P29_003": "16001", "P29_004": "沖縄カトリック小学校", "P29_005": "沖縄県宜野湾市真栄原3-16-1", "P29_006": "4", "P29_007": "1", "P29_008": "00", "P29_009": null }, "geometry": { "type": "Point", "coordinates": [ 127.744968000996153, 26.262000998024885 ] } },
{ "type": "Feature", "properties": { "P29_001": "47207", "P29_002": "B147320700014", "P29_003": "16001", "P29_004": "海星小学校", "P29_005": "沖縄県石垣市字大川67", "P29_006": "4", "P29_007": "1", "P29_008": "00", "P29_009": null }, "geometry": { "type": "Point", "coordinates": [ 124.162609035824019, 24.3433563988869 ] } },
{ "type": "Feature", "properties": { "P29_001": "47213", "P29_002": "B147321300016", "P29_003": "16001", "P29_004": "沖縄アミークスインターナショナル小学校", "P29_005": "沖縄県うるま市字栄野比1212-1", "P29_006": "4", "P29_007": "1", "P29_008": "00", "P29_009": null }, "geometry": { "type": "Point", "coordinates": [ 127.826779824175176, 26.398305366989334 ] } },
{ "type": "Feature", "properties": { "P29_001": "47327", "P29_002": "B147332700019", "P29_003": "16001", "P29_004": "沖縄三育小学校", "P29_005": "沖縄県中頭郡北中城村荻道275-1", "P29_006": "4", "P29_007": "1", "P29_008": "00", "P29_009": null }, "geometry": { "type": "Point", "coordinates": [ 127.793393112710277, 26.290671872632345 ] } }
]
}
