{
"type": "FeatureCollection",
"name": "geo_47_1",
"crs": { "type": "name", "properties": { "name": "urn:ogc:def:crs:OGC:1.3:CRS84" } },
"features": [
{ "type": "Feature", "properties": { "ID": "471100", "正式名称": "沖縄県立南部医療センター・こどもセンター", "機関区分": 1, "都道府県コード": 47, "市区町村コード": 350, "所在地": "沖縄県島尻郡南風原町新川１１８－１", "緯度": 26.205919, "経度": 127.723715, "url": "https://www.iryou.teikyouseido.mhlw.go.jp/znk-web/juminkanja/S2430/initialize?prefCd=47&kikanCd=100&kikanKbn=1", "url2": "http://www.hosp.pref.okinawa.jp/nanbu/", "内容": "沖縄県立南部医療センター・こどもセンター【1:病院】【診療科目:内科_感染症内科_血液・腫瘍内科_糖尿病・代謝内科_呼吸器内科_循環器内科_消化器内科_腎臓内科_神経内科_地域医療科_外科_脳神経外科_呼吸器外科_気管食道外科_心臓血管外科_消化器外科_乳腺外科_整形外科_形成外科_小児科_小児眼科_小児耳鼻いんこう科_小児外科_小児泌尿器科_新生児内科_小児循環器内科、小児心臓血管外科、小児腎臓内科、小児神経内科、小児血液・腫瘍内科、小児内分泌・代謝内科、小児脳神経外科、小児整形外科、小児形成外科、小児精神科、小児放射線科、小児麻酔科_産科_婦人科_眼科_耳鼻いんこう科_皮膚科_泌尿器科_精神科_歯科口腔外科_リウマチ科_リハビリテーション科_放射線科_病理診断科_救急科_麻酔科】【一般病床数:433療養病床数:0精神病床数:5感染症病床数:6合計病床数:444】沖縄県島尻郡南風原町新川１１８－１" }, "geometry": { "type": "Point", "coordinates": [ 127.723715, 26.205919 ] } },
{ "type": "Feature", "properties": { "ID": "471101", "正式名称": "医療法人徳洲会　石垣島徳洲会病院", "機関区分": 1, "都道府県コード": 47, "市区町村コード": 207, "所在地": "沖縄県石垣市大浜字南大浜４４６－１", "緯度": 24.339933, "経度": 124.189736, "url": "https://www.iryou.teikyouseido.mhlw.go.jp/znk-web/juminkanja/S2430/initialize?prefCd=47&kikanCd=101&kikanKbn=1", "url2": "http://www.tokushukai.or.jp/hsp/ishigakijima/", "内容": "医療法人徳洲会　石垣島徳洲会病院【1:病院】【診療科目:内科_呼吸器内科_循環器内科_人工透析内科_外科_脳神経外科_心臓血管外科_消化器外科_乳腺外科_肛門外科_整形外科_皮膚科_泌尿器科_リハビリテーション科_放射線科_臨床検査科_救急科】【一般病床数:52療養病床数:0精神病床数:0感染症病床数:0合計病床数:52】沖縄県石垣市大浜字南大浜４４６－１" }, "geometry": { "type": "Point", "coordinates": [ 124.189736, 24.339933 ] } },
{ "type": "Feature", "properties": { "ID": "47111", "正式名称": "医療法人球陽会　海邦病院", "機関区分": 1, "都道府県コード": 47, "市区町村コード": 205, "所在地": "沖縄県宜野湾市真志喜２丁目２３番５号", "緯度": 26.27685, "経度": 127.736993, "url": "https://www.iryou.teikyouseido.mhlw.go.jp/znk-web/juminkanja/S2430/initialize?prefCd=47&kikanCd=11&kikanKbn=1", "url2": "http://www.kaiho.or.jp", "内容": "医療法人球陽会　海邦病院【1:病院】【診療科目:内科_血液内科_糖尿病・内分泌内科_脳神経内科_呼吸器内科_循環器内科_消化器内科_腎臓内科_人工透析内科_整形外科_泌尿器科_リハビリテーション科】【一般病床数:95療養病床数:45精神病床数:0感染症病床数:0合計病床数:140】沖縄県宜野湾市真志喜２丁目２３番５号" }, "geometry": { "type": "Point", "coordinates": [ 127.736993, 26.27685 ] } },
{ "type": "Feature", "properties": { "ID": "47114", "正式名称": "沖縄中部療育医療センター", "機関区分": 1, "都道府県コード": 47, "市区町村コード": 211, "所在地": "沖縄県沖縄市比屋根５丁目２－１７", "緯度": 26.312967, "経度": 127.819059, "url": "https://www.iryou.teikyouseido.mhlw.go.jp/znk-web/juminkanja/S2430/initialize?prefCd=47&kikanCd=14&kikanKbn=1", "url2": "www.okishikyo.jp/chubu/", "内容": "沖縄中部療育医療センター【1:病院】【診療科目:内科_小児科_リハビリテーション科】【一般病床数:80療養病床数:0精神病床数:0感染症病床数:0合計病床数:80】沖縄県沖縄市比屋根５丁目２－１７" }, "geometry": { "type": "Point", "coordinates": [ 127.819059, 26.312967 ] } },
{ "type": "Feature", "properties": { "ID": "47115", "正式名称": "医療法人　新緑会　屋宜原病院", "機関区分": 1, "都道府県コード": 47, "市区町村コード": 327, "所在地": "沖縄県中頭郡北中城村字屋宜原７２２", "緯度": 26.312229, "経度": 127.791624, "url": "https://www.iryou.teikyouseido.mhlw.go.jp/znk-web/juminkanja/S2430/initialize?prefCd=47&kikanCd=15&kikanKbn=1", "url2": "https://shinryokukai.or.jp/", "内容": "医療法人　新緑会　屋宜原病院【1:病院】【診療科目:内科_皮膚科】【一般病床数:0療養病床数:220精神病床数:0感染症病床数:0合計病床数:220】沖縄県中頭郡北中城村字屋宜原７２２" }, "geometry": { "type": "Point", "coordinates": [ 127.791624, 26.312229 ] } },
{ "type": "Feature", "properties": { "ID": "47116", "正式名称": "北上中央病院", "機関区分": 1, "都道府県コード": 47, "市区町村コード": 326, "所在地": "沖縄県中頭郡北谷町上勢頭６３１‐９", "緯度": 26.329276, "経度": 127.772631, "url": "https://www.iryou.teikyouseido.mhlw.go.jp/znk-web/juminkanja/S2430/initialize?prefCd=47&kikanCd=16&kikanKbn=1", "url2": "https://kitagami.or.jp/", "内容": "北上中央病院【1:病院】【診療科目:内科_皮膚科_泌尿器科】【一般病床数:0療養病床数:120精神病床数:0感染症病床数:0合計病床数:120】沖縄県中頭郡北谷町上勢頭６３１‐９" }, "geometry": { "type": "Point", "coordinates": [ 127.772631, 26.329276 ] } },
{ "type": "Feature", "properties": { "ID": "47117", "正式名称": "医療法人　心和会　潮平病院", "機関区分": 1, "都道府県コード": 47, "市区町村コード": 211, "所在地": "沖縄県沖縄市胡屋１－１７－１", "緯度": 26.336143, "経度": 127.802858, "url": "https://www.iryou.teikyouseido.mhlw.go.jp/znk-web/juminkanja/S2430/initialize?prefCd=47&kikanCd=17&kikanKbn=1", "url2": "www.shiohira.jp", "内容": "医療法人　心和会　潮平病院【1:病院】【診療科目:内科_外科_整形外科_小児科_泌尿器科_リハビリテーション科】【一般病床数:52療養病床数:48精神病床数:0感染症病床数:0合計病床数:100】沖縄県沖縄市胡屋１－１７－１" }, "geometry": { "type": "Point", "coordinates": [ 127.802858, 26.336143 ] } },
{ "type": "Feature", "properties": { "ID": "47120", "正式名称": "医療法人卯の会　新垣病院", "機関区分": 1, "都道府県コード": 47, "市区町村コード": 211, "所在地": "沖縄県沖縄市安慶田４丁目１０番３号", "緯度": 26.328889, "経度": 127.810778, "url": "https://www.iryou.teikyouseido.mhlw.go.jp/znk-web/juminkanja/S2430/initialize?prefCd=47&kikanCd=20&kikanKbn=1", "url2": "http://www.unokai-arakaki.com", "内容": "医療法人卯の会　新垣病院【1:病院】【診療科目:精神科_心療内科】【一般病床数:0療養病床数:0精神病床数:273感染症病床数:0合計病床数:273】沖縄県沖縄市安慶田４丁目１０番３号" }, "geometry": { "type": "Point", "coordinates": [ 127.810778, 26.328889 ] } },
{ "type": "Feature", "properties": { "ID": "47121", "正式名称": "医療法人仁誠会　名嘉病院", "機関区分": 1, "都道府県コード": 47, "市区町村コード": 325, "所在地": "沖縄県中頭郡嘉手納町嘉手納", "緯度": 26.367268, "経度": 127.755032, "url": "https://www.iryou.teikyouseido.mhlw.go.jp/znk-web/juminkanja/S2430/initialize?prefCd=47&kikanCd=21&kikanKbn=1", "url2": "https://nakahp.com/", "内容": "医療法人仁誠会　名嘉病院【1:病院】【診療科目:内科_胃腸内科_外科_整形外科_眼科_耳鼻いんこう科_皮膚科_歯科_リハビリテーション科】【一般病床数:40療養病床数:82精神病床数:0感染症病床数:0合計病床数:122】沖縄県中頭郡嘉手納町嘉手納" }, "geometry": { "type": "Point", "coordinates": [ 127.755032, 26.367268 ] } },
{ "type": "Feature", "properties": { "ID": "4712447", "正式名称": "沖縄県立宮古病院", "機関区分": 1, "都道府県コード": 47, "市区町村コード": 214, "所在地": "沖縄県宮古島市平良下里", "緯度": 24.803955, "経度": 125.27907, "url": "https://www.iryou.teikyouseido.mhlw.go.jp/znk-web/juminkanja/S2430/initialize?prefCd=47&kikanCd=2447&kikanKbn=1", "url2": "http://www.hosp.pref.okinawa.jp/miyako/home.html", "内容": "沖縄県立宮古病院【1:病院】【診療科目:内科_呼吸器内科_循環器内科_消化器内科_神経内科_外科_脳神経外科_心臓血管外科_消化器外科_整形外科_小児科_産婦人科_眼科_耳鼻いんこう科_泌尿器科_精神科_歯科口腔外科_リハビリテーション科_救急科_麻酔科_リハビリテーション科】【一般病床数:226療養病床数:0精神病床数:45感染症病床数:3合計病床数:277】沖縄県宮古島市平良下里" }, "geometry": { "type": "Point", "coordinates": [ 125.27907, 24.803955 ] } },
{ "type": "Feature", "properties": { "ID": "4712478", "正式名称": "医療法人おもと会　大浜第一病院", "機関区分": 1, "都道府県コード": 47, "市区町村コード": 201, "所在地": "沖縄県那覇市天久１０００番地", "緯度": 26.234518, "経度": 127.683737, "url": "https://www.iryou.teikyouseido.mhlw.go.jp/znk-web/juminkanja/S2430/initialize?prefCd=47&kikanCd=2478&kikanKbn=1", "url2": "http://www.omotokai.or.jp/ohama1/", "内容": "医療法人おもと会　大浜第一病院【1:病院】【診療科目:内科_糖尿病内科_内分泌内科_糖尿病・内分泌内科_代謝・内分泌内科_脳神経内科_呼吸器内科_循環器内科_消化器内科_胃腸内科_腎臓内科_人工透析内科_神経内科_ペインクリニック内科_外科_脳神経外科_呼吸器外科_血管外科_心臓血管外科_消化器外科_大腸外科_乳腺外科_肛門外科_ペインクリニック外科_整形外科_形成外科_婦人科_眼科_皮膚科_泌尿器科_歯科_歯科口腔外科_小児歯科_リウマチ科_リハビリテーション科_放射線科_病理診断科_救急科_麻酔科】【一般病床数:217療養病床数:0精神病床数:0感染症病床数:0合計病床数:217】沖縄県那覇市天久１０００番地" }, "geometry": { "type": "Point", "coordinates": [ 127.683737, 26.234518 ] } },
{ "type": "Feature", "properties": { "ID": "47125", "正式名称": "沖縄赤十字病院", "機関区分": 1, "都道府県コード": 47, "市区町村コード": 201, "所在地": "沖縄県那覇市与儀１丁目３番１号", "緯度": 26.206996, "経度": 127.692638, "url": "https://www.iryou.teikyouseido.mhlw.go.jp/znk-web/juminkanja/S2430/initialize?prefCd=47&kikanCd=25&kikanKbn=1", "url2": "http://www.okinawa-rch.jp", "内容": "沖縄赤十字病院【1:病院】【診療科目:内科_血液内科_代謝内科_内分泌内科_脳神経内科_呼吸器内科_循環器内科_消化器内科_外科_脳神経外科_呼吸器外科_血管外科_消化器外科_乳腺外科_整形外科_緩和ケア外科_小児科_産婦人科_眼科_耳鼻いんこう科_皮膚科_泌尿器科_精神科_歯科_歯科口腔外科_リハビリテーション科_放射線科_病理診断科_麻酔科】【一般病床数:302療養病床数:0精神病床数:0感染症病床数:0合計病床数:302】沖縄県那覇市与儀１丁目３番１号" }, "geometry": { "type": "Point", "coordinates": [ 127.692638, 26.206996 ] } },
{ "type": "Feature", "properties": { "ID": "47126", "正式名称": "社会医療法人葦の会　オリブ山病院", "機関区分": 1, "都道府県コード": 47, "市区町村コード": 201, "所在地": "沖縄県那覇市首里石嶺町", "緯度": 26.236256, "経度": 127.73241, "url": "https://www.iryou.teikyouseido.mhlw.go.jp/znk-web/juminkanja/S2430/initialize?prefCd=47&kikanCd=26&kikanKbn=1", "url2": "https://oribuyama.jp/", "内容": "社会医療法人葦の会　オリブ山病院【1:病院】【診療科目:内科_精神科_心療内科_リハビリテーション科】【一般病床数:127療養病床数:0精神病床数:232感染症病床数:0合計病床数:359】沖縄県那覇市首里石嶺町" }, "geometry": { "type": "Point", "coordinates": [ 127.73241, 26.236256 ] } },
{ "type": "Feature", "properties": { "ID": "47128", "正式名称": "医療法人陽心会　大道中央病院", "機関区分": 1, "都道府県コード": 47, "市区町村コード": 201, "所在地": "沖縄県那覇市安里１ー１－３７", "緯度": 26.216335, "経度": 127.69563, "url": "https://www.iryou.teikyouseido.mhlw.go.jp/znk-web/juminkanja/S2430/initialize?prefCd=47&kikanCd=28&kikanKbn=1", "url2": "https://www.youshinkai.com/", "内容": "医療法人陽心会　大道中央病院【1:病院】【診療科目:内科_糖尿病内科_呼吸器内科_循環器内科_消化器内科_神経内科_外科_整形外科_形成外科_リウマチ科_リハビリテーション科】【一般病床数:109療養病床数:115精神病床数:0感染症病床数:0合計病床数:224】沖縄県那覇市安里１ー１－３７" }, "geometry": { "type": "Point", "coordinates": [ 127.69563, 26.216335 ] } },
{ "type": "Feature", "properties": { "ID": "4712918", "正式名称": "医療法人　海秀会　うえむら病院", "機関区分": 1, "都道府県コード": 47, "市区町村コード": 328, "所在地": "沖縄県中頭郡中城村南上原", "緯度": 26.246813, "経度": 127.77039, "url": "https://www.iryou.teikyouseido.mhlw.go.jp/znk-web/juminkanja/S2430/initialize?prefCd=47&kikanCd=2918&kikanKbn=1", "url2": "www.uemura-hp.or.jp", "内容": "医療法人　海秀会　うえむら病院【1:病院】【診療科目:小児科_産婦人科_婦人科】【一般病床数:62療養病床数:0精神病床数:0感染症病床数:0合計病床数:62】沖縄県中頭郡中城村南上原" }, "geometry": { "type": "Point", "coordinates": [ 127.77039, 26.246813 ] } },
{ "type": "Feature", "properties": { "ID": "47130", "正式名称": "国立療養所沖縄愛楽園", "機関区分": 1, "都道府県コード": 47, "市区町村コード": 209, "所在地": "沖縄県名護市済井出１１９２番地", "緯度": 26.676027, "経度": 128.019061, "url": "https://www.iryou.teikyouseido.mhlw.go.jp/znk-web/juminkanja/S2430/initialize?prefCd=47&kikanCd=30&kikanKbn=1", "url2": "http://www.hosp.go.jp/~airakuen/", "内容": "国立療養所沖縄愛楽園【1:病院】【診療科目:内科_外科_整形外科_眼科_耳鼻いんこう科_皮膚科_泌尿器科_精神科_歯科】【一般病床数:314療養病床数:0精神病床数:0感染症病床数:0合計病床数:314】沖縄県名護市済井出１１９２番地" }, "geometry": { "type": "Point", "coordinates": [ 128.019061, 26.676027 ] } },
{ "type": "Feature", "properties": { "ID": "47131", "正式名称": "社会医療法人　敬愛会　翔南病院", "機関区分": 1, "都道府県コード": 47, "市区町村コード": 211, "所在地": "沖縄県沖縄市山内３丁目１４－２８", "緯度": 26.327364, "経度": 127.782119, "url": "https://www.iryou.teikyouseido.mhlw.go.jp/znk-web/juminkanja/S2430/initialize?prefCd=47&kikanCd=31&kikanKbn=1", "url2": "http://www.shonanhospital.com", "内容": "社会医療法人　敬愛会　翔南病院【1:病院】【診療科目:内科_糖尿病・内分泌内科_循環器内科_消化器内科_整形外科_泌尿器科_リハビリテーション科】【一般病床数:41療養病床数:49精神病床数:0感染症病床数:0合計病床数:90】沖縄県沖縄市山内３丁目１４－２８" }, "geometry": { "type": "Point", "coordinates": [ 127.782119, 26.327364 ] } },
{ "type": "Feature", "properties": { "ID": "47134", "正式名称": "公益社団法人北部地区医師会　北部地区医師会病院", "機関区分": 1, "都道府県コード": 47, "市区町村コード": 209, "所在地": "沖縄県名護市宇茂佐", "緯度": 26.607911, "経度": 127.965444, "url": "https://www.iryou.teikyouseido.mhlw.go.jp/znk-web/juminkanja/S2430/initialize?prefCd=47&kikanCd=34&kikanKbn=1", "url2": "https://hokubuishikai.com/", "内容": "公益社団法人北部地区医師会　北部地区医師会病院【1:病院】【診療科目:内科_糖尿病内科_内分泌内科_循環器内科_外科_心臓血管外科_整形外科_形成外科_皮膚科_精神科_心療内科_リウマチ科_リハビリテーション科_放射線科_病理診断科_臨床検査科_救急科_麻酔科】【一般病床数:236療養病床数:0精神病床数:0感染症病床数:0合計病床数:236】沖縄県名護市宇茂佐" }, "geometry": { "type": "Point", "coordinates": [ 127.965444, 26.607911 ] } },
{ "type": "Feature", "properties": { "ID": "47136", "正式名称": "もとぶ野毛病院", "機関区分": 1, "都道府県コード": 47, "市区町村コード": 308, "所在地": "沖縄県国頭郡本部町大浜８８０－１", "緯度": 26.657103, "経度": 127.884364, "url": "https://www.iryou.teikyouseido.mhlw.go.jp/znk-web/juminkanja/S2430/initialize?prefCd=47&kikanCd=36&kikanKbn=1", "url2": "https//:www.noge.or.jp", "内容": "もとぶ野毛病院【1:病院】【診療科目:内科_外科_脳神経外科_整形外科_リハビリテーション科_放射線科】【一般病床数:0療養病床数:150精神病床数:0感染症病床数:0合計病床数:150】沖縄県国頭郡本部町大浜８８０－１" }, "geometry": { "type": "Point", "coordinates": [ 127.884364, 26.657103 ] } },
{ "type": "Feature", "properties": { "ID": "47137", "正式名称": "北山病院", "機関区分": 1, "都道府県コード": 47, "市区町村コード": 306, "所在地": "沖縄県国頭郡今帰仁村今泊３０７番地", "緯度": 26.699044, "経度": 127.925765, "url": "https://www.iryou.teikyouseido.mhlw.go.jp/znk-web/juminkanja/S2430/initialize?prefCd=47&kikanCd=37&kikanKbn=1", "url2": "https://www.oki-kofukai.or.jp/", "内容": "北山病院【1:病院】【診療科目:内科_整形外科_皮膚科_リハビリテーション科】【一般病床数:0療養病床数:60精神病床数:0感染症病床数:0合計病床数:60】沖縄県国頭郡今帰仁村今泊３０７番地" }, "geometry": { "type": "Point", "coordinates": [ 127.925765, 26.699044 ] } },
{ "type": "Feature", "properties": { "ID": "47138", "正式名称": "医療法人琉心会　勝山病院", "機関区分": 1, "都道府県コード": 47, "市区町村コード": 209, "所在地": "沖縄県名護市屋部４６８番地の１", "緯度": 26.607461, "経度": 127.945628, "url": "https://www.iryou.teikyouseido.mhlw.go.jp/znk-web/juminkanja/S2430/initialize?prefCd=47&kikanCd=38&kikanKbn=1", "url2": "http://ryushinkai.jp/", "内容": "医療法人琉心会　勝山病院【1:病院】【診療科目:内科_整形外科_リウマチ科】【一般病床数:0療養病床数:0精神病床数:0感染症病床数:0合計病床数:0】沖縄県名護市屋部４６８番地の１" }, "geometry": { "type": "Point", "coordinates": [ 127.945628, 26.607461 ] } },
{ "type": "Feature", "properties": { "ID": "47141", "正式名称": "独立行政法人国立病院機構　琉球病院", "機関区分": 1, "都道府県コード": 47, "市区町村コード": 314, "所在地": "沖縄県国頭郡金武町字金武７９５８－１", "緯度": 26.452281, "経度": 127.910206, "url": "https://www.iryou.teikyouseido.mhlw.go.jp/znk-web/juminkanja/S2430/initialize?prefCd=47&kikanCd=41&kikanKbn=1", "url2": "http://www.hosp.go.jp/~ryukyu1/", "内容": "独立行政法人国立病院機構　琉球病院【1:病院】【診療科目:児童精神科_精神科】【一般病床数:0療養病床数:0精神病床数:0感染症病床数:0合計病床数:0】沖縄県国頭郡金武町字金武７９５８－１" }, "geometry": { "type": "Point", "coordinates": [ 127.910206, 26.452281 ] } },
{ "type": "Feature", "properties": { "ID": "47142", "正式名称": "ちゅうざん病院", "機関区分": 1, "都道府県コード": 47, "市区町村コード": 211, "所在地": "沖縄県沖縄市松本６丁目２番１号", "緯度": 26.354722, "経度": 127.809742, "url": "https://www.iryou.teikyouseido.mhlw.go.jp/znk-web/juminkanja/S2430/initialize?prefCd=47&kikanCd=42&kikanKbn=1", "url2": "http://www.chuzan.or.jp/", "内容": "ちゅうざん病院【1:病院】【診療科目:リハビリテーション科】【一般病床数:34療養病床数:182精神病床数:0感染症病床数:0合計病床数:216】沖縄県沖縄市松本６丁目２番１号" }, "geometry": { "type": "Point", "coordinates": [ 127.809742, 26.354722 ] } },
{ "type": "Feature", "properties": { "ID": "47144", "正式名称": "医療法人タピック　沖縄リハビリテーションセンター病院", "機関区分": 1, "都道府県コード": 47, "市区町村コード": 211, "所在地": "沖縄県沖縄市比屋根２丁目１５番地１号", "緯度": 26.314518, "経度": 127.823985, "url": "https://www.iryou.teikyouseido.mhlw.go.jp/znk-web/juminkanja/S2430/initialize?prefCd=47&kikanCd=44&kikanKbn=1", "url2": "http://www.tapic-reha.or.jp/", "内容": "医療法人タピック　沖縄リハビリテーションセンター病院【1:病院】【診療科目:内科_脳神経外科_整形外科_精神科_リハビリテーション科】【一般病床数:40療養病床数:159精神病床数:211感染症病床数:0合計病床数:410】沖縄県沖縄市比屋根２丁目１５番地１号" }, "geometry": { "type": "Point", "coordinates": [ 127.823985, 26.314518 ] } },
{ "type": "Feature", "properties": { "ID": "47145", "正式名称": "産科婦人科名城病院", "機関区分": 1, "都道府県コード": 47, "市区町村コード": 213, "所在地": "沖縄県うるま市赤道１７５番地３", "緯度": 26.332797, "経度": 127.797931, "url": "https://www.iryou.teikyouseido.mhlw.go.jp/znk-web/juminkanja/S2430/initialize?prefCd=47&kikanCd=45&kikanKbn=1", "url2": "http://www.nashiro.jp", "内容": "産科婦人科名城病院【1:病院】【診療科目:産婦人科_産科_婦人科】【一般病床数:37療養病床数:0精神病床数:0感染症病床数:0合計病床数:37】沖縄県うるま市赤道１７５番地３" }, "geometry": { "type": "Point", "coordinates": [ 127.797931, 26.332797 ] } },
{ "type": "Feature", "properties": { "ID": "47146", "正式名称": "うるま記念病院", "機関区分": 1, "都道府県コード": 47, "市区町村コード": 213, "所在地": "沖縄県うるま市昆布", "緯度": 26.396458, "経度": 127.840374, "url": "https://www.iryou.teikyouseido.mhlw.go.jp/znk-web/juminkanja/S2430/initialize?prefCd=47&kikanCd=46&kikanKbn=1", "url2": "http:www.urumaurumakinen.com", "内容": "うるま記念病院【1:病院】【診療科目:内科_精神科_老年精神科_リハビリテーション科】【一般病床数:0療養病床数:0精神病床数:270感染症病床数:0合計病床数:270】沖縄県うるま市昆布" }, "geometry": { "type": "Point", "coordinates": [ 127.840374, 26.396458 ] } },
{ "type": "Feature", "properties": { "ID": "47147", "正式名称": "いずみ病院", "機関区分": 1, "都道府県コード": 47, "市区町村コード": 213, "所在地": "沖縄県うるま市栄野比１１５０番地", "緯度": 26.39753, "経度": 127.827879, "url": "https://www.iryou.teikyouseido.mhlw.go.jp/znk-web/juminkanja/S2430/initialize?prefCd=47&kikanCd=47&kikanKbn=1", "url2": "http://izumihospital1985.or.jp", "内容": "いずみ病院【1:病院】【診療科目:内科_精神科_心療内科】【一般病床数:0療養病床数:0精神病床数:220感染症病床数:0合計病床数:220】沖縄県うるま市栄野比１１５０番地" }, "geometry": { "type": "Point", "coordinates": [ 127.827879, 26.39753 ] } },
{ "type": "Feature", "properties": { "ID": "47148", "正式名称": "医療法人社団志誠会　平和病院", "機関区分": 1, "都道府県コード": 47, "市区町村コード": 213, "所在地": "沖縄県うるま市上江洲", "緯度": 26.358965, "経度": 127.85792, "url": "https://www.iryou.teikyouseido.mhlw.go.jp/znk-web/juminkanja/S2430/initialize?prefCd=47&kikanCd=48&kikanKbn=1", "url2": "http://shiseikai-heiwa.com", "内容": "医療法人社団志誠会　平和病院【1:病院】【診療科目:精神科_心療内科】【一般病床数:0療養病床数:0精神病床数:212感染症病床数:0合計病床数:212】沖縄県うるま市上江洲" }, "geometry": { "type": "Point", "coordinates": [ 127.85792, 26.358965 ] } },
{ "type": "Feature", "properties": { "ID": "47149", "正式名称": "独立行政法人国立病院機構　沖縄病院", "機関区分": 1, "都道府県コード": 47, "市区町村コード": 205, "所在地": "沖縄県宜野湾市我如古３丁目２０番１４号", "緯度": 26.252286, "経度": 127.755789, "url": "https://www.iryou.teikyouseido.mhlw.go.jp/znk-web/juminkanja/S2430/initialize?prefCd=47&kikanCd=49&kikanKbn=1", "url2": "https://okinawa.hosp.go.jp/", "内容": "独立行政法人国立病院機構　沖縄病院【1:病院】【診療科目:内科_脳神経内科_呼吸器内科_消化器内科_外科_呼吸器外科_整形外科_小児科_リハビリテーション科_放射線科_放射線治療科_病理診断科_麻酔科】【一般病床数:270療養病床数:0精神病床数:0感染症病床数:0合計病床数:300】沖縄県宜野湾市我如古３丁目２０番１４号" }, "geometry": { "type": "Point", "coordinates": [ 127.755789, 26.252286 ] } },
{ "type": "Feature", "properties": { "ID": "47150", "正式名称": "社会医療法人　敬愛会　中頭病院", "機関区分": 1, "都道府県コード": 47, "市区町村コード": 211, "所在地": "沖縄県沖縄市登川６１０番地", "緯度": 26.366369, "経度": 127.825689, "url": "https://www.iryou.teikyouseido.mhlw.go.jp/znk-web/juminkanja/S2430/initialize?prefCd=47&kikanCd=50&kikanKbn=1", "url2": "www.nakagami.or.jp", "内容": "社会医療法人　敬愛会　中頭病院【1:病院】【診療科目:内科_感染症内科_血液・腫瘍内科_内分泌内科_代謝・内分泌内科_呼吸器内科_循環器内科_消化器内科_腎臓内科_神経内科_ペインクリニック内科_外科_脳神経外科_呼吸器外科_血管外科_心臓血管外科_消化器外科_乳腺外科_肛門外科_整形外科_形成外科_小児科_小児外科_産婦人科_眼科_頭頸部・耳鼻いんこう科_泌尿器科_リハビリテーション科_放射線科_病理診断科_救急科_麻酔科】【一般病床数:355療養病床数:0精神病床数:0感染症病床数:0合計病床数:355】沖縄県沖縄市登川６１０番地" }, "geometry": { "type": "Point", "coordinates": [ 127.825689, 26.366369 ] } },
{ "type": "Feature", "properties": { "ID": "47151", "正式名称": "医療法人徳洲会　中部徳洲会病院", "機関区分": 1, "都道府県コード": 47, "市区町村コード": 327, "所在地": "沖縄県中頭郡北中城村字比嘉８０１番地", "緯度": 26.316977, "経度": 127.797285, "url": "https://www.iryou.teikyouseido.mhlw.go.jp/znk-web/juminkanja/S2430/initialize?prefCd=47&kikanCd=51&kikanKbn=1", "url2": "http://www.cyutoku.or.jp", "内容": "医療法人徳洲会　中部徳洲会病院【1:病院】【診療科目:内科_血液内科_脳神経内科_呼吸器内科_循環器内科_消化器内科_腎臓内科_ペインクリニック内科_外科_脳神経外科_呼吸器外科_心臓血管外科_消化器外科_乳腺外科_肛門外科_整形外科_形成外科_小児科_婦人科_眼科_耳鼻いんこう科_皮膚科_泌尿器科_歯科口腔外科_リウマチ科_リハビリテーション科_放射線科_病理診断科_臨床検査科_救急科_麻酔科】【一般病床数:408療養病床数:0精神病床数:0感染症病床数:0合計病床数:408】沖縄県中頭郡北中城村字比嘉８０１番地" }, "geometry": { "type": "Point", "coordinates": [ 127.797285, 26.316977 ] } },
{ "type": "Feature", "properties": { "ID": "47152", "正式名称": "社会医療法人かりゆし会　ハートライフ病院", "機関区分": 1, "都道府県コード": 47, "市区町村コード": 328, "所在地": "沖縄県中頭郡中城村字伊集２０８", "緯度": 26.237872, "経度": 127.770847, "url": "https://www.iryou.teikyouseido.mhlw.go.jp/znk-web/juminkanja/S2430/initialize?prefCd=47&kikanCd=52&kikanKbn=1", "url2": "infoheartlife.or.jp", "内容": "社会医療法人かりゆし会　ハートライフ病院【1:病院】【診療科目:内科_呼吸器内科_循環器内科_消化器内科_人工透析内科_肝臓内科_総合内科_外科_脳神経外科_食道外科_血管外科_消化器外科_乳腺外科_大腸・肛門外科_整形外科_形成外科_小児科_小児外科_産婦人科_眼科_耳鼻いんこう科_泌尿器科_精神科_心療内科_歯科_歯科口腔外科_リウマチ科_リハビリテーション科_放射線科_病理診断科_救急科_麻酔科】【一般病床数:308療養病床数:0精神病床数:0感染症病床数:0合計病床数:308】沖縄県中頭郡中城村字伊集２０８" }, "geometry": { "type": "Point", "coordinates": [ 127.770847, 26.237872 ] } },
{ "type": "Feature", "properties": { "ID": "47153", "正式名称": "北中城若松病院", "機関区分": 1, "都道府県コード": 47, "市区町村コード": 327, "所在地": "沖縄県中頭郡北中城村字大城３１１", "緯度": 26.288728, "経度": 127.800641, "url": "https://www.iryou.teikyouseido.mhlw.go.jp/znk-web/juminkanja/S2430/initialize?prefCd=47&kikanCd=53&kikanKbn=1", "url2": "http://www.agape-wakamatsu.or.jp", "内容": "北中城若松病院【1:病院】【診療科目:内科_脳神経内科_精神科_リハビリテーション科】【一般病床数:54療養病床数:87精神病床数:94感染症病床数:0合計病床数:235】沖縄県中頭郡北中城村字大城３１１" }, "geometry": { "type": "Point", "coordinates": [ 127.800641, 26.288728 ] } },
{ "type": "Feature", "properties": { "ID": "47155", "正式名称": "沖縄県立中部病院", "機関区分": 1, "都道府県コード": 47, "市区町村コード": 213, "所在地": "沖縄県うるま市字宮里２８１", "緯度": 26.354656, "経度": 127.834906, "url": "https://www.iryou.teikyouseido.mhlw.go.jp/znk-web/juminkanja/S2430/initialize?prefCd=47&kikanCd=55&kikanKbn=1", "url2": "https://chubuweb.hosp.pref.okinawa.jp/", "内容": "沖縄県立中部病院【1:病院】【診療科目:内科_感染症内科_血液・腫瘍内科_内分泌内科_糖尿病・代謝内科_呼吸器内科_循環器内科_消化器内科_腎臓内科_神経内科_緩和ケア内科_総合内科_外科_脳神経外科_呼吸器外科_気管食道外科_心臓血管外科_消化器外科_乳腺外科_肛門外科_整形外科_形成外科_耳鼻咽喉・頭頚部外科_小児科_小児外科_新生児内科_産科_婦人科_眼科_耳鼻いんこう科_皮膚科_泌尿器科_精神科_心療内科_歯科口腔外科_アレルギー科_リウマチ科_リハビリテーション科_放射線診断科_放射線治療科_病理診断科_救急科_麻酔科】【一般病床数:555療養病床数:0精神病床数:0感染症病床数:4合計病床数:559】沖縄県うるま市字宮里２８１" }, "geometry": { "type": "Point", "coordinates": [ 127.834906, 26.354656 ] } },
{ "type": "Feature", "properties": { "ID": "47158", "正式名称": "社会医療法人友愛会　友愛医療センター", "機関区分": 1, "都道府県コード": 47, "市区町村コード": 212, "所在地": "沖縄県豊見城市与根５０番地５", "緯度": 26.170967, "経度": 127.654153, "url": "https://www.iryou.teikyouseido.mhlw.go.jp/znk-web/juminkanja/S2430/initialize?prefCd=47&kikanCd=58&kikanKbn=1", "url2": "http://www.yuuai.or.jp", "内容": "社会医療法人友愛会　友愛医療センター【1:病院】【診療科目:内科_糖尿病・代謝内科_脳神経内科_呼吸器内科_循環器内科_消化器内科_腎臓内科_外科_脳神経外科_呼吸器外科_血管外科_心臓血管外科_消化器外科_乳腺外科_内視鏡外科_移植外科_整形外科_形成外科_美容外科_緩和ケア外科_緩和ケア外科_小児科_産婦人科_眼科_耳鼻いんこう科_皮膚科_美容皮膚科_腎・泌尿器外科_精神科_歯科_リウマチ科_リハビリテーション科_放射線科_病理診断科_救急科_麻酔科】【一般病床数:388療養病床数:0精神病床数:0感染症病床数:0合計病床数:388】沖縄県豊見城市与根５０番地５" }, "geometry": { "type": "Point", "coordinates": [ 127.654153, 26.170967 ] } },
{ "type": "Feature", "properties": { "ID": "47162", "正式名称": "博愛病院", "機関区分": 1, "都道府県コード": 47, "市区町村コード": 350, "所在地": "沖縄県島尻郡南風原町新川４８５ー１", "緯度": 26.204483, "経度": 127.7261, "url": "https://www.iryou.teikyouseido.mhlw.go.jp/znk-web/juminkanja/S2430/initialize?prefCd=47&kikanCd=62&kikanKbn=1", "url2": "http://www16.ocn.ne.jp/~hakuai/", "内容": "博愛病院【1:病院】【診療科目:精神科_心療内科】【一般病床数:0療養病床数:0精神病床数:0感染症病床数:0合計病床数:0】沖縄県島尻郡南風原町新川４８５ー１" }, "geometry": { "type": "Point", "coordinates": [ 127.7261, 26.204483 ] } },
{ "type": "Feature", "properties": { "ID": "47164", "正式名称": "医療法人以和貴会　ウェルネス西崎病院", "機関区分": 1, "都道府県コード": 47, "市区町村コード": 210, "所在地": "沖縄県糸満市糸満２０４１番地の５", "緯度": 26.135292, "経度": 127.669858, "url": "https://www.iryou.teikyouseido.mhlw.go.jp/znk-web/juminkanja/S2430/initialize?prefCd=47&kikanCd=64&kikanKbn=1", "url2": null, "内容": "医療法人以和貴会　ウェルネス西崎病院【1:病院】【診療科目:内科_胃腸内科】【一般病床数:0療養病床数:60精神病床数:0感染症病床数:0合計病床数:60】沖縄県糸満市糸満２０４１番地の５" }, "geometry": { "type": "Point", "coordinates": [ 127.669858, 26.135292 ] } },
{ "type": "Feature", "properties": { "ID": "47165", "正式名称": "アドベンチスト　メディカルセンター", "機関区分": 1, "都道府県コード": 47, "市区町村コード": 329, "所在地": "沖縄県中頭郡西原町字幸地８６８番地", "緯度": 26.228685, "経度": 127.740326, "url": "https://www.iryou.teikyouseido.mhlw.go.jp/znk-web/juminkanja/S2430/initialize?prefCd=47&kikanCd=65&kikanKbn=1", "url2": "http://www.amc.gr.jp", "内容": "アドベンチスト　メディカルセンター【1:病院】【診療科目:内科_緩和ケア内科_外科_整形外科_小児科_婦人科_皮膚科_歯科_矯正歯科_歯科口腔外科_小児歯科】【一般病床数:48療養病床数:0精神病床数:0感染症病床数:0合計病床数:48】沖縄県中頭郡西原町字幸地８６８番地" }, "geometry": { "type": "Point", "coordinates": [ 127.740326, 26.228685 ] } },
{ "type": "Feature", "properties": { "ID": "47166", "正式名称": "沖縄南部療育医療センター", "機関区分": 1, "都道府県コード": 47, "市区町村コード": 201, "所在地": "沖縄県那覇市寄宮２－３－１", "緯度": 26.207521, "経度": 127.695805, "url": "https://www.iryou.teikyouseido.mhlw.go.jp/znk-web/juminkanja/S2430/initialize?prefCd=47&kikanCd=66&kikanKbn=1", "url2": "https://www.okishikyo.jp/nanbu/", "内容": "沖縄南部療育医療センター【1:病院】【診療科目:内科_神経内科_小児科_精神科_リハビリテーション科】【一般病床数:100療養病床数:40精神病床数:0感染症病床数:0合計病床数:140】沖縄県那覇市寄宮２－３－１" }, "geometry": { "type": "Point", "coordinates": [ 127.695805, 26.207521 ] } },
{ "type": "Feature", "properties": { "ID": "47167", "正式名称": "勝連病院", "機関区分": 1, "都道府県コード": 47, "市区町村コード": 210, "所在地": "沖縄県糸満市真栄平１０２６番地", "緯度": 26.115831, "経度": 127.714567, "url": "https://www.iryou.teikyouseido.mhlw.go.jp/znk-web/juminkanja/S2430/initialize?prefCd=47&kikanCd=67&kikanKbn=1", "url2": "http://www.katsuren-hp.or.jp", "内容": "勝連病院【1:病院】【診療科目:内科_精神科_心療内科_リハビリテーション科】【一般病床数:0療養病床数:0精神病床数:446感染症病床数:0合計病床数:446】沖縄県糸満市真栄平１０２６番地" }, "geometry": { "type": "Point", "coordinates": [ 127.714567, 26.115831 ] } },
{ "type": "Feature", "properties": { "ID": "47168", "正式名称": "社会医療法人友愛会　豊見城中央病院", "機関区分": 1, "都道府県コード": 47, "市区町村コード": 212, "所在地": "沖縄県豊見城市上田２５番地", "緯度": 26.175839, "経度": 127.676108, "url": "https://www.iryou.teikyouseido.mhlw.go.jp/znk-web/juminkanja/S2430/initialize?prefCd=47&kikanCd=68&kikanKbn=1", "url2": "https://tch.yuuai.or.jp/", "内容": "社会医療法人友愛会　豊見城中央病院【1:病院】【診療科目:内科_呼吸器内科_循環器内科_消化器内科_神経内科_漢方内科_緩和ケア内科_外科_脳神経外科_整形外科_眼科_耳鼻いんこう科_皮膚科_泌尿器科_精神科_心療内科_歯科_リハビリテーション科_放射線科_麻酔科】【一般病床数:268療養病床数:0精神病床数:0感染症病床数:0合計病床数:268】沖縄県豊見城市上田２５番地" }, "geometry": { "type": "Point", "coordinates": [ 127.676108, 26.175839 ] } },
{ "type": "Feature", "properties": { "ID": "47169", "正式名称": "医療法人晴明会　糸満晴明病院", "機関区分": 1, "都道府県コード": 47, "市区町村コード": 210, "所在地": "沖縄県糸満市大度５２０番地", "緯度": 26.098862, "経度": 127.707731, "url": "https://www.iryou.teikyouseido.mhlw.go.jp/znk-web/juminkanja/S2430/initialize?prefCd=47&kikanCd=69&kikanKbn=1", "url2": "https://www.seimei.org", "内容": "医療法人晴明会　糸満晴明病院【1:病院】【診療科目:精神科_心療内科_歯科】【一般病床数:0療養病床数:0精神病床数:297感染症病床数:0合計病床数:297】沖縄県糸満市大度５２０番地" }, "geometry": { "type": "Point", "coordinates": [ 127.707731, 26.098862 ] } },
{ "type": "Feature", "properties": { "ID": "47172", "正式名称": "国立療養所　宮古南静園", "機関区分": 1, "都道府県コード": 47, "市区町村コード": 214, "所在地": "沖縄県宮古島市平良島尻", "緯度": 24.85669, "経度": 125.30303, "url": "https://www.iryou.teikyouseido.mhlw.go.jp/znk-web/juminkanja/S2430/initialize?prefCd=47&kikanCd=72&kikanKbn=1", "url2": "http://www.nhds.go.jp/~miyako/", "内容": "国立療養所　宮古南静園【1:病院】【診療科目:内科_外科_皮膚科】【一般病床数:100療養病床数:0精神病床数:0感染症病床数:0合計病床数:100】沖縄県宮古島市平良島尻" }, "geometry": { "type": "Point", "coordinates": [ 125.30303, 24.85669 ] } },
{ "type": "Feature", "properties": { "ID": "47174", "正式名称": "医療法人左右会　宮古島リハビリ温泉病院", "機関区分": 1, "都道府県コード": 47, "市区町村コード": 214, "所在地": "沖縄県宮古島市平良東仲宗根添１８９８－７", "緯度": 24.769794, "経度": 125.342522, "url": "https://www.iryou.teikyouseido.mhlw.go.jp/znk-web/juminkanja/S2430/initialize?prefCd=47&kikanCd=74&kikanKbn=1", "url2": "www.miyako-reha.or.jp", "内容": "医療法人左右会　宮古島リハビリ温泉病院【1:病院】【診療科目:内科_脳神経内科_消化器内科_人工透析内科_リハビリテーション科】【一般病床数:0療養病床数:216精神病床数:0感染症病床数:0合計病床数:216】沖縄県宮古島市平良東仲宗根添１８９８－７" }, "geometry": { "type": "Point", "coordinates": [ 125.342522, 24.769794 ] } },
{ "type": "Feature", "properties": { "ID": "47175", "正式名称": "医療法人徳洲会　宮古島徳洲会病院", "機関区分": 1, "都道府県コード": 47, "市区町村コード": 214, "所在地": "沖縄県宮古島市平良松原５５２－１", "緯度": 24.788406, "経度": 125.279769, "url": "https://www.iryou.teikyouseido.mhlw.go.jp/znk-web/juminkanja/S2430/initialize?prefCd=47&kikanCd=75&kikanKbn=1", "url2": "http://www.miyatoku.jp", "内容": "医療法人徳洲会　宮古島徳洲会病院【1:病院】【診療科目:内科_外科_脳神経外科_心臓血管外科_整形外科_皮膚科_泌尿器科_リハビリテーション科_放射線科】【一般病床数:99療養病床数:0精神病床数:0感染症病床数:0合計病床数:99】沖縄県宮古島市平良松原５５２－１" }, "geometry": { "type": "Point", "coordinates": [ 125.279769, 24.788406 ] } },
{ "type": "Feature", "properties": { "ID": "47176", "正式名称": "沖縄県立八重山病院", "機関区分": 1, "都道府県コード": 47, "市区町村コード": 207, "所在地": "沖縄県石垣市真栄里５８４－１番地", "緯度": 24.343464, "経度": 124.183881, "url": "https://www.iryou.teikyouseido.mhlw.go.jp/znk-web/juminkanja/S2430/initialize?prefCd=47&kikanCd=76&kikanKbn=1", "url2": "https://yaeyamaweb.hosp.pref.okinawa.jp/", "内容": "沖縄県立八重山病院【1:病院】【診療科目:内科_呼吸器内科_循環器内科_消化器内科_腎臓内科_神経内科_外科_脳神経外科_脳外科_呼吸器外科_消化器外科_整形外科_小児科_産科_婦人科_眼科_耳鼻いんこう科_皮膚科_泌尿器科_精神科_歯科口腔外科_リハビリテーション科_放射線科_救急科_麻酔科】【一般病床数:255療養病床数:0精神病床数:38感染症病床数:3合計病床数:302】沖縄県石垣市真栄里５８４－１番地" }, "geometry": { "type": "Point", "coordinates": [ 124.183881, 24.343464 ] } },
{ "type": "Feature", "properties": { "ID": "47178", "正式名称": "与那原中央病院", "機関区分": 1, "都道府県コード": 47, "市区町村コード": 348, "所在地": "沖縄県島尻郡与那原町与那原", "緯度": 26.203409, "経度": 127.756312, "url": "https://www.iryou.teikyouseido.mhlw.go.jp/znk-web/juminkanja/S2430/initialize?prefCd=47&kikanCd=78&kikanKbn=1", "url2": "https://www.ycb.or.jp/", "内容": "与那原中央病院【1:病院】【診療科目:内科_呼吸器内科_循環器内科_消化器内科_外科_肛門外科_整形外科_眼科_皮膚科_泌尿器科_歯科_歯科口腔外科_リハビリテーション科】【一般病床数:96療養病床数:74精神病床数:0感染症病床数:0合計病床数:170】沖縄県島尻郡与那原町与那原" }, "geometry": { "type": "Point", "coordinates": [ 127.756312, 26.203409 ] } },
{ "type": "Feature", "properties": { "ID": "47179", "正式名称": "医療法人大平会　嶺井第二病院まちなと", "機関区分": 1, "都道府県コード": 47, "市区町村コード": 208, "所在地": "沖縄県浦添市牧港３－１－１０", "緯度": 26.259161, "経度": 127.731586, "url": "https://www.iryou.teikyouseido.mhlw.go.jp/znk-web/juminkanja/S2430/initialize?prefCd=47&kikanCd=79&kikanKbn=1", "url2": "http://www.ohirakai.or.jp/", "内容": "医療法人大平会　嶺井第二病院まちなと【1:病院】【診療科目:内科_呼吸器内科_リハビリテーション科】【一般病床数:0療養病床数:168精神病床数:0感染症病床数:0合計病床数:168】沖縄県浦添市牧港３－１－１０" }, "geometry": { "type": "Point", "coordinates": [ 127.731586, 26.259161 ] } },
{ "type": "Feature", "properties": { "ID": "47180", "正式名称": "川平病院", "機関区分": 1, "都道府県コード": 47, "市区町村コード": 201, "所在地": "沖縄県那覇市古波蔵３丁目５番２５号", "緯度": 26.200687, "経度": 127.684012, "url": "https://www.iryou.teikyouseido.mhlw.go.jp/znk-web/juminkanja/S2430/initialize?prefCd=47&kikanCd=80&kikanKbn=1", "url2": "http://kabirakai.com/", "内容": "川平病院【1:病院】【診療科目:内科_呼吸器内科_循環器内科_消化器内科_小児科_リハビリテーション科】【一般病床数:0療養病床数:82精神病床数:0感染症病床数:0合計病床数:82】沖縄県那覇市古波蔵３丁目５番２５号" }, "geometry": { "type": "Point", "coordinates": [ 127.684012, 26.200687 ] } },
{ "type": "Feature", "properties": { "ID": "47181", "正式名称": "医療法人はごろも会　那覇ゆい病院", "機関区分": 1, "都道府県コード": 47, "市区町村コード": 201, "所在地": "沖縄県那覇市古島１丁目２２番１号", "緯度": 26.220992, "経度": 127.703444, "url": "https://www.iryou.teikyouseido.mhlw.go.jp/znk-web/juminkanja/S2430/initialize?prefCd=47&kikanCd=81&kikanKbn=1", "url2": "http://www.hagoromo.or.jp/index.htm", "内容": "医療法人はごろも会　那覇ゆい病院【1:病院】【診療科目:内科_呼吸器内科_循環器内科_外科_整形外科_小児科】【一般病床数:0療養病床数:94精神病床数:0感染症病床数:0合計病床数:94】沖縄県那覇市古島１丁目２２番１号" }, "geometry": { "type": "Point", "coordinates": [ 127.703444, 26.220992 ] } },
{ "type": "Feature", "properties": { "ID": "47186", "正式名称": "医療法人天仁会　天久台病院", "機関区分": 1, "都道府県コード": 47, "市区町村コード": 201, "所在地": "沖縄県那覇市字天久１１２３", "緯度": 26.231377, "経度": 127.684098, "url": "https://www.iryou.teikyouseido.mhlw.go.jp/znk-web/juminkanja/S2430/initialize?prefCd=47&kikanCd=86&kikanKbn=1", "url2": "https://www.tjmc.or.jp/", "内容": "医療法人天仁会　天久台病院【1:病院】【診療科目:脳神経内科_児童精神科_精神科_心療内科_老年精神科】【一般病床数:0療養病床数:0精神病床数:333感染症病床数:0合計病床数:333】沖縄県那覇市字天久１１２３" }, "geometry": { "type": "Point", "coordinates": [ 127.684098, 26.231377 ] } },
{ "type": "Feature", "properties": { "ID": "47187", "正式名称": "重症心身障害児（者）施設　沖縄療育園", "機関区分": 1, "都道府県コード": 47, "市区町村コード": 208, "所在地": "沖縄県浦添市字経塚７１４番地", "緯度": 26.238253, "経度": 127.72198, "url": "https://www.iryou.teikyouseido.mhlw.go.jp/znk-web/juminkanja/S2430/initialize?prefCd=47&kikanCd=87&kikanKbn=1", "url2": null, "内容": "重症心身障害児（者）施設　沖縄療育園【1:病院】【診療科目:内科_整形外科_小児科】【一般病床数:100療養病床数:0精神病床数:0感染症病床数:0合計病床数:0】沖縄県浦添市字経塚７１４番地" }, "geometry": { "type": "Point", "coordinates": [ 127.72198, 26.238253 ] } },
{ "type": "Feature", "properties": { "ID": "47188", "正式名称": "社会医療法人仁愛会　浦添総合病院", "機関区分": 1, "都道府県コード": 47, "市区町村コード": 208, "所在地": "沖縄県浦添市前田一丁目５６番１号", "緯度": 26.240744, "経度": 127.737963, "url": "https://www.iryou.teikyouseido.mhlw.go.jp/znk-web/juminkanja/S2430/initialize?prefCd=47&kikanCd=88&kikanKbn=1", "url2": "https://jin-aikai.com/urasoe/", "内容": "社会医療法人仁愛会　浦添総合病院【1:病院】【診療科目:内科_呼吸器内科_循環器内科_消化器内科_腎臓内科_神経内科_外科_脳神経外科_呼吸器外科_食道外科_心臓血管外科_消化器外科_乳腺外科_整形外科_形成外科_眼科_耳鼻いんこう科_腎・泌尿器外科_歯科_歯科口腔外科_アレルギー科_リハビリテーション科_放射線科_病理診断科_臨床検査科_救急科_麻酔科】【一般病床数:334療養病床数:0精神病床数:0感染症病床数:0合計病床数:334】沖縄県浦添市前田一丁目５６番１号" }, "geometry": { "type": "Point", "coordinates": [ 127.737963, 26.240744 ] } },
{ "type": "Feature", "properties": { "ID": "47189", "正式名称": "医療法人沖縄徳洲会　南部徳洲会病院", "機関区分": 1, "都道府県コード": 47, "市区町村コード": 362, "所在地": "沖縄県島尻郡八重瀬町外間１７１番地１", "緯度": 26.178347, "経度": 127.715544, "url": "https://www.iryou.teikyouseido.mhlw.go.jp/znk-web/juminkanja/S2430/initialize?prefCd=47&kikanCd=89&kikanKbn=1", "url2": "www.nantoku.org", "内容": "医療法人沖縄徳洲会　南部徳洲会病院【1:病院】【診療科目:内科_脳神経内科_呼吸器内科_循環器内科_外科_脳神経外科_呼吸器外科_気管食道外科_心臓血管外科_消化器外科_整形外科_形成外科_小児科_小児外科_産婦人科_眼科_耳鼻いんこう科_皮膚科_泌尿器科_歯科口腔外科_リハビリテーション科_放射線科_病理診断科_救急科_麻酔科】【一般病床数:357療養病床数:0精神病床数:0感染症病床数:0合計病床数:357】沖縄県島尻郡八重瀬町外間１７１番地１" }, "geometry": { "type": "Point", "coordinates": [ 127.715544, 26.178347 ] } },
{ "type": "Feature", "properties": { "ID": "47191", "正式名称": "沖縄県立精和病院", "機関区分": 1, "都道府県コード": 47, "市区町村コード": 350, "所在地": "沖縄県島尻郡南風原町新川２６０", "緯度": 26.207267, "経度": 127.72775, "url": "https://www.iryou.teikyouseido.mhlw.go.jp/znk-web/juminkanja/S2430/initialize?prefCd=47&kikanCd=91&kikanKbn=1", "url2": "https://byoinjigyokyoku.pref.okinawa.lg.jp/seiwa/", "内容": "沖縄県立精和病院【1:病院】【診療科目:内科_精神科_心療内科_歯科】【一般病床数:0療養病床数:0精神病床数:246感染症病床数:0合計病床数:250】沖縄県島尻郡南風原町新川２６０" }, "geometry": { "type": "Point", "coordinates": [ 127.72775, 26.207267 ] } },
{ "type": "Feature", "properties": { "ID": "47192", "正式名称": "医療法人八重瀬会　同仁病院", "機関区分": 1, "都道府県コード": 47, "市区町村コード": 208, "所在地": "沖縄県浦添市城間１－３７－１２", "緯度": 26.255838, "経度": 127.708233, "url": "https://www.iryou.teikyouseido.mhlw.go.jp/znk-web/juminkanja/S2430/initialize?prefCd=47&kikanCd=92&kikanKbn=1", "url2": "http://www.yaese.or.jp", "内容": "医療法人八重瀬会　同仁病院【1:病院】【診療科目:内科_呼吸器内科_消化器内科_腎臓内科_外科_消化器外科_肛門外科_整形外科_形成外科_小児科_皮膚科_泌尿器科_精神科_歯科_歯科口腔外科_リハビリテーション科_放射線科_麻酔科】【一般病床数:100療養病床数:54精神病床数:0感染症病床数:0合計病床数:154】沖縄県浦添市城間１－３７－１２" }, "geometry": { "type": "Point", "coordinates": [ 127.708233, 26.255838 ] } },
{ "type": "Feature", "properties": { "ID": "47193", "正式名称": "牧港中央病院", "機関区分": 1, "都道府県コード": 47, "市区町村コード": 208, "所在地": "沖縄県浦添市牧港１１９９", "緯度": 26.267991, "経度": 127.715212, "url": "https://www.iryou.teikyouseido.mhlw.go.jp/znk-web/juminkanja/S2430/initialize?prefCd=47&kikanCd=93&kikanKbn=1", "url2": "http://www.haku-ai.or.jp/", "内容": "牧港中央病院【1:病院】【診療科目:内科_呼吸器内科_循環器内科_腎臓内科_血管外科_心臓血管外科】【一般病床数:53療養病床数:46精神病床数:0感染症病床数:0合計病床数:99】沖縄県浦添市牧港１１９９" }, "geometry": { "type": "Point", "coordinates": [ 127.715212, 26.267991 ] } },
{ "type": "Feature", "properties": { "ID": "47196", "正式名称": "医療法人こうぶん会　比嘉眼科", "機関区分": 1, "都道府県コード": 47, "市区町村コード": 208, "所在地": "沖縄県浦添市城間４－３４－２０", "緯度": 26.259914, "経度": 127.712935, "url": "https://www.iryou.teikyouseido.mhlw.go.jp/znk-web/juminkanja/S2430/initialize?prefCd=47&kikanCd=96&kikanKbn=1", "url2": "https://www.higaganka.or.jp/", "内容": "医療法人こうぶん会　比嘉眼科【1:病院】【診療科目:眼科】【一般病床数:15療養病床数:0精神病床数:0感染症病床数:0合計病床数:15】沖縄県浦添市城間４－３４－２０" }, "geometry": { "type": "Point", "coordinates": [ 127.712935, 26.259914 ] } },
{ "type": "Feature", "properties": { "ID": "47197", "正式名称": "公立久米島病院", "機関区分": 1, "都道府県コード": 47, "市区町村コード": 361, "所在地": "沖縄県島尻郡久米島町字嘉手苅５７２番地３", "緯度": 26.34202, "経度": 126.765053, "url": "https://www.iryou.teikyouseido.mhlw.go.jp/znk-web/juminkanja/S2430/initialize?prefCd=47&kikanCd=97&kikanKbn=1", "url2": "https://www.kph-kumejima-jadecom.jp/", "内容": "公立久米島病院【1:病院】【診療科目:内科_糖尿病内科_脳神経内科_循環器内科_外科_整形外科_小児科_産婦人科_眼科_耳鼻いんこう科_皮膚科_泌尿器科_精神科_リハビリテーション科】【一般病床数:40療養病床数:0精神病床数:0感染症病床数:0合計病床数:40】沖縄県島尻郡久米島町字嘉手苅５７２番地３" }, "geometry": { "type": "Point", "coordinates": [ 126.765053, 26.34202 ] } },
{ "type": "Feature", "properties": { "ID": "47199", "正式名称": "国立大学法人琉球大学　琉球大学病院", "機関区分": 1, "都道府県コード": 47, "市区町村コード": 329, "所在地": "沖縄県中頭郡西原町字上原２０７番地", "緯度": 26.241962, "経度": 127.758685, "url": "https://www.iryou.teikyouseido.mhlw.go.jp/znk-web/juminkanja/S2430/initialize?prefCd=47&kikanCd=99&kikanKbn=1", "url2": "http://www.hosp.u-ryukyu.ac.jp/", "内容": "国立大学法人琉球大学　琉球大学病院【1:病院】【診療科目:内科_第二内科_外科_脳神経外科_心臓血管外科_整形外科_形成外科_小児科_産科_婦人科_眼科_耳鼻いんこう科_皮膚科_泌尿器科_精神科_神経科_歯科口腔外科_リハビリテーション科_放射線科_病理診断科_救急科_麻酔科_第三内科】【一般病床数:550療養病床数:0精神病床数:40感染症病床数:6合計病床数:600】沖縄県中頭郡西原町字上原２０７番地" }, "geometry": { "type": "Point", "coordinates": [ 127.758685, 26.241962 ] } },
{ "type": "Feature", "properties": { "ID": "471b1001", "正式名称": "社会医療法人敬愛会　なかがみ西病院", "機関区分": 1, "都道府県コード": 47, "市区町村コード": 211, "所在地": "沖縄県沖縄市知花６丁目２５番５号", "緯度": 26.363873, "経度": 127.816116, "url": "https://www.iryou.teikyouseido.mhlw.go.jp/znk-web/juminkanja/S2430/initialize?prefCd=47&kikanCd=b1001&kikanKbn=1", "url2": null, "内容": "社会医療法人敬愛会　なかがみ西病院【1:病院】【診療科目:内科_人工透析内科_外科_整形外科_皮膚科_救急科】【一般病床数:94療養病床数:0精神病床数:0感染症病床数:0合計病床数:94】沖縄県沖縄市知花６丁目２５番５号" }, "geometry": { "type": "Point", "coordinates": [ 127.816116, 26.363873 ] } },
{ "type": "Feature", "properties": { "ID": "471c0008", "正式名称": "平安病院", "機関区分": 1, "都道府県コード": 47, "市区町村コード": 208, "所在地": "沖縄県浦添市経塚３４６番地", "緯度": 26.235107, "経度": 127.724224, "url": "https://www.iryou.teikyouseido.mhlw.go.jp/znk-web/juminkanja/S2430/initialize?prefCd=47&kikanCd=c0008&kikanKbn=1", "url2": "www.heian-hp.or.jp", "内容": "平安病院【1:病院】【診療科目:内科_精神科_心療内科】【一般病床数:0療養病床数:84精神病床数:309感染症病床数:0合計病床数:393】沖縄県浦添市経塚３４６番地" }, "geometry": { "type": "Point", "coordinates": [ 127.724224, 26.235107 ] } },
{ "type": "Feature", "properties": { "ID": "471c0010", "正式名称": "医療法人陽和会　南山病院", "機関区分": 1, "都道府県コード": 47, "市区町村コード": 210, "所在地": "沖縄県糸満市字賀数４０６番地の１", "緯度": 26.15195, "経度": 127.692236, "url": "https://www.iryou.teikyouseido.mhlw.go.jp/znk-web/juminkanja/S2430/initialize?prefCd=47&kikanCd=c0010&kikanKbn=1", "url2": "http://www.nanzan.or.jp/", "内容": "医療法人陽和会　南山病院【1:病院】【診療科目:内科_精神科_心療内科_歯科】【一般病床数:0療養病床数:0精神病床数:215感染症病床数:0合計病床数:215】沖縄県糸満市字賀数４０６番地の１" }, "geometry": { "type": "Point", "coordinates": [ 127.692236, 26.15195 ] } },
{ "type": "Feature", "properties": { "ID": "471f0001", "正式名称": "地方独立行政法人　那覇市立病院", "機関区分": 1, "都道府県コード": 47, "市区町村コード": 201, "所在地": "沖縄県那覇市古島２丁目３１番１", "緯度": 26.226789, "経度": 127.709729, "url": "https://www.iryou.teikyouseido.mhlw.go.jp/znk-web/juminkanja/S2430/initialize?prefCd=47&kikanCd=f0001&kikanKbn=1", "url2": "https://www.nahacity-hospital.jp/about/facility/access", "内容": "地方独立行政法人　那覇市立病院【1:病院】【診療科目:内科_血液内科_糖尿病・内分泌内科_脳神経内科_呼吸器内科_循環器内科_消化器内科_腎臓内科_神経内科_外科_脳神経外科_呼吸器外科_心臓血管外科_消化器外科_乳腺外科_整形外科_形成外科_小児科_小児外科_産婦人科_眼科_耳鼻いんこう科_皮膚科_腎臓・泌尿器科_精神科_歯科_歯科口腔外科_リウマチ科_リハビリテーション科_放射線診断科_放射線治療科_病理診断科_救急科_麻酔科】【一般病床数:470療養病床数:0精神病床数:0感染症病床数:0合計病床数:470】沖縄県那覇市古島２丁目３１番１" }, "geometry": { "type": "Point", "coordinates": [ 127.709729, 26.226789 ] } },
{ "type": "Feature", "properties": { "ID": "471f0004", "正式名称": "医療法人陽心会　メディカルプラザ大道中央病院", "機関区分": 1, "都道府県コード": 47, "市区町村コード": 201, "所在地": "沖縄県那覇市字大道１２３番地", "緯度": 26.21785, "経度": 127.698358, "url": "https://www.iryou.teikyouseido.mhlw.go.jp/znk-web/juminkanja/S2430/initialize?prefCd=47&kikanCd=f0004&kikanKbn=1", "url2": "https://medical-plaza-daidouchuo.okinawa.jp/", "内容": "医療法人陽心会　メディカルプラザ大道中央病院【1:病院】【診療科目:内科_糖尿病内科_代謝内科_内分泌内科_呼吸器内科_循環器内科_消化器内科_人工透析内科_肝臓内科_脳神経外科_整形外科_婦人科_皮膚科_リハビリテーション科】【一般病床数:60療養病床数:0精神病床数:0感染症病床数:0合計病床数:60】沖縄県那覇市字大道１２３番地" }, "geometry": { "type": "Point", "coordinates": [ 127.698358, 26.21785 ] } }
]
}
