{
"type": "FeatureCollection",
"name": "geo_47_地域密着型特定施設入居者生活介護（有料老人ホーム（サービス付き高齢者向け住宅））",
"crs": { "type": "name", "properties": { "name": "urn:ogc:def:crs:OGC:1.3:CRS84" } },
"features": [
{ "type": "Feature", "properties": { "内容": "介護付き有料老人ホーム　グランツ稲禾【地域密着型特定施設入居者生活介護（有料老人ホーム（サービス付き高齢者向け住宅））】安里５１番地", "url": "https://www.kaigokensaku.mhlw.go.jp/47/index.php?action_kouhyou_detail_004_kani=true&JigyosyoCd=4790100574-00&ServiceCd=&Type=search", "url2": "https://saisei-kai.or.jp/" }, "geometry": { "type": "Point", "coordinates": [ 127.694073399999979, 26.2203505 ] } },
{ "type": "Feature", "properties": { "内容": "地域密着型老人ホームむげん【地域密着型特定施設入居者生活介護（有料老人ホーム（サービス付き高齢者向け住宅））】嘉数3-28-7", "url": "https://www.kaigokensaku.mhlw.go.jp/47/index.php?action_kouhyou_detail_004_kani=true&JigyosyoCd=4790500161-00&ServiceCd=&Type=search", "url2": null }, "geometry": { "type": "Point", "coordinates": [ 127.7329767, 26.258481 ] } },
{ "type": "Feature", "properties": { "内容": "ｻｰﾋﾞｽ付き高齢者向け住宅花庭【地域密着型特定施設入居者生活介護（有料老人ホーム（サービス付き高齢者向け住宅））】沖縄県島尻郡八重瀬町字仲座420番地1", "url": "https://www.kaigokensaku.mhlw.go.jp/47/index.php?action_kouhyou_detail_004_kani=true&JigyosyoCd=4795700055-00&ServiceCd=&Type=search", "url2": "http://www.tenshoen.ne.jp" }, "geometry": { "type": "Point", "coordinates": [ 127.7214543, 26.1082566 ] } }
]
}
