{
"type": "FeatureCollection",
"name": "geo_47_福祉用具貸与",
"crs": { "type": "name", "properties": { "name": "urn:ogc:def:crs:OGC:1.3:CRS84" } },
"features": [
{ "type": "Feature", "properties": { "内容": "株式会社琉球光和【福祉用具貸与】沖縄県那覇市西1-2-16琉球光和ビル1F", "url": "https://www.kaigokensaku.mhlw.go.jp/47/index.php?action_kouhyou_detail_004_kani=true&JigyosyoCd=4770102392-00&ServiceCd=170&Type=search", "url2": null }, "geometry": { "type": "Point", "coordinates": [ 127.6722903, 26.2116988 ] } },
{ "type": "Feature", "properties": { "内容": "合資会社　ひまわり館【福祉用具貸与】沖縄県那覇市古島１丁目２１番地４", "url": "https://www.kaigokensaku.mhlw.go.jp/47/index.php?action_kouhyou_detail_004_kani=true&JigyosyoCd=4770800144-00&ServiceCd=170&Type=search", "url2": "http://himawarikan.okinawa/" }, "geometry": { "type": "Point", "coordinates": [ 127.705075699999966, 26.2303613 ] } },
{ "type": "Feature", "properties": { "内容": "福祉用具レンタル・販売　楽助【福祉用具貸与】沖縄県那覇市松川1-4-8", "url": "https://www.kaigokensaku.mhlw.go.jp/47/index.php?action_kouhyou_detail_004_kani=true&JigyosyoCd=4770103796-00&ServiceCd=170&Type=search", "url2": "https://raku-suke.com/" }, "geometry": { "type": "Point", "coordinates": [ 127.701227199999963, 26.2155072 ] } },
{ "type": "Feature", "properties": { "内容": "介護パートナー【福祉用具貸与】小禄１丁目２１-１１", "url": "https://www.kaigokensaku.mhlw.go.jp/47/index.php?action_kouhyou_detail_004_kani=true&JigyosyoCd=4770101303-00&ServiceCd=170&Type=search", "url2": null }, "geometry": { "type": "Point", "coordinates": [ 127.679624194103994, 26.193352337389847 ] } },
{ "type": "Feature", "properties": { "内容": "株式会社　ケアリング【福祉用具貸与】沖縄県那覇市首里鳥堀町3丁目8番地", "url": "https://www.kaigokensaku.mhlw.go.jp/47/index.php?action_kouhyou_detail_004_kani=true&JigyosyoCd=4770100115-00&ServiceCd=170&Type=search", "url2": "https://caring3211.jimdofree.com/" }, "geometry": { "type": "Point", "coordinates": [ 127.7259361, 26.2182385 ] } },
{ "type": "Feature", "properties": { "内容": "ニチイケアセンター那覇【福祉用具貸与】沖縄県那覇市久茂地1-1-1パレットくもじ308", "url": "https://www.kaigokensaku.mhlw.go.jp/47/index.php?action_kouhyou_detail_004_kani=true&JigyosyoCd=4770100180-00&ServiceCd=170&Type=search", "url2": "hstJ75@nichiigakkan.co.jp" }, "geometry": { "type": "Point", "coordinates": [ 127.679399500000045, 26.2138458 ] } },
{ "type": "Feature", "properties": { "内容": "株式会社　沖縄ヤマハ【福祉用具貸与】沖縄県那覇市曙一丁目８番１０号", "url": "https://www.kaigokensaku.mhlw.go.jp/47/index.php?action_kouhyou_detail_004_kani=true&JigyosyoCd=4770100453-00&ServiceCd=170&Type=search", "url2": "http://www.okinawa-yamaha.com" }, "geometry": { "type": "Point", "coordinates": [ 127.681852, 26.2349405 ] } },
{ "type": "Feature", "properties": { "内容": "（有）ユニバーサルいきいき介護センター【福祉用具貸与】那覇市字仲井真２４０番地２", "url": "https://www.kaigokensaku.mhlw.go.jp/47/index.php?action_kouhyou_detail_004_kani=true&JigyosyoCd=4770100594-00&ServiceCd=170&Type=search", "url2": null }, "geometry": { "type": "Point", "coordinates": [ 127.709900100000041, 26.195357 ] } },
{ "type": "Feature", "properties": { "内容": "福祉用具くもじ【福祉用具貸与】沖縄県那覇市久茂地3-4-16新垣ビル3階-A号室", "url": "https://www.kaigokensaku.mhlw.go.jp/47/index.php?action_kouhyou_detail_004_kani=true&JigyosyoCd=4770104687-00&ServiceCd=170&Type=search", "url2": null }, "geometry": { "type": "Point", "coordinates": [ 127.6830356, 26.2147168 ] } },
{ "type": "Feature", "properties": { "内容": "ケア琉球【福祉用具貸与】沖縄県那覇市三原3-2-11大湾アパート1F", "url": "https://www.kaigokensaku.mhlw.go.jp/47/index.php?action_kouhyou_detail_004_kani=true&JigyosyoCd=4770104430-00&ServiceCd=170&Type=search", "url2": "https://careryukyu.com" }, "geometry": { "type": "Point", "coordinates": [ 127.7010679, 26.209195499999986 ] } },
{ "type": "Feature", "properties": { "内容": "沖縄プラスライフ【福祉用具貸与】三原1丁目１０－３２　1階", "url": "https://www.kaigokensaku.mhlw.go.jp/47/index.php?action_kouhyou_detail_004_kani=true&JigyosyoCd=4770104182-00&ServiceCd=170&Type=search", "url2": null }, "geometry": { "type": "Point", "coordinates": [ 127.6964194, 26.2123762 ] } },
{ "type": "Feature", "properties": { "内容": "有限会社　ヘルスサポート【福祉用具貸与】沖縄県那覇市字大道１２８番地", "url": "https://www.kaigokensaku.mhlw.go.jp/47/index.php?action_kouhyou_detail_004_kani=true&JigyosyoCd=4770100214-00&ServiceCd=170&Type=search", "url2": null }, "geometry": { "type": "Point", "coordinates": [ 127.697727096295239, 26.217563475260118 ] } },
{ "type": "Feature", "properties": { "内容": "ダスキンヘルスレント識名ステーション【福祉用具貸与】沖縄県那覇市真地429番地コーポ真地101", "url": "https://www.kaigokensaku.mhlw.go.jp/47/index.php?action_kouhyou_detail_004_kani=true&JigyosyoCd=4770101451-00&ServiceCd=170&Type=search", "url2": "http://healthrent.duskin.jp/index.html" }, "geometry": { "type": "Point", "coordinates": [ 127.714632299999963, 26.2055087 ] } },
{ "type": "Feature", "properties": { "内容": "サトウ株式会社　那覇営業所【福祉用具貸与】沖縄県那覇市銘苅3-20-22(1F）", "url": "https://www.kaigokensaku.mhlw.go.jp/47/index.php?action_kouhyou_detail_004_kani=true&JigyosyoCd=4770102905-00&ServiceCd=170&Type=search", "url2": "http://www.satooka.com/" }, "geometry": { "type": "Point", "coordinates": [ 127.700500139528799, 26.233635426702289 ] } },
{ "type": "Feature", "properties": { "内容": "福祉用具サービスステーションおもと園【福祉用具貸与】沖縄県那覇市寄宮1-16-12", "url": "https://www.kaigokensaku.mhlw.go.jp/47/index.php?action_kouhyou_detail_004_kani=true&JigyosyoCd=4770104075-00&ServiceCd=170&Type=search", "url2": "http://www.omotokai.or.jp" }, "geometry": { "type": "Point", "coordinates": [ 127.6948658, 26.209237 ] } },
{ "type": "Feature", "properties": { "内容": "株式会社シルバーサービス沖縄　首里営業所【福祉用具貸与】沖縄県那覇市首里石嶺町4丁目4番地1オアシス伊差川1F", "url": "https://www.kaigokensaku.mhlw.go.jp/47/index.php?action_kouhyou_detail_004_kani=true&JigyosyoCd=4770104547-00&ServiceCd=170&Type=search", "url2": "https://www.ssokinawa.com/" }, "geometry": { "type": "Point", "coordinates": [ 127.7299435, 26.2279311 ] } },
{ "type": "Feature", "properties": { "内容": "沖縄綿久寝具株式会社ホームケア事業部【福祉用具貸与】沖縄県宜野湾市上原２丁目４番10号", "url": "https://www.kaigokensaku.mhlw.go.jp/47/index.php?action_kouhyou_detail_004_kani=true&JigyosyoCd=4770500082-00&ServiceCd=170&Type=search", "url2": null }, "geometry": { "type": "Point", "coordinates": [ 127.776937099999941, 26.2762587 ] } },
{ "type": "Feature", "properties": { "内容": "株式会社グッティ【福祉用具貸与】沖縄県宜野湾市真志喜1丁目１１番１２号コモンズビル１０４", "url": "https://www.kaigokensaku.mhlw.go.jp/47/index.php?action_kouhyou_detail_004_kani=true&JigyosyoCd=4770500884-00&ServiceCd=170&Type=search", "url2": null }, "geometry": { "type": "Point", "coordinates": [ 127.737518499999965, 26.2697532 ] } },
{ "type": "Feature", "properties": { "内容": "Walkers　Base（ウォーカーズ　ベース）【福祉用具貸与】沖縄県宜野湾市我如古四丁目９番２号カーサＧ1階", "url": "https://www.kaigokensaku.mhlw.go.jp/47/index.php?action_kouhyou_detail_004_kani=true&JigyosyoCd=4770501205-00&ServiceCd=170&Type=search", "url2": null }, "geometry": { "type": "Point", "coordinates": [ 127.7489928, 26.2565789 ] } },
{ "type": "Feature", "properties": { "内容": "株式会社フロンティアゆい宜野湾営業所【福祉用具貸与】宜野湾市上原２丁目４番１０号", "url": "https://www.kaigokensaku.mhlw.go.jp/47/index.php?action_kouhyou_detail_004_kani=true&JigyosyoCd=4770501171-00&ServiceCd=170&Type=search", "url2": null }, "geometry": { "type": "Point", "coordinates": [ 127.7769098, 26.2762368 ] } },
{ "type": "Feature", "properties": { "内容": "有限会社シルバー館【福祉用具貸与】沖縄県宜野湾市上原１丁目１７番９号", "url": "https://www.kaigokensaku.mhlw.go.jp/47/index.php?action_kouhyou_detail_004_kani=true&JigyosyoCd=4770500157-00&ServiceCd=170&Type=search", "url2": null }, "geometry": { "type": "Point", "coordinates": [ 127.776537500000018, 26.2773754 ] } },
{ "type": "Feature", "properties": { "内容": "ふれあい福祉用具レンタルサービス　宜野湾事業所【福祉用具貸与】字我如古４０２番地介護総合施設　ケアビレッジふれあい我如古　1F", "url": "https://www.kaigokensaku.mhlw.go.jp/47/index.php?action_kouhyou_detail_004_kani=true&JigyosyoCd=4770500702-00&ServiceCd=170&Type=search", "url2": "//fureai-kaigo.com" }, "geometry": { "type": "Point", "coordinates": [ 127.746515460713184, 26.260098365852009 ] } },
{ "type": "Feature", "properties": { "内容": "サトウ株式会社　宜野湾営業所【福祉用具貸与】沖縄県宜野湾市真志喜5丁目5番12番　１Fグランデ　１F", "url": "https://www.kaigokensaku.mhlw.go.jp/47/index.php?action_kouhyou_detail_004_kani=true&JigyosyoCd=4770500728-00&ServiceCd=170&Type=search", "url2": "http://www.satooka.com/" }, "geometry": { "type": "Point", "coordinates": [ 127.735823564387474, 26.270862611640403 ] } },
{ "type": "Feature", "properties": { "内容": "有限会社　八重山介護サービス【福祉用具貸与】沖縄県石垣市字大川527-1", "url": "https://www.kaigokensaku.mhlw.go.jp/47/index.php?action_kouhyou_detail_004_kani=true&JigyosyoCd=4770700088-00&ServiceCd=170&Type=search", "url2": "http://www." }, "geometry": { "type": "Point", "coordinates": [ 124.166563699999983, 24.3483039 ] } },
{ "type": "Feature", "properties": { "内容": "株式会社　ゆいケアサービス【福祉用具貸与】沖縄県石垣市字登野城74-4", "url": "https://www.kaigokensaku.mhlw.go.jp/47/index.php?action_kouhyou_detail_004_kani=true&JigyosyoCd=4770700021-00&ServiceCd=170&Type=search", "url2": "http://www." }, "geometry": { "type": "Point", "coordinates": [ 124.159491200000033, 24.3390466 ] } },
{ "type": "Feature", "properties": { "内容": "有限会社シルバープラザ石垣【福祉用具貸与】沖縄県石垣市字真栄里556番地1", "url": "https://www.kaigokensaku.mhlw.go.jp/47/index.php?action_kouhyou_detail_004_kani=true&JigyosyoCd=4770700047-00&ServiceCd=170&Type=search", "url2": "http://www." }, "geometry": { "type": "Point", "coordinates": [ 124.179995542206683, 24.339787189158127 ] } },
{ "type": "Feature", "properties": { "内容": "合同会社ワイドー　ふたば介護サービス【福祉用具貸与】沖縄県石垣市字新川2372-23", "url": "https://www.kaigokensaku.mhlw.go.jp/47/index.php?action_kouhyou_detail_004_kani=true&JigyosyoCd=4770700476-00&ServiceCd=170&Type=search", "url2": null }, "geometry": { "type": "Point", "coordinates": [ 124.144221563573964, 24.35175267305852 ] } },
{ "type": "Feature", "properties": { "内容": "株式会社　ケアコネクト【福祉用具貸与】沖縄県浦添市沢岻2-9-1　沢岻ハイツ101", "url": "https://www.kaigokensaku.mhlw.go.jp/47/index.php?action_kouhyou_detail_004_kani=true&JigyosyoCd=4770801092-00&ServiceCd=170&Type=search", "url2": null }, "geometry": { "type": "Point", "coordinates": [ 127.713166493115281, 26.234741104262081 ] } },
{ "type": "Feature", "properties": { "内容": "株式会社　スズキ自販沖縄【福祉用具貸与】沖縄県浦添市港川２５２－７", "url": "https://www.kaigokensaku.mhlw.go.jp/47/index.php?action_kouhyou_detail_004_kani=true&JigyosyoCd=4770801670-00&ServiceCd=170&Type=search", "url2": "http://www.sj-okinawa.jp" }, "geometry": { "type": "Point", "coordinates": [ 127.714456799999965, 26.265360100000017 ] } },
{ "type": "Feature", "properties": { "内容": "かいごのまどぐち【福祉用具貸与】西原1丁目12番17号平田アパート101", "url": "https://www.kaigokensaku.mhlw.go.jp/47/index.php?action_kouhyou_detail_004_kani=true&JigyosyoCd=4770801761-00&ServiceCd=170&Type=search", "url2": "https://www.ringo-chozai.jp/" }, "geometry": { "type": "Point", "coordinates": [ 127.740137694910686, 26.255293647216348 ] } },
{ "type": "Feature", "properties": { "内容": "福祉用具サービスひとえ【福祉用具貸与】沖縄県浦添市字港川２５４番地ハッピータウン内", "url": "https://www.kaigokensaku.mhlw.go.jp/47/index.php?action_kouhyou_detail_004_kani=true&JigyosyoCd=4770801100-00&ServiceCd=170&Type=search", "url2": "http://r.goope.jp/hitoe" }, "geometry": { "type": "Point", "coordinates": [ 127.713646619512915, 26.265030463350008 ] } },
{ "type": "Feature", "properties": { "内容": "福祉用具ケアセンター浦西【福祉用具貸与】沖縄県浦添市当山2-10-10", "url": "https://www.kaigokensaku.mhlw.go.jp/47/index.php?action_kouhyou_detail_004_kani=true&JigyosyoCd=4770101022-00&ServiceCd=170&Type=search", "url2": null }, "geometry": { "type": "Point", "coordinates": [ 127.7378033, 26.2489041 ] } },
{ "type": "Feature", "properties": { "内容": "ティーダライフ【福祉用具貸与】大平１丁目６番１１号", "url": "https://www.kaigokensaku.mhlw.go.jp/47/index.php?action_kouhyou_detail_004_kani=true&JigyosyoCd=4770801035-00&ServiceCd=170&Type=search", "url2": "https://www.teada-life.com/" }, "geometry": { "type": "Point", "coordinates": [ 127.713612900000044, 26.2505045 ] } },
{ "type": "Feature", "properties": { "内容": "株式会社シグマ沖縄【福祉用具貸与】沖縄県浦添市港川1丁目11番13号202", "url": "https://www.kaigokensaku.mhlw.go.jp/47/index.php?action_kouhyou_detail_004_kani=true&JigyosyoCd=4770801050-00&ServiceCd=170&Type=search", "url2": "https://www.sigma-okinawa.com/" }, "geometry": { "type": "Point", "coordinates": [ 127.718270858153119, 26.260353766150292 ] } },
{ "type": "Feature", "properties": { "内容": "福祉用具　桃源の郷【福祉用具貸与】名護市大西３丁目１９番２５号", "url": "https://www.kaigokensaku.mhlw.go.jp/47/index.php?action_kouhyou_detail_004_kani=true&JigyosyoCd=4770900621-00&ServiceCd=170&Type=search", "url2": null }, "geometry": { "type": "Point", "coordinates": [ 127.983082400000058, 26.5976017 ] } },
{ "type": "Feature", "properties": { "内容": "有限会社沖縄介護サービス名護支店【福祉用具貸与】沖縄県名護市字為又７８６－１ビレッジプラザ玉商102号", "url": "https://www.kaigokensaku.mhlw.go.jp/47/index.php?action_kouhyou_detail_004_kani=true&JigyosyoCd=4770900852-00&ServiceCd=170&Type=search", "url2": null }, "geometry": { "type": "Point", "coordinates": [ 127.978382300000021, 26.6092423 ] } },
{ "type": "Feature", "properties": { "内容": "有限会社いやしの郷【福祉用具貸与】沖縄県名護市大中4丁目4番27号", "url": "https://www.kaigokensaku.mhlw.go.jp/47/index.php?action_kouhyou_detail_004_kani=true&JigyosyoCd=4770900134-00&ServiceCd=170&Type=search", "url2": "iyasi@circus.ocn.ne.jp" }, "geometry": { "type": "Point", "coordinates": [ 127.99077920000002, 26.5959021 ] } },
{ "type": "Feature", "properties": { "内容": "福祉用具レンタル・販売事業所　なぐ交じり【福祉用具貸与】沖縄県名護市字為又８５６－１１番地", "url": "https://www.kaigokensaku.mhlw.go.jp/47/index.php?action_kouhyou_detail_004_kani=true&JigyosyoCd=4770900613-00&ServiceCd=170&Type=search", "url2": null }, "geometry": { "type": "Point", "coordinates": [ 127.979635, 26.607836900000024 ] } },
{ "type": "Feature", "properties": { "内容": "介護ショップふくしま【福祉用具貸与】沖縄県名護市仲尾次５５６", "url": "https://www.kaigokensaku.mhlw.go.jp/47/index.php?action_kouhyou_detail_004_kani=true&JigyosyoCd=4770900340-00&ServiceCd=170&Type=search", "url2": "http://www." }, "geometry": { "type": "Point", "coordinates": [ 128.024991900000032, 26.623946 ] } },
{ "type": "Feature", "properties": { "内容": "福祉用具販売貸与事業所ちゅらいふ【福祉用具貸与】沖縄県名護市宮里450番地2丸平ビル1階", "url": "https://www.kaigokensaku.mhlw.go.jp/47/index.php?action_kouhyou_detail_004_kani=true&JigyosyoCd=4770900498-00&ServiceCd=170&Type=search", "url2": "http://chulife.jp/" }, "geometry": { "type": "Point", "coordinates": [ 127.964897399999927, 26.5946542 ] } },
{ "type": "Feature", "properties": { "内容": "サトウ株式会社名護営業所【福祉用具貸与】大中4-1-30", "url": "https://www.kaigokensaku.mhlw.go.jp/47/index.php?action_kouhyou_detail_004_kani=true&JigyosyoCd=4770900795-00&ServiceCd=170&Type=search", "url2": null }, "geometry": { "type": "Point", "coordinates": [ 127.99183804808176, 26.597244488481969 ] } },
{ "type": "Feature", "properties": { "内容": "介護ショップ　助さん・たくさん【福祉用具貸与】沖縄県沖縄市与儀3丁目20番地1号リビングデザインスクエアー泡瀬2F", "url": "https://www.kaigokensaku.mhlw.go.jp/47/index.php?action_kouhyou_detail_004_kani=true&JigyosyoCd=4770401075-00&ServiceCd=170&Type=search", "url2": "http://thegrace.jp/suketaku/" }, "geometry": { "type": "Point", "coordinates": [ 127.814032716918959, 26.307334990291281 ] } },
{ "type": "Feature", "properties": { "内容": "キングラン沖縄株式会社【福祉用具貸与】沖縄県沖縄市胡屋七丁目5番6号", "url": "https://www.kaigokensaku.mhlw.go.jp/47/index.php?action_kouhyou_detail_004_kani=true&JigyosyoCd=4770400069-00&ServiceCd=170&Type=search", "url2": "http://www.smilekingrun.co.jp" }, "geometry": { "type": "Point", "coordinates": [ 127.809308200000046, 26.3233583 ] } },
{ "type": "Feature", "properties": { "内容": "有限会社　沖縄介護サービス【福祉用具貸与】沖縄県沖縄市泡瀬３丁目２１番１０号", "url": "https://www.kaigokensaku.mhlw.go.jp/47/index.php?action_kouhyou_detail_004_kani=true&JigyosyoCd=4770400093-00&ServiceCd=170&Type=search", "url2": null }, "geometry": { "type": "Point", "coordinates": [ 127.831970299999966, 26.3167094 ] } },
{ "type": "Feature", "properties": { "内容": "有限会社　沖縄義肢製作所【福祉用具貸与】沖縄県沖縄市知花６丁目8-40", "url": "https://www.kaigokensaku.mhlw.go.jp/47/index.php?action_kouhyou_detail_004_kani=true&JigyosyoCd=4770400135-00&ServiceCd=170&Type=search", "url2": "http://www." }, "geometry": { "type": "Point", "coordinates": [ 127.821181, 26.3603386 ] } },
{ "type": "Feature", "properties": { "内容": "有限会社　ハート義肢【福祉用具貸与】沖縄県沖縄市安慶田4丁目17番11号", "url": "https://www.kaigokensaku.mhlw.go.jp/47/index.php?action_kouhyou_detail_004_kani=true&JigyosyoCd=4770400077-00&ServiceCd=170&Type=search", "url2": "https://heart-gishi.com" }, "geometry": { "type": "Point", "coordinates": [ 127.813754900000035, 26.3284496 ] } },
{ "type": "Feature", "properties": { "内容": "ゆがふ在宅介護事業所【福祉用具貸与】沖縄県沖縄市園田2-19-6", "url": "https://www.kaigokensaku.mhlw.go.jp/47/index.php?action_kouhyou_detail_004_kani=true&JigyosyoCd=4770400127-00&ServiceCd=170&Type=search", "url2": "http://www." }, "geometry": { "type": "Point", "coordinates": [ 127.801850400000035, 26.3271049 ] } },
{ "type": "Feature", "properties": { "内容": "(有)湧川義肢製作所【福祉用具貸与】沖縄県沖縄市大里3-21-18", "url": "https://www.kaigokensaku.mhlw.go.jp/47/index.php?action_kouhyou_detail_004_kani=true&JigyosyoCd=4770400143-00&ServiceCd=170&Type=search", "url2": "http://www." }, "geometry": { "type": "Point", "coordinates": [ 127.827027599999965, 26.3256106 ] } },
{ "type": "Feature", "properties": { "内容": "ダスキンヘルスレント泡瀬ステーション【福祉用具貸与】沖縄市泡瀬3-7-1ムーンライズハイツ1Ｆ", "url": "https://www.kaigokensaku.mhlw.go.jp/47/index.php?action_kouhyou_detail_004_kani=true&JigyosyoCd=4770401646-00&ServiceCd=170&Type=search", "url2": "http://healthrent.duskin.jp/station/okinawa.html?link=01" }, "geometry": { "type": "Point", "coordinates": [ 127.8300656, 26.315002 ] } },
{ "type": "Feature", "properties": { "内容": "クオリティーライフクトゥブチ【福祉用具貸与】沖縄県沖縄市与儀1丁目6番2号", "url": "https://www.kaigokensaku.mhlw.go.jp/47/index.php?action_kouhyou_detail_004_kani=true&JigyosyoCd=4770402701-00&ServiceCd=170&Type=search", "url2": "kutubuchi.net" }, "geometry": { "type": "Point", "coordinates": [ 127.8152138, 26.3124102 ] } },
{ "type": "Feature", "properties": { "内容": "すこやかホ－ムケアサ－ビス【福祉用具貸与】沖縄県沖縄市知花6-8-14", "url": "https://www.kaigokensaku.mhlw.go.jp/47/index.php?action_kouhyou_detail_004_kani=true&JigyosyoCd=4770402826-00&ServiceCd=170&Type=search", "url2": null }, "geometry": { "type": "Point", "coordinates": [ 127.820878287696857, 26.360394194877621 ] } },
{ "type": "Feature", "properties": { "内容": "サトウ株式会社　沖縄営業所【福祉用具貸与】沖縄県沖縄市古謝3丁目17番12号エスポワール海邦Ⅱ103・105号室", "url": "https://www.kaigokensaku.mhlw.go.jp/47/index.php?action_kouhyou_detail_004_kani=true&JigyosyoCd=4770402644-00&ServiceCd=170&Type=search", "url2": "https://satooka.co.jp/" }, "geometry": { "type": "Point", "coordinates": [ 127.836990099999966, 26.335376100000023 ] } },
{ "type": "Feature", "properties": { "内容": "有限会社　愛介護センター【福祉用具貸与】沖縄県沖縄市池原2丁目14番14号", "url": "https://www.kaigokensaku.mhlw.go.jp/47/index.php?action_kouhyou_detail_004_kani=true&JigyosyoCd=4772400059-00&ServiceCd=170&Type=search", "url2": "http://www.aikaigo.okinawa/" }, "geometry": { "type": "Point", "coordinates": [ 127.827363200000036, 26.3814282 ] } },
{ "type": "Feature", "properties": { "内容": "株式会社　琉球光和【福祉用具貸与】沖縄県豊見城市豊崎3-27豊崎物流センター2階", "url": "https://www.kaigokensaku.mhlw.go.jp/47/index.php?action_kouhyou_detail_004_kani=true&JigyosyoCd=4775407440-00&ServiceCd=170&Type=search", "url2": "https://rkowa.com/product" }, "geometry": { "type": "Point", "coordinates": [ 127.6565812, 26.1528029 ] } },
{ "type": "Feature", "properties": { "内容": "エールサポート介【福祉用具貸与】豊見城市字翁長87番地", "url": "https://www.kaigokensaku.mhlw.go.jp/47/index.php?action_kouhyou_detail_004_kani=true&JigyosyoCd=4775407598-00&ServiceCd=170&Type=search", "url2": null }, "geometry": { "type": "Point", "coordinates": [ 127.675808564418034, 26.159816309023473 ] } },
{ "type": "Feature", "properties": { "内容": "有限会社　トータル介護沖縄【福祉用具貸与】沖縄県豊見城市高安８８２番地１２", "url": "https://www.kaigokensaku.mhlw.go.jp/47/index.php?action_kouhyou_detail_004_kani=true&JigyosyoCd=4772800027-00&ServiceCd=170&Type=search", "url2": "http://totalkaigo.jimdo.com/" }, "geometry": { "type": "Point", "coordinates": [ 127.689562979150637, 26.181881393260685 ] } },
{ "type": "Feature", "properties": { "内容": "福祉用具貸与サービスステーションすみれ【福祉用具貸与】沖縄県豊見城市字渡嘉敷１５０番地おもととよみの杜　２階　福祉用具展示室", "url": "https://www.kaigokensaku.mhlw.go.jp/47/index.php?action_kouhyou_detail_004_kani=true&JigyosyoCd=4772800035-00&ServiceCd=170&Type=search", "url2": "http://www.omotokai.or.jp" }, "geometry": { "type": "Point", "coordinates": [ 127.683421, 26.1727698 ] } },
{ "type": "Feature", "properties": { "内容": "株式会社シルバーサービス沖縄【福祉用具貸与】沖縄県豊見城市字翁長869番地", "url": "https://www.kaigokensaku.mhlw.go.jp/47/index.php?action_kouhyou_detail_004_kani=true&JigyosyoCd=4775400213-00&ServiceCd=170&Type=search", "url2": "https://www.ssokinawa.com" }, "geometry": { "type": "Point", "coordinates": [ 127.666843, 26.161186099999981 ] } },
{ "type": "Feature", "properties": { "内容": "株式会社　島開発【福祉用具貸与】沖縄県うるま市平良川91番地１", "url": "https://www.kaigokensaku.mhlw.go.jp/47/index.php?action_kouhyou_detail_004_kani=true&JigyosyoCd=4770300913-00&ServiceCd=170&Type=search", "url2": null }, "geometry": { "type": "Point", "coordinates": [ 127.849586700000046, 26.3643329 ] } },
{ "type": "Feature", "properties": { "内容": "アペックスプラン沖縄　中部営業所【福祉用具貸与】沖縄県うるま市字江洲598番8", "url": "https://www.kaigokensaku.mhlw.go.jp/47/index.php?action_kouhyou_detail_004_kani=true&JigyosyoCd=4770300947-00&ServiceCd=170&Type=search", "url2": "http://apexplan-okinawa.co.jp" }, "geometry": { "type": "Point", "coordinates": [ 127.833396800000017, 26.348082699999967 ] } },
{ "type": "Feature", "properties": { "内容": "株式会社　勇吉【福祉用具貸与】沖縄県うるま市勝連平安名1587-1", "url": "https://www.kaigokensaku.mhlw.go.jp/47/index.php?action_kouhyou_detail_004_kani=true&JigyosyoCd=4770301408-00&ServiceCd=170&Type=search", "url2": null }, "geometry": { "type": "Point", "coordinates": [ 127.8920299, 26.323227 ] } },
{ "type": "Feature", "properties": { "内容": "合同会社RECOVERY【福祉用具貸与】沖縄県うるま市田場1872番地5エステートReiMKⅢ１階右側", "url": "https://www.kaigokensaku.mhlw.go.jp/47/index.php?action_kouhyou_detail_004_kani=true&JigyosyoCd=4770301812-00&ServiceCd=170&Type=search", "url2": "https://recovery.okinawa/" }, "geometry": { "type": "Point", "coordinates": [ 127.860402986508205, 26.372916936599047 ] } },
{ "type": "Feature", "properties": { "内容": "サトウ株式会社　うるま営業所【福祉用具貸与】沖縄県うるま市安慶名1-4-4", "url": "https://www.kaigokensaku.mhlw.go.jp/47/index.php?action_kouhyou_detail_004_kani=true&JigyosyoCd=4770301168-00&ServiceCd=170&Type=search", "url2": "http://www.satooka.com" }, "geometry": { "type": "Point", "coordinates": [ 127.851097499999923, 26.3745068 ] } },
{ "type": "Feature", "properties": { "内容": "株式会社シルバーサービス沖縄　中部営業所【福祉用具貸与】沖縄県うるま市安慶名2丁目1番44号", "url": "https://www.kaigokensaku.mhlw.go.jp/47/index.php?action_kouhyou_detail_004_kani=true&JigyosyoCd=4770301192-00&ServiceCd=170&Type=search", "url2": null }, "geometry": { "type": "Point", "coordinates": [ 127.853546629394003, 26.37579474432513 ] } },
{ "type": "Feature", "properties": { "内容": "福祉用具専門店　心【福祉用具貸与】沖縄県宮古島市平良字西里２４１番地", "url": "https://www.kaigokensaku.mhlw.go.jp/47/index.php?action_kouhyou_detail_004_kani=true&JigyosyoCd=4775500228-00&ServiceCd=170&Type=search", "url2": null }, "geometry": { "type": "Point", "coordinates": [ 125.280626499999926, 24.8047429 ] } },
{ "type": "Feature", "properties": { "内容": "福祉用具ステーション　ラシクル【福祉用具貸与】沖縄県宮古島市平良字東仲宗根894-3", "url": "https://www.kaigokensaku.mhlw.go.jp/47/index.php?action_kouhyou_detail_004_kani=true&JigyosyoCd=4770600023-00&ServiceCd=170&Type=search", "url2": "https://smile-miyako.com" }, "geometry": { "type": "Point", "coordinates": [ 125.2966027, 24.8012687 ] } },
{ "type": "Feature", "properties": { "内容": "有限会社　まるたか【福祉用具貸与】沖縄県宮古島市平良字西里794番地４", "url": "https://www.kaigokensaku.mhlw.go.jp/47/index.php?action_kouhyou_detail_004_kani=true&JigyosyoCd=4770600064-00&ServiceCd=170&Type=search", "url2": "http://www." }, "geometry": { "type": "Point", "coordinates": [ 125.290503400000034, 24.8009491 ] } },
{ "type": "Feature", "properties": { "内容": "なかよし介護福祉用具販売貸与事業所【福祉用具貸与】沖縄県宮古島市伊良部字長浜248番地", "url": "https://www.kaigokensaku.mhlw.go.jp/47/index.php?action_kouhyou_detail_004_kani=true&JigyosyoCd=4775000062-00&ServiceCd=170&Type=search", "url2": "http://www." }, "geometry": { "type": "Point", "coordinates": [ 125.1659747, 24.8395669 ] } },
{ "type": "Feature", "properties": { "内容": "介護ショップ　琉心【福祉用具貸与】沖縄県宮古島市平良字下里1012番地1", "url": "https://www.kaigokensaku.mhlw.go.jp/47/index.php?action_kouhyou_detail_004_kani=true&JigyosyoCd=4775500194-00&ServiceCd=170&Type=search", "url2": null }, "geometry": { "type": "Point", "coordinates": [ 125.280120899999915, 24.792769 ] } },
{ "type": "Feature", "properties": { "内容": "下地診療所合同会社　リハビリ用品専門店　リハショップ宮古【福祉用具貸与】沖縄県宮古島市下地字上地325", "url": "https://www.kaigokensaku.mhlw.go.jp/47/index.php?action_kouhyou_detail_004_kani=true&JigyosyoCd=4775500566-00&ServiceCd=170&Type=search", "url2": null }, "geometry": { "type": "Point", "coordinates": [ 125.27429997567836, 24.746359638674839 ] } },
{ "type": "Feature", "properties": { "内容": "ライフ・アシスト【福祉用具貸与】沖縄県宮古島市平良字東仲宗根776番地9", "url": "https://www.kaigokensaku.mhlw.go.jp/47/index.php?action_kouhyou_detail_004_kani=true&JigyosyoCd=4775500715-00&ServiceCd=170&Type=search", "url2": null }, "geometry": { "type": "Point", "coordinates": [ 125.2925367, 24.8036978 ] } },
{ "type": "Feature", "properties": { "内容": "福祉用具店　こころ【福祉用具貸与】沖縄県宮古島市平良字東仲宗根825番地7", "url": "https://www.kaigokensaku.mhlw.go.jp/47/index.php?action_kouhyou_detail_004_kani=true&JigyosyoCd=4775500822-00&ServiceCd=170&Type=search", "url2": null }, "geometry": { "type": "Point", "coordinates": [ 125.289407666270421, 24.803518865151329 ] } },
{ "type": "Feature", "properties": { "内容": "株式会社がんじゅうサポート南城【福祉用具貸与】沖縄県南城市玉城字親慶原２０番地１３", "url": "https://www.kaigokensaku.mhlw.go.jp/47/index.php?action_kouhyou_detail_004_kani=true&JigyosyoCd=4775600192-00&ServiceCd=170&Type=search", "url2": null }, "geometry": { "type": "Point", "coordinates": [ 127.78303430000004, 26.1557986 ] } },
{ "type": "Feature", "properties": { "内容": "金武の杖【福祉用具貸与】沖縄県国頭郡金武町金武10805番地", "url": "https://www.kaigokensaku.mhlw.go.jp/47/index.php?action_kouhyou_detail_004_kani=true&JigyosyoCd=4771800226-00&ServiceCd=170&Type=search", "url2": "https://dream-kin.net/contact/" }, "geometry": { "type": "Point", "coordinates": [ 127.9171205, 26.4541773 ] } },
{ "type": "Feature", "properties": { "内容": "ケアサービスよみたん【福祉用具貸与】沖縄県中頭郡読谷村字古堅61番地4", "url": "https://www.kaigokensaku.mhlw.go.jp/47/index.php?action_kouhyou_detail_004_kani=true&JigyosyoCd=4772200178-00&ServiceCd=170&Type=search", "url2": "yomitan@key.ocn.ne.jp" }, "geometry": { "type": "Point", "coordinates": [ 127.751968531352304, 26.368730329764521 ] } },
{ "type": "Feature", "properties": { "内容": "有限会社　介護ショップテルヤ【福祉用具貸与】沖縄県中頭郡北谷町字砂辺357番地有限会社　介護ショップテルヤ", "url": "https://www.kaigokensaku.mhlw.go.jp/47/index.php?action_kouhyou_detail_004_kani=true&JigyosyoCd=4772400158-00&ServiceCd=170&Type=search", "url2": null }, "geometry": { "type": "Point", "coordinates": [ 127.7513163816147, 26.332350457644488 ] } },
{ "type": "Feature", "properties": { "内容": "介護支援センター中部【福祉用具貸与】北中城村仲順375-1", "url": "https://www.kaigokensaku.mhlw.go.jp/47/index.php?action_kouhyou_detail_004_kani=true&JigyosyoCd=4772500197-00&ServiceCd=170&Type=search", "url2": null }, "geometry": { "type": "Point", "coordinates": [ 127.801012300000025, 26.302248300000024 ] } },
{ "type": "Feature", "properties": { "内容": "中城モール　福祉用具レンタル・販売【福祉用具貸与】沖縄県中頭郡中城村字久場1963番地中城モール　3階", "url": "https://www.kaigokensaku.mhlw.go.jp/47/index.php?action_kouhyou_detail_004_kani=true&JigyosyoCd=4772600260-00&ServiceCd=170&Type=search", "url2": null }, "geometry": { "type": "Point", "coordinates": [ 127.816580899999963, 26.2846425 ] } },
{ "type": "Feature", "properties": { "内容": "アペックスプラン沖縄　福祉用具事業部【福祉用具貸与】沖縄県中頭郡中城村字南上原１９９番地の１ぐすく南１階", "url": "https://www.kaigokensaku.mhlw.go.jp/47/index.php?action_kouhyou_detail_004_kani=true&JigyosyoCd=4772600120-00&ServiceCd=170&Type=search", "url2": "http://apexplan-okinawa.co.jp" }, "geometry": { "type": "Point", "coordinates": [ 127.774602800000025, 26.2544002 ] } },
{ "type": "Feature", "properties": { "内容": "有限会社　中頭人材センター【福祉用具貸与】沖縄県中頭郡中城村字伊集１２１番地", "url": "https://www.kaigokensaku.mhlw.go.jp/47/index.php?action_kouhyou_detail_004_kani=true&JigyosyoCd=4772600021-00&ServiceCd=170&Type=search", "url2": "http://www." }, "geometry": { "type": "Point", "coordinates": [ 127.776930900000025, 26.2381709 ] } },
{ "type": "Feature", "properties": { "内容": "株式会社ソーシャルサポート【福祉用具貸与】沖縄県中頭郡中城村字伊舎堂224番地", "url": "https://www.kaigokensaku.mhlw.go.jp/47/index.php?action_kouhyou_detail_004_kani=true&JigyosyoCd=4772600294-00&ServiceCd=170&Type=search", "url2": "http://www.social-support.okinawa/" }, "geometry": { "type": "Point", "coordinates": [ 127.802501899999925, 26.2752291 ] } },
{ "type": "Feature", "properties": { "内容": "サトウ株式会社　西原営業所【福祉用具貸与】沖縄県中頭郡西原町棚原1-20-14マイライフ101", "url": "https://www.kaigokensaku.mhlw.go.jp/47/index.php?action_kouhyou_detail_004_kani=true&JigyosyoCd=4772700342-00&ServiceCd=170&Type=search", "url2": "https：//satooka.co.jp" }, "geometry": { "type": "Point", "coordinates": [ 127.7542615, 26.241926 ] } },
{ "type": "Feature", "properties": { "内容": "福祉用具サービスひとえ【福祉用具貸与】沖縄県西原町翁長287番地2階", "url": "https://www.kaigokensaku.mhlw.go.jp/47/index.php?action_kouhyou_detail_004_kani=true&JigyosyoCd=4772700417-00&ServiceCd=170&Type=search", "url2": "https://www.hitoe-hukushi.com/" }, "geometry": { "type": "Point", "coordinates": [ 127.7503364, 26.2289312 ] } },
{ "type": "Feature", "properties": { "内容": "福祉用具ステーションゆいゆい【福祉用具貸与】沖縄県島尻郡南風原町照屋20-5野原店舗102号", "url": "https://www.kaigokensaku.mhlw.go.jp/47/index.php?action_kouhyou_detail_004_kani=true&JigyosyoCd=4761390386-00&ServiceCd=170&Type=search", "url2": null }, "geometry": { "type": "Point", "coordinates": [ 127.7283635, 26.1896094 ] } },
{ "type": "Feature", "properties": { "内容": "アペックスプラン沖縄　南部営業所【福祉用具貸与】沖縄県島尻郡南風原町字津嘉山1765番地セレクション津嘉山201号室", "url": "https://www.kaigokensaku.mhlw.go.jp/47/index.php?action_kouhyou_detail_004_kani=true&JigyosyoCd=4773600384-00&ServiceCd=170&Type=search", "url2": "http://apexplan-okinawa.co.jp" }, "geometry": { "type": "Point", "coordinates": [ 127.716930899999966, 26.1814005 ] } },
{ "type": "Feature", "properties": { "内容": "へルス＆ケアジャパン株式会社【福祉用具貸与】沖縄県島尻郡南風原町新川501番地", "url": "https://www.kaigokensaku.mhlw.go.jp/47/index.php?action_kouhyou_detail_004_kani=true&JigyosyoCd=4773600418-00&ServiceCd=170&Type=search", "url2": "https://health-care-japan.com/" }, "geometry": { "type": "Point", "coordinates": [ 127.727144739066262, 26.214178533199053 ] } },
{ "type": "Feature", "properties": { "内容": "株式会社　護工業　福祉サービス【福祉用具貸与】沖縄県島尻郡南風原町字津嘉山643-3コーポマモル１F", "url": "https://www.kaigokensaku.mhlw.go.jp/47/index.php?action_kouhyou_detail_004_kani=true&JigyosyoCd=4773600624-00&ServiceCd=170&Type=search", "url2": null }, "geometry": { "type": "Point", "coordinates": [ 127.71437, 26.1860109 ] } },
{ "type": "Feature", "properties": { "内容": "福祉用具のねは【福祉用具貸与】字仲泊1223の1番地", "url": "https://www.kaigokensaku.mhlw.go.jp/47/index.php?action_kouhyou_detail_004_kani=true&JigyosyoCd=4775800032-00&ServiceCd=170&Type=search", "url2": null }, "geometry": { "type": "Point", "coordinates": [ 126.74953979999998, 26.3452309 ] } },
{ "type": "Feature", "properties": { "内容": "有限会社沖縄介護サービス久米島営業所【福祉用具貸与】沖縄県久米島町宇根1744-4", "url": "https://www.kaigokensaku.mhlw.go.jp/47/index.php?action_kouhyou_detail_004_kani=true&JigyosyoCd=4775800065-00&ServiceCd=170&Type=search", "url2": null }, "geometry": { "type": "Point", "coordinates": [ 126.81222774466228, 26.341138884067291 ] } },
{ "type": "Feature", "properties": { "内容": "サトウ株式会社　八重瀬営業所【福祉用具貸与】沖縄県島尻郡八重瀬町東風平７９６番地1島添アパート１階", "url": "https://www.kaigokensaku.mhlw.go.jp/47/index.php?action_kouhyou_detail_004_kani=true&JigyosyoCd=4775700117-00&ServiceCd=170&Type=search", "url2": null }, "geometry": { "type": "Point", "coordinates": [ 127.7239981, 26.1491366 ] } }
]
}
