{
"type": "FeatureCollection",
"name": "geo_47_地域密着型介護老人福祉施設入所者生活介護",
"crs": { "type": "name", "properties": { "name": "urn:ogc:def:crs:OGC:1.3:CRS84" } },
"features": [
{ "type": "Feature", "properties": { "内容": "地域密着型特別養護老人ホーム　小禄偕生園【地域密着型介護老人福祉施設入所者生活介護】沖縄県那覇市宮城1丁目18番地1号　５Ｆエスタジオ小禄　５Ｆ", "url": "https://www.kaigokensaku.mhlw.go.jp/47/index.php?action_kouhyou_detail_004_kani=true&JigyosyoCd=4790100566-00&ServiceCd=540&Type=search", "url2": "http://www.kaiseikai.org/" }, "geometry": { "type": "Point", "coordinates": [ 127.658087, 26.1877196 ] } },
{ "type": "Feature", "properties": { "内容": "特別養護老人ホーム皇【地域密着型介護老人福祉施設入所者生活介護】沖縄県那覇市長田1丁目18番10号福祉複合共生施設なんくる", "url": "https://www.kaigokensaku.mhlw.go.jp/47/index.php?action_kouhyou_detail_004_kani=true&JigyosyoCd=4790100681-00&ServiceCd=540&Type=search", "url2": "https://nankurugroup.com" }, "geometry": { "type": "Point", "coordinates": [ 127.7011917, 26.2029518 ] } },
{ "type": "Feature", "properties": { "内容": "特別養護老人ホーム和（なごみ）【地域密着型介護老人福祉施設入所者生活介護】繁多川5-20-12", "url": "https://www.kaigokensaku.mhlw.go.jp/47/index.php?action_kouhyou_detail_004_kani=true&JigyosyoCd=4790100541-00&ServiceCd=540&Type=search", "url2": "https://nankurugroup.com/" }, "geometry": { "type": "Point", "coordinates": [ 127.7113157, 26.2090277 ] } },
{ "type": "Feature", "properties": { "内容": "特別養護老人ホーム　わらてぃーだ【地域密着型介護老人福祉施設入所者生活介護】沖縄県那覇市国場329-1", "url": "https://www.kaigokensaku.mhlw.go.jp/47/index.php?action_kouhyou_detail_004_kani=true&JigyosyoCd=4790100707-00&ServiceCd=540&Type=search", "url2": "www.okiniji.or.jp" }, "geometry": { "type": "Point", "coordinates": [ 127.6985129, 26.1980955 ] } },
{ "type": "Feature", "properties": { "内容": "特別養護老人ホーム　前島【地域密着型介護老人福祉施設入所者生活介護】沖縄県那覇市前島２丁目１８番１７号", "url": "https://www.kaigokensaku.mhlw.go.jp/47/index.php?action_kouhyou_detail_004_kani=true&JigyosyoCd=4790100558-00&ServiceCd=540&Type=search", "url2": "https://www.youfukai.jp/" }, "geometry": { "type": "Point", "coordinates": [ 127.685555502516181, 26.222682797320928 ] } },
{ "type": "Feature", "properties": { "内容": "地域密着型複合百穂苑【地域密着型介護老人福祉施設入所者生活介護】沖縄県那覇市安里51番地", "url": "https://www.kaigokensaku.mhlw.go.jp/47/index.php?action_kouhyou_detail_004_kani=true&JigyosyoCd=4790100574-00&ServiceCd=540&Type=search", "url2": "https://saisei-kai.or.jp/" }, "geometry": { "type": "Point", "coordinates": [ 127.694073399999979, 26.2203505 ] } },
{ "type": "Feature", "properties": { "内容": "地域密着型特別養護老人ホーム　グリーンハウス国場【地域密着型介護老人福祉施設入所者生活介護】沖縄県那覇市国場326番地", "url": "https://www.kaigokensaku.mhlw.go.jp/47/index.php?action_kouhyou_detail_004_kani=true&JigyosyoCd=4790100517-00&ServiceCd=540&Type=search", "url2": "http://www.otowakai.com/" }, "geometry": { "type": "Point", "coordinates": [ 127.698453400000062, 26.2034279 ] } },
{ "type": "Feature", "properties": { "内容": "特別養護老人ホーム久辺の里【地域密着型介護老人福祉施設入所者生活介護】名護市字豊原２１６番地", "url": "https://www.kaigokensaku.mhlw.go.jp/47/index.php?action_kouhyou_detail_004_kani=true&JigyosyoCd=4790900163-00&ServiceCd=540&Type=search", "url2": "https://kubenosato.org/" }, "geometry": { "type": "Point", "coordinates": [ 128.022455976721176, 26.521599710588728 ] } },
{ "type": "Feature", "properties": { "内容": "指定地域密着型介護老人福祉施設　瑞穂の郷【地域密着型介護老人福祉施設入所者生活介護】沖縄県名護市字親川571番地", "url": "https://www.kaigokensaku.mhlw.go.jp/47/index.php?action_kouhyou_detail_004_kani=true&JigyosyoCd=4790900031-00&ServiceCd=540&Type=search", "url2": "http://www.suijukai.com" }, "geometry": { "type": "Point", "coordinates": [ 128.015109700000039, 26.6165018 ] } },
{ "type": "Feature", "properties": { "内容": "地域密着型特別養護老人ホームかかずの杜【地域密着型介護老人福祉施設入所者生活介護】賀数312番地の1", "url": "https://www.kaigokensaku.mhlw.go.jp/47/index.php?action_kouhyou_detail_004_kani=true&JigyosyoCd=4791000112-00&ServiceCd=540&Type=search", "url2": null }, "geometry": { "type": "Point", "coordinates": [ 127.6962302, 26.1513002 ] } },
{ "type": "Feature", "properties": { "内容": "地域密着型介護老人福祉施設　琉和の森【地域密着型介護老人福祉施設入所者生活介護】美里6丁目25番38号", "url": "https://www.kaigokensaku.mhlw.go.jp/47/index.php?action_kouhyou_detail_004_kani=true&JigyosyoCd=4790400057-00&ServiceCd=540&Type=search", "url2": "http://www.ans.co.jp/sankyo/matsumoto/tokuyou/index.html" }, "geometry": { "type": "Point", "coordinates": [ 127.808251899999959, 26.3513585 ] } },
{ "type": "Feature", "properties": { "内容": "特別養護老人ホーム　森城【地域密着型介護老人福祉施設入所者生活介護】諸見里３丁目４１番３０号", "url": "https://www.kaigokensaku.mhlw.go.jp/47/index.php?action_kouhyou_detail_004_kani=true&JigyosyoCd=4790400065-00&ServiceCd=540&Type=search", "url2": null }, "geometry": { "type": "Point", "coordinates": [ 127.791198600000044, 26.3286239 ] } },
{ "type": "Feature", "properties": { "内容": "地域密着型特別養護老人ホーム　グリーンハウス長堂【地域密着型介護老人福祉施設入所者生活介護】沖縄県豊見城市字長堂376番地", "url": "https://www.kaigokensaku.mhlw.go.jp/47/index.php?action_kouhyou_detail_004_kani=true&JigyosyoCd=4795400102-00&ServiceCd=540&Type=search", "url2": null }, "geometry": { "type": "Point", "coordinates": [ 127.706957416532902, 26.185874821668992 ] } },
{ "type": "Feature", "properties": { "内容": "しらゆりの園地域密着型特別養護老人ホームおおざと【地域密着型介護老人福祉施設入所者生活介護】沖縄県南城市大里字古堅820番地1", "url": "https://www.kaigokensaku.mhlw.go.jp/47/index.php?action_kouhyou_detail_004_kani=true&JigyosyoCd=4795600032-00&ServiceCd=540&Type=search", "url2": "http://www.sirayuri.or.jp" }, "geometry": { "type": "Point", "coordinates": [ 127.741000100000065, 26.193233 ] } },
{ "type": "Feature", "properties": { "内容": "特別養護老人ホームかふう【地域密着型介護老人福祉施設入所者生活介護】沖縄県国頭郡金武町金武10722番地", "url": "https://www.kaigokensaku.mhlw.go.jp/47/index.php?action_kouhyou_detail_004_kani=true&JigyosyoCd=4791800073-00&ServiceCd=540&Type=search", "url2": "https://tomoiki-kin.net/" }, "geometry": { "type": "Point", "coordinates": [ 127.938594981011036, 26.463313750286567 ] } },
{ "type": "Feature", "properties": { "内容": "指定地域密着型介護老人福祉施設　ちゅらゆんたんざ【地域密着型介護老人福祉施設入所者生活介護】沖縄県中頭郡読谷村字座喜味２４７２－３番地", "url": "https://www.kaigokensaku.mhlw.go.jp/47/index.php?action_kouhyou_detail_004_kani=true&JigyosyoCd=4792200042-00&ServiceCd=540&Type=search", "url2": "https://www.suijukai.com" }, "geometry": { "type": "Point", "coordinates": [ 127.757292799999959, 26.4046855 ] } },
{ "type": "Feature", "properties": { "内容": "地域密着型介護老人福祉施設　紅華の森【地域密着型介護老人福祉施設入所者生活介護】沖縄県中頭郡読谷村字座喜味１９１０－２地域密着型介護老人福祉施設　紅華の森", "url": "https://www.kaigokensaku.mhlw.go.jp/47/index.php?action_kouhyou_detail_004_kani=true&JigyosyoCd=4792200075-00&ServiceCd=540&Type=search", "url2": "http://yomisato.or.jp" }, "geometry": { "type": "Point", "coordinates": [ 127.727168149327099, 26.393386946589011 ] } },
{ "type": "Feature", "properties": { "内容": "グリーンハウ　与原【地域密着型介護老人福祉施設入所者生活介護】沖縄県与那原町与那原1152番地", "url": "https://www.kaigokensaku.mhlw.go.jp/47/index.php?action_kouhyou_detail_004_kani=true&JigyosyoCd=4793400047-00&ServiceCd=540&Type=search", "url2": null }, "geometry": { "type": "Point", "coordinates": [ 127.7529989, 26.2077867 ] } },
{ "type": "Feature", "properties": { "内容": "特別養護老人ホーム　球美の杜【地域密着型介護老人福祉施設入所者生活介護】沖縄県島尻郡久米島町字嘉手苅５３３番地１", "url": "https://www.kaigokensaku.mhlw.go.jp/47/index.php?action_kouhyou_detail_004_kani=true&JigyosyoCd=4795800020-00&ServiceCd=540&Type=search", "url2": "https://kukuru.info/" }, "geometry": { "type": "Point", "coordinates": [ 126.763376247221359, 26.341217284994105 ] } },
{ "type": "Feature", "properties": { "内容": "転生園指定地域密着型介護老人福祉施設（サテライト型事業所）【地域密着型介護老人福祉施設入所者生活介護】沖縄県島尻郡八重瀬町字仲座420番地1", "url": "https://www.kaigokensaku.mhlw.go.jp/47/index.php?action_kouhyou_detail_004_kani=true&JigyosyoCd=4795700048-00&ServiceCd=540&Type=search", "url2": "http://www.tenshoen.or.jp" }, "geometry": { "type": "Point", "coordinates": [ 127.72107946044764, 26.108572283874995 ] } }
]
}
