{
"type": "FeatureCollection",
"name": "geo_47_幼稚園",
"crs": { "type": "name", "properties": { "name": "urn:ogc:def:crs:EPSG::6668" } },
"features": [
{ "type": "Feature", "properties": { "P29_001": "47205", "P29_002": "A147220500010", "P29_003": "16011", "P29_004": "宜野湾市立大山幼稚園", "P29_005": "沖縄県宜野湾市大山5-16-1", "P29_006": "3", "P29_007": "0", "P29_008": "00", "P29_009": null }, "geometry": { "type": "Point", "coordinates": [ 127.746338994905074, 26.279689001657463 ] } },
{ "type": "Feature", "properties": { "P29_001": "47205", "P29_002": "A147220500029", "P29_003": "16011", "P29_004": "宜野湾市立嘉数幼稚園", "P29_005": "沖縄県宜野湾市真栄原1-13-1", "P29_006": "3", "P29_007": "0", "P29_008": "00", "P29_009": null }, "geometry": { "type": "Point", "coordinates": [ 127.745444998516462, 26.257143001954418 ] } },
{ "type": "Feature", "properties": { "P29_001": "47205", "P29_002": "A147220500038", "P29_003": "16011", "P29_004": "宜野湾市立普天間幼稚園", "P29_005": "沖縄県宜野湾市普天間1-10-1", "P29_006": "3", "P29_007": "0", "P29_008": "00", "P29_009": null }, "geometry": { "type": "Point", "coordinates": [ 127.780118001313298, 26.29062499932299 ] } },
{ "type": "Feature", "properties": { "P29_001": "47205", "P29_002": "A147220500047", "P29_003": "16011", "P29_004": "宜野湾市立宜野湾幼稚園", "P29_005": "沖縄県宜野湾市神山1-1-1", "P29_006": "3", "P29_007": "0", "P29_008": "00", "P29_009": null }, "geometry": { "type": "Point", "coordinates": [ 127.766603476490715, 26.268961369300595 ] } },
{ "type": "Feature", "properties": { "P29_001": "47205", "P29_002": "A147220500056", "P29_003": "16011", "P29_004": "宜野湾市立普天間第二幼稚園", "P29_005": "沖縄県宜野湾市新城2-8-19", "P29_006": "3", "P29_007": "0", "P29_008": "00", "P29_009": null }, "geometry": { "type": "Point", "coordinates": [ 127.770897000406706, 26.284665003529703 ] } },
{ "type": "Feature", "properties": { "P29_001": "47205", "P29_002": "A147220500065", "P29_003": "16011", "P29_004": "宜野湾市立大謝名幼稚園", "P29_005": "沖縄県宜野湾市大謝名5-12-1", "P29_006": "3", "P29_007": "0", "P29_008": "00", "P29_009": null }, "geometry": { "type": "Point", "coordinates": [ 127.732750997239719, 26.266916997712325 ] } },
{ "type": "Feature", "properties": { "P29_001": "47205", "P29_002": "A147220500074", "P29_003": "16011", "P29_004": "宜野湾市立志真志幼稚園", "P29_005": "沖縄県宜野湾市宜野湾3-5-1", "P29_006": "3", "P29_007": "0", "P29_008": "00", "P29_009": null }, "geometry": { "type": "Point", "coordinates": [ 127.755481462960716, 26.259934382189172 ] } },
{ "type": "Feature", "properties": { "P29_001": "47205", "P29_002": "A147220500083", "P29_003": "16011", "P29_004": "宜野湾市立長田幼稚園", "P29_005": "沖縄県宜野湾市長田3-19-1", "P29_006": "3", "P29_007": "0", "P29_008": "00", "P29_009": null }, "geometry": { "type": "Point", "coordinates": [ 127.767422004708536, 26.260509997949146 ] } },
{ "type": "Feature", "properties": { "P29_001": "47205", "P29_002": "A147220500092", "P29_003": "16011", "P29_004": "宜野湾市立はごろも幼稚園", "P29_005": "沖縄県宜野湾市大山6-23-1", "P29_006": "3", "P29_007": "0", "P29_008": "00", "P29_009": null }, "geometry": { "type": "Point", "coordinates": [ 127.739511996443383, 26.27754100344254 ] } },
{ "type": "Feature", "properties": { "P29_001": "47207", "P29_002": "A147220700018", "P29_003": "16011", "P29_004": "石垣市立みやまえ幼稚園", "P29_005": "沖縄県石垣市字新川282", "P29_006": "3", "P29_007": "0", "P29_008": "00", "P29_009": null }, "geometry": { "type": "Point", "coordinates": [ 124.154910996329988, 24.345925999560745 ] } },
{ "type": "Feature", "properties": { "P29_001": "47207", "P29_002": "A147220700036", "P29_003": "16011", "P29_004": "石垣市立いのだ幼稚園", "P29_005": "沖縄県石垣市桃里168-56", "P29_006": "3", "P29_007": "0", "P29_008": "00", "P29_009": null }, "geometry": { "type": "Point", "coordinates": [ 124.248211303999625, 24.454115762358541 ] } },
{ "type": "Feature", "properties": { "P29_001": "47207", "P29_002": "A147220700045", "P29_003": "16011", "P29_004": "石垣市立あまかわ幼稚園", "P29_005": "沖縄県石垣市字八島町2-3", "P29_006": "3", "P29_007": "0", "P29_008": "00", "P29_009": null }, "geometry": { "type": "Point", "coordinates": [ 124.167014197259036, 24.331235810243928 ] } },
{ "type": "Feature", "properties": { "P29_001": "47207", "P29_002": "A147220700054", "P29_003": "16011", "P29_004": "石垣市立みやなが幼稚園", "P29_005": "沖縄県石垣市宮良331-1", "P29_006": "3", "P29_007": "0", "P29_008": "00", "P29_009": null }, "geometry": { "type": "Point", "coordinates": [ 124.224010004171603, 24.35653900017012 ] } },
{ "type": "Feature", "properties": { "P29_001": "47207", "P29_002": "A147220700063", "P29_003": "16011", "P29_004": "石垣市立かわはら幼稚園", "P29_005": "沖縄県石垣市大浜2064", "P29_006": "3", "P29_007": "0", "P29_008": "00", "P29_009": null }, "geometry": { "type": "Point", "coordinates": [ 124.211556148287158, 24.388643767284748 ] } },
{ "type": "Feature", "properties": { "P29_001": "47207", "P29_002": "A147220700072", "P29_003": "16011", "P29_004": "石垣市立しらほ幼稚園", "P29_005": "沖縄県石垣市字白保73", "P29_006": "3", "P29_007": "0", "P29_008": "00", "P29_009": null }, "geometry": { "type": "Point", "coordinates": [ 124.239181002890874, 24.353428003783794 ] } },
{ "type": "Feature", "properties": { "P29_001": "47207", "P29_002": "A147220700081", "P29_003": "16011", "P29_004": "石垣市立ひらくぼ幼稚園", "P29_005": "沖縄県石垣市平久保77", "P29_006": "3", "P29_007": "0", "P29_008": "00", "P29_009": null }, "geometry": { "type": "Point", "coordinates": [ 124.310110232760422, 24.5864486497893 ] } },
{ "type": "Feature", "properties": { "P29_001": "47207", "P29_002": "A147220700090", "P29_003": "16011", "P29_004": "石垣市立なぐら幼稚園", "P29_005": "沖縄県石垣市名蔵243", "P29_006": "3", "P29_007": "0", "P29_008": "00", "P29_009": null }, "geometry": { "type": "Point", "coordinates": [ 124.160678798213922, 24.393619314184821 ] } },
{ "type": "Feature", "properties": { "P29_001": "47207", "P29_002": "A147220700107", "P29_003": "16011", "P29_004": "石垣市立のそこ幼稚園", "P29_005": "沖縄県石垣市字野底138", "P29_006": "3", "P29_007": "0", "P29_008": "00", "P29_009": null }, "geometry": { "type": "Point", "coordinates": [ 124.235299167058301, 24.497194267600022 ] } },
{ "type": "Feature", "properties": { "P29_001": "47207", "P29_002": "A147220700116", "P29_003": "16011", "P29_004": "石垣市立あかし幼稚園", "P29_005": "沖縄県石垣市伊原間249-17", "P29_006": "3", "P29_007": "0", "P29_008": "00", "P29_009": null }, "geometry": { "type": "Point", "coordinates": [ 124.301297768206325, 24.53682751252725 ] } },
{ "type": "Feature", "properties": { "P29_001": "47207", "P29_002": "A147220700125", "P29_003": "16011", "P29_004": "石垣市立おおかわ幼稚園", "P29_005": "沖縄県石垣市字大川100", "P29_006": "3", "P29_007": "0", "P29_008": "00", "P29_009": null }, "geometry": { "type": "Point", "coordinates": [ 124.162852994872736, 24.345122998482765 ] } },
{ "type": "Feature", "properties": { "P29_001": "47209", "P29_002": "A147220900016", "P29_003": "16011", "P29_004": "名護市立大宮幼稚園", "P29_005": "沖縄県名護市宮里5-13-22", "P29_006": "3", "P29_007": "0", "P29_008": "00", "P29_009": null }, "geometry": { "type": "Point", "coordinates": [ 127.973276785441968, 26.598023694171545 ] } },
{ "type": "Feature", "properties": { "P29_001": "47209", "P29_002": "A147220900025", "P29_003": "16011", "P29_004": "名護市立東江幼稚園", "P29_005": "沖縄県名護市東江1-7-21", "P29_006": "3", "P29_007": "0", "P29_008": "00", "P29_009": null }, "geometry": { "type": "Point", "coordinates": [ 127.987766999842208, 26.585228000596228 ] } },
{ "type": "Feature", "properties": { "P29_001": "47209", "P29_002": "A147220900034", "P29_003": "16011", "P29_004": "名護市立名護幼稚園", "P29_005": "沖縄県名護市大西2-2-22", "P29_006": "3", "P29_007": "0", "P29_008": "00", "P29_009": null }, "geometry": { "type": "Point", "coordinates": [ 127.981293004376468, 26.593992995908184 ] } },
{ "type": "Feature", "properties": { "P29_001": "47209", "P29_002": "A147220900043", "P29_003": "16011", "P29_004": "名護市立屋我地幼稚園", "P29_005": "沖縄県名護市字饒平名159", "P29_006": "3", "P29_007": "0", "P29_008": "00", "P29_009": null }, "geometry": { "type": "Point", "coordinates": [ 128.008552534448825, 26.654777475839982 ] } },
{ "type": "Feature", "properties": { "P29_001": "47209", "P29_002": "A147220900052", "P29_003": "16011", "P29_004": "名護市立安和幼稚園", "P29_005": "沖縄県名護市字安和174", "P29_006": "3", "P29_007": "0", "P29_008": "00", "P29_009": null }, "geometry": { "type": "Point", "coordinates": [ 127.931601376089503, 26.609940322323116 ] } },
{ "type": "Feature", "properties": { "P29_001": "47209", "P29_002": "A147220900070", "P29_003": "16011", "P29_004": "名護市立屋部幼稚園", "P29_005": "沖縄県名護市字屋部47", "P29_006": "3", "P29_007": "0", "P29_008": "00", "P29_009": null }, "geometry": { "type": "Point", "coordinates": [ 127.953398003311065, 26.601642999073047 ] } },
{ "type": "Feature", "properties": { "P29_001": "47209", "P29_002": "A147220900089", "P29_003": "16011", "P29_004": "名護市立久辺幼稚園", "P29_005": "沖縄県名護市字豊原208", "P29_006": "3", "P29_007": "0", "P29_008": "00", "P29_009": null }, "geometry": { "type": "Point", "coordinates": [ 128.024897066640705, 26.520784654224364 ] } },
{ "type": "Feature", "properties": { "P29_001": "47209", "P29_002": "A147220900098", "P29_003": "16011", "P29_004": "名護市立羽地幼稚園", "P29_005": "沖縄県名護市字田井等601-2", "P29_006": "3", "P29_007": "0", "P29_008": "00", "P29_009": null }, "geometry": { "type": "Point", "coordinates": [ 128.01128188883095, 26.618632595413811 ] } },
{ "type": "Feature", "properties": { "P29_001": "47209", "P29_002": "A147220900105", "P29_003": "16011", "P29_004": "名護市立稲田幼稚園", "P29_005": "沖縄県名護市字我部祖河440-1", "P29_006": "3", "P29_007": "0", "P29_008": "00", "P29_009": null }, "geometry": { "type": "Point", "coordinates": [ 128.002448002621264, 26.622765000480484 ] } },
{ "type": "Feature", "properties": { "P29_001": "47209", "P29_002": "A147220900114", "P29_003": "16011", "P29_004": "名護市立瀬喜田幼稚園", "P29_005": "沖縄県名護市字幸喜4", "P29_006": "3", "P29_007": "0", "P29_008": "00", "P29_009": null }, "geometry": { "type": "Point", "coordinates": [ 127.950985749693629, 26.539977129778986 ] } },
{ "type": "Feature", "properties": { "P29_001": "47209", "P29_002": "A147220900123", "P29_003": "16011", "P29_004": "名護市立真喜屋幼稚園", "P29_005": "沖縄県名護市字真喜屋571", "P29_006": "3", "P29_007": "0", "P29_008": "00", "P29_009": null }, "geometry": { "type": "Point", "coordinates": [ 128.038617067442743, 26.633054286172214 ] } },
{ "type": "Feature", "properties": { "P29_001": "47209", "P29_002": "A147220900132", "P29_003": "16011", "P29_004": "名護市立大北幼稚園", "P29_005": "沖縄県名護市大北4-19-32", "P29_006": "3", "P29_007": "0", "P29_008": "00", "P29_009": null }, "geometry": { "type": "Point", "coordinates": [ 127.992561998724071, 26.606159997847637 ] } },
{ "type": "Feature", "properties": { "P29_001": "47211", "P29_002": "A147221100012", "P29_003": "16011", "P29_004": "沖縄市立安慶田幼稚園", "P29_005": "沖縄県沖縄市安慶田2-18-2", "P29_006": "3", "P29_007": "0", "P29_008": "00", "P29_009": null }, "geometry": { "type": "Point", "coordinates": [ 127.813349720411694, 26.334224102424592 ] } },
{ "type": "Feature", "properties": { "P29_001": "47211", "P29_002": "A147221100021", "P29_003": "16011", "P29_004": "沖縄市立諸見幼稚園", "P29_005": "沖縄県沖縄市胡屋2-2-6", "P29_006": "3", "P29_007": "0", "P29_008": "00", "P29_009": null }, "geometry": { "type": "Point", "coordinates": [ 127.800125000132354, 26.334071000567953 ] } },
{ "type": "Feature", "properties": { "P29_001": "47211", "P29_002": "A147221100030", "P29_003": "16011", "P29_004": "沖縄市立島袋幼稚園", "P29_005": "沖縄県沖縄市久保田2-21-2", "P29_006": "3", "P29_007": "0", "P29_008": "00", "P29_009": null }, "geometry": { "type": "Point", "coordinates": [ 127.798130997717919, 26.323852003854263 ] } },
{ "type": "Feature", "properties": { "P29_001": "47211", "P29_002": "A147221100049", "P29_003": "16011", "P29_004": "沖縄市立高原幼稚園", "P29_005": "沖縄県沖縄市高原5-12-3", "P29_006": "3", "P29_007": "0", "P29_008": "00", "P29_009": null }, "geometry": { "type": "Point", "coordinates": [ 127.826261936219709, 26.32273221857788 ] } },
{ "type": "Feature", "properties": { "P29_001": "47211", "P29_002": "A147221100058", "P29_003": "16011", "P29_004": "沖縄市立コザ幼稚園", "P29_005": "沖縄県沖縄市中央4-16-2", "P29_006": "3", "P29_007": "0", "P29_008": "00", "P29_009": null }, "geometry": { "type": "Point", "coordinates": [ 127.800968222463126, 26.341650683023996 ] } },
{ "type": "Feature", "properties": { "P29_001": "47211", "P29_002": "A147221100067", "P29_003": "16011", "P29_004": "沖縄市立美里幼稚園", "P29_005": "沖縄県沖縄市美里4-1-2", "P29_006": "3", "P29_007": "0", "P29_008": "00", "P29_009": null }, "geometry": { "type": "Point", "coordinates": [ 127.812297606340806, 26.349131915321291 ] } },
{ "type": "Feature", "properties": { "P29_001": "47211", "P29_002": "A147221100076", "P29_003": "16011", "P29_004": "沖縄市立山内幼稚園", "P29_005": "沖縄県沖縄市山内2-32-1", "P29_006": "3", "P29_007": "0", "P29_008": "00", "P29_009": null }, "geometry": { "type": "Point", "coordinates": [ 127.784715002528813, 26.324224001489497 ] } },
{ "type": "Feature", "properties": { "P29_001": "47211", "P29_002": "A147221100085", "P29_003": "16011", "P29_004": "沖縄市立美東幼稚園", "P29_005": "沖縄県沖縄市桃原3-4-1", "P29_006": "3", "P29_007": "0", "P29_008": "00", "P29_009": null }, "geometry": { "type": "Point", "coordinates": [ 127.828609042558654, 26.334196424979858 ] } },
{ "type": "Feature", "properties": { "P29_001": "47211", "P29_002": "A147221100094", "P29_003": "16011", "P29_004": "沖縄市立中の町幼稚園", "P29_005": "沖縄県沖縄市上地3-4-2", "P29_006": "3", "P29_007": "0", "P29_008": "00", "P29_009": null }, "geometry": { "type": "Point", "coordinates": [ 127.793281001262258, 26.332523997165083 ] } },
{ "type": "Feature", "properties": { "P29_001": "47211", "P29_002": "A147221100101", "P29_003": "16011", "P29_004": "沖縄市立越来幼稚園", "P29_005": "沖縄県沖縄市越来1-2-3", "P29_006": "3", "P29_007": "0", "P29_008": "00", "P29_009": null }, "geometry": { "type": "Point", "coordinates": [ 127.81189599762719, 26.342790000512867 ] } },
{ "type": "Feature", "properties": { "P29_001": "47211", "P29_002": "A147221100110", "P29_003": "16011", "P29_004": "沖縄市立北美幼稚園", "P29_005": "沖縄県沖縄市登川1515", "P29_006": "3", "P29_007": "0", "P29_008": "00", "P29_009": null }, "geometry": { "type": "Point", "coordinates": [ 127.821092110530742, 26.377077347955289 ] } },
{ "type": "Feature", "properties": { "P29_001": "47211", "P29_002": "A147221100129", "P29_003": "16011", "P29_004": "沖縄市立宮里幼稚園", "P29_005": "沖縄県沖縄市宮里3-27-2", "P29_006": "3", "P29_007": "0", "P29_008": "00", "P29_009": null }, "geometry": { "type": "Point", "coordinates": [ 127.821493319615897, 26.338321817987755 ] } },
{ "type": "Feature", "properties": { "P29_001": "47211", "P29_002": "A147221100138", "P29_003": "16011", "P29_004": "沖縄市立室川幼稚園", "P29_005": "沖縄県沖縄市室川2-24-2", "P29_006": "3", "P29_007": "0", "P29_008": "00", "P29_009": null }, "geometry": { "type": "Point", "coordinates": [ 127.808506870926891, 26.335751338694497 ] } },
{ "type": "Feature", "properties": { "P29_001": "47211", "P29_002": "A147221100147", "P29_003": "16011", "P29_004": "沖縄市立泡瀬幼稚園", "P29_005": "沖縄県沖縄市泡瀬2-33-5", "P29_006": "3", "P29_007": "0", "P29_008": "00", "P29_009": null }, "geometry": { "type": "Point", "coordinates": [ 127.834195004073891, 26.317083997278413 ] } },
{ "type": "Feature", "properties": { "P29_001": "47211", "P29_002": "A147221100156", "P29_003": "16011", "P29_004": "沖縄市立美原幼稚園", "P29_005": "沖縄県沖縄市美原4-20-2", "P29_006": "3", "P29_007": "0", "P29_008": "00", "P29_009": null }, "geometry": { "type": "Point", "coordinates": [ 127.82057800378594, 26.34937999664842 ] } },
{ "type": "Feature", "properties": { "P29_001": "47211", "P29_002": "A147221100165", "P29_003": "16011", "P29_004": "沖縄市立比屋根幼稚園", "P29_005": "沖縄県沖縄市比屋根6-2-2", "P29_006": "3", "P29_007": "0", "P29_008": "00", "P29_009": null }, "geometry": { "type": "Point", "coordinates": [ 127.815343995345245, 26.313958995802199 ] } },
{ "type": "Feature", "properties": { "P29_001": "47213", "P29_002": "A147221300118", "P29_003": "16011", "P29_004": "うるま市立津堅幼稚園", "P29_005": "沖縄県うるま市勝連字津堅1327-2", "P29_006": "3", "P29_007": "0", "P29_008": "00", "P29_009": null }, "geometry": { "type": "Point", "coordinates": [ 127.936124063345872, 26.248231527766837 ] } },
{ "type": "Feature", "properties": { "P29_001": "47214", "P29_002": "A147221400019", "P29_003": "16011", "P29_004": "宮古島市立久松幼稚園", "P29_005": "沖縄県宮古島市平良字久貝933", "P29_006": "3", "P29_007": "0", "P29_008": "00", "P29_009": null }, "geometry": { "type": "Point", "coordinates": [ 125.27054735846319, 24.792253545380465 ] } },
{ "type": "Feature", "properties": { "P29_001": "47214", "P29_002": "A147221400028", "P29_003": "16011", "P29_004": "宮古島市立平一幼稚園", "P29_005": "沖縄県宮古島市平良字下里1141", "P29_006": "3", "P29_007": "0", "P29_008": "00", "P29_009": null }, "geometry": { "type": "Point", "coordinates": [ 125.284311672939367, 24.798417869939126 ] } },
{ "type": "Feature", "properties": { "P29_001": "47214", "P29_002": "A147221400037", "P29_003": "16011", "P29_004": "宮古島市立北幼稚園", "P29_005": "沖縄県宮古島市平良字西里217", "P29_006": "3", "P29_007": "0", "P29_008": "00", "P29_009": null }, "geometry": { "type": "Point", "coordinates": [ 125.282211590319832, 24.805333145238372 ] } },
{ "type": "Feature", "properties": { "P29_001": "47214", "P29_002": "A147221400046", "P29_003": "16011", "P29_004": "宮古島市立鏡原幼稚園", "P29_005": "沖縄県宮古島市平良字下里3107-2", "P29_006": "3", "P29_007": "0", "P29_008": "00", "P29_009": null }, "geometry": { "type": "Point", "coordinates": [ 125.310116024689805, 24.782105238424474 ] } },
{ "type": "Feature", "properties": { "P29_001": "47214", "P29_002": "A147221400055", "P29_003": "16011", "P29_004": "宮古島市立西城幼稚園", "P29_005": "沖縄県宮古島市城辺字西里添1048", "P29_006": "3", "P29_007": "0", "P29_008": "00", "P29_009": null }, "geometry": { "type": "Point", "coordinates": [ 125.364084996674862, 24.759739001378417 ] } },
{ "type": "Feature", "properties": { "P29_001": "47214", "P29_002": "A147221400064", "P29_003": "16011", "P29_004": "宮古島市立城辺幼稚園", "P29_005": "沖縄県宮古島市城辺字福里878", "P29_006": "3", "P29_007": "0", "P29_008": "00", "P29_009": null }, "geometry": { "type": "Point", "coordinates": [ 125.394073081659513, 24.752404930088851 ] } },
{ "type": "Feature", "properties": { "P29_001": "47214", "P29_002": "A147221400073", "P29_003": "16011", "P29_004": "宮古島市立池間幼稚園", "P29_005": "沖縄県宮古島市平良字池間887", "P29_006": "3", "P29_007": "0", "P29_008": "00", "P29_009": null }, "geometry": { "type": "Point", "coordinates": [ 125.24859378947454, 24.927197129925649 ] } },
{ "type": "Feature", "properties": { "P29_001": "47214", "P29_002": "A147221400082", "P29_003": "16011", "P29_004": "宮古島市立佐良浜幼稚園", "P29_005": "沖縄県宮古島市伊良部字前里添717", "P29_006": "3", "P29_007": "0", "P29_008": "00", "P29_009": null }, "geometry": { "type": "Point", "coordinates": [ 125.205823635606848, 24.839164194395558 ] } },
{ "type": "Feature", "properties": { "P29_001": "47214", "P29_002": "A147221400091", "P29_003": "16011", "P29_004": "宮古島市立砂川幼稚園", "P29_005": "沖縄県宮古島市城辺字砂川605", "P29_006": "3", "P29_007": "0", "P29_008": "00", "P29_009": null }, "geometry": { "type": "Point", "coordinates": [ 125.348405291095872, 24.744070892497856 ] } },
{ "type": "Feature", "properties": { "P29_001": "47214", "P29_002": "A147221400108", "P29_003": "16011", "P29_004": "宮古島市立福嶺幼稚園", "P29_005": "沖縄県宮古島市城辺字新城448", "P29_006": "3", "P29_007": "0", "P29_008": "00", "P29_009": null }, "geometry": { "type": "Point", "coordinates": [ 125.41109369524402, 24.743123148245861 ] } },
{ "type": "Feature", "properties": { "P29_001": "47214", "P29_002": "A147221400117", "P29_003": "16011", "P29_004": "宮古島市立狩俣幼稚園", "P29_005": "沖縄県宮古島市平良字狩俣1242", "P29_006": "3", "P29_007": "0", "P29_008": "00", "P29_009": null }, "geometry": { "type": "Point", "coordinates": [ 125.276207001068983, 24.894537997341434 ] } },
{ "type": "Feature", "properties": { "P29_001": "47214", "P29_002": "A147221400126", "P29_003": "16011", "P29_004": "宮古島市立西辺幼稚園", "P29_005": "沖縄県宮古島市平良字西原1081", "P29_006": "3", "P29_007": "0", "P29_008": "00", "P29_009": null }, "geometry": { "type": "Point", "coordinates": [ 125.297575416844793, 24.830465654026614 ] } },
{ "type": "Feature", "properties": { "P29_001": "47214", "P29_002": "A147221400135", "P29_003": "16011", "P29_004": "宮古島市立南幼稚園", "P29_005": "沖縄県宮古島市平良字下里1068", "P29_006": "3", "P29_007": "0", "P29_008": "00", "P29_009": null }, "geometry": { "type": "Point", "coordinates": [ 125.282099109845987, 24.794085016566239 ] } },
{ "type": "Feature", "properties": { "P29_001": "47214", "P29_002": "A147221400144", "P29_003": "16011", "P29_004": "宮古島市立東幼稚園", "P29_005": "沖縄県宮古島市平良字東仲宗根698", "P29_006": "3", "P29_007": "0", "P29_008": "00", "P29_009": null }, "geometry": { "type": "Point", "coordinates": [ 125.297106000262772, 24.806105997201115 ] } },
{ "type": "Feature", "properties": { "P29_001": "47215", "P29_002": "A147221500063", "P29_003": "16011", "P29_004": "南城市立久高幼稚園", "P29_005": "沖縄県南城市知念字久高46", "P29_006": "3", "P29_007": "0", "P29_008": "00", "P29_009": null }, "geometry": { "type": "Point", "coordinates": [ 127.887219884251522, 26.15656098320035 ] } },
{ "type": "Feature", "properties": { "P29_001": "47303", "P29_002": "A147230300011", "P29_003": "16011", "P29_004": "東村立有銘幼稚園", "P29_005": "沖縄県国頭郡東村字有銘1", "P29_006": "3", "P29_007": "0", "P29_008": "00", "P29_009": null }, "geometry": { "type": "Point", "coordinates": [ 128.121735850717585, 26.603571939748004 ] } },
{ "type": "Feature", "properties": { "P29_001": "47303", "P29_002": "A147230300020", "P29_003": "16011", "P29_004": "東村立東幼稚園", "P29_005": "沖縄県国頭郡東村字川田837", "P29_006": "3", "P29_007": "0", "P29_008": "00", "P29_009": null }, "geometry": { "type": "Point", "coordinates": [ 128.165816999552561, 26.629926001162577 ] } },
{ "type": "Feature", "properties": { "P29_001": "47308", "P29_002": "A147230800016", "P29_003": "16011", "P29_004": "本部町立本部幼稚園", "P29_005": "沖縄県国頭郡本部町字東654-1", "P29_006": "3", "P29_007": "0", "P29_008": "00", "P29_009": null }, "geometry": { "type": "Point", "coordinates": [ 127.901113605827945, 26.660816551625558 ] } },
{ "type": "Feature", "properties": { "P29_001": "47308", "P29_002": "A147230800025", "P29_003": "16011", "P29_004": "本部町立伊豆味幼稚園", "P29_005": "沖縄県国頭郡本部町字伊豆味13", "P29_006": "3", "P29_007": "0", "P29_008": "00", "P29_009": null }, "geometry": { "type": "Point", "coordinates": [ 127.946806367239589, 26.650204430718212 ] } },
{ "type": "Feature", "properties": { "P29_001": "47308", "P29_002": "A147230800034", "P29_003": "16011", "P29_004": "本部町立瀬底幼稚園", "P29_005": "沖縄県国頭郡本部町字瀬底693", "P29_006": "3", "P29_007": "0", "P29_008": "00", "P29_009": null }, "geometry": { "type": "Point", "coordinates": [ 127.863450856881798, 26.647728948080129 ] } },
{ "type": "Feature", "properties": { "P29_001": "47308", "P29_002": "A147230800043", "P29_003": "16011", "P29_004": "本部町立上本部幼稚園", "P29_005": "沖縄県国頭郡本部町字北里1289", "P29_006": "3", "P29_007": "0", "P29_008": "00", "P29_009": null }, "geometry": { "type": "Point", "coordinates": [ 127.899929999200097, 26.691680999892426 ] } },
{ "type": "Feature", "properties": { "P29_001": "47311", "P29_002": "A147231100011", "P29_003": "16011", "P29_004": "恩納村立安富祖幼稚園", "P29_005": "沖縄県国頭郡恩納村字安富祖1873", "P29_006": "3", "P29_007": "0", "P29_008": "00", "P29_009": null }, "geometry": { "type": "Point", "coordinates": [ 127.899626998355373, 26.512134000811461 ] } },
{ "type": "Feature", "properties": { "P29_001": "47311", "P29_002": "A147231100020", "P29_003": "16011", "P29_004": "恩納村立恩納幼稚園", "P29_005": "沖縄県国頭郡恩納村字恩納6069-1", "P29_006": "3", "P29_007": "0", "P29_008": "00", "P29_009": null }, "geometry": { "type": "Point", "coordinates": [ 127.844806736617315, 26.48880800011273 ] } },
{ "type": "Feature", "properties": { "P29_001": "47311", "P29_002": "A147231100039", "P29_003": "16011", "P29_004": "恩納村立仲泊幼稚園", "P29_005": "沖縄県国頭郡恩納村字仲泊433", "P29_006": "3", "P29_007": "0", "P29_008": "00", "P29_009": null }, "geometry": { "type": "Point", "coordinates": [ 127.803124997749876, 26.440186998513195 ] } },
{ "type": "Feature", "properties": { "P29_001": "47311", "P29_002": "A147231100048", "P29_003": "16011", "P29_004": "恩納村立山田幼稚園", "P29_005": "沖縄県国頭郡恩納村字山田997", "P29_006": "3", "P29_007": "0", "P29_008": "00", "P29_009": null }, "geometry": { "type": "Point", "coordinates": [ 127.777020576123519, 26.433903805646132 ] } },
{ "type": "Feature", "properties": { "P29_001": "47311", "P29_002": "A147231100057", "P29_003": "16011", "P29_004": "恩納村立喜瀬武原幼稚園", "P29_005": "沖縄県国頭郡恩納村字喜瀬武原458-16", "P29_006": "3", "P29_007": "0", "P29_008": "00", "P29_009": null }, "geometry": { "type": "Point", "coordinates": [ 127.910247003588978, 26.489703004288 ] } },
{ "type": "Feature", "properties": { "P29_001": "47313", "P29_002": "A147231300019", "P29_003": "16011", "P29_004": "宜野座村立宜野座幼稚園", "P29_005": "沖縄県国頭郡宜野座村字宜野座1190", "P29_006": "3", "P29_007": "0", "P29_008": "00", "P29_009": null }, "geometry": { "type": "Point", "coordinates": [ 127.97518755170276, 26.479892920395649 ] } },
{ "type": "Feature", "properties": { "P29_001": "47313", "P29_002": "A147231300028", "P29_003": "16011", "P29_004": "宜野座村立漢那幼稚園", "P29_005": "沖縄県国頭郡宜野座村字漢那1987-5", "P29_006": "3", "P29_007": "0", "P29_008": "00", "P29_009": null }, "geometry": { "type": "Point", "coordinates": [ 127.953394228170652, 26.477322708040411 ] } },
{ "type": "Feature", "properties": { "P29_001": "47313", "P29_002": "A147231300037", "P29_003": "16011", "P29_004": "宜野座村立松田幼稚園", "P29_005": "沖縄県国頭郡宜野座村字松田601", "P29_006": "3", "P29_007": "0", "P29_008": "00", "P29_009": null }, "geometry": { "type": "Point", "coordinates": [ 127.991687943383411, 26.488458302781432 ] } },
{ "type": "Feature", "properties": { "P29_001": "47314", "P29_002": "A147231400018", "P29_003": "16011", "P29_004": "金武町立中川幼稚園", "P29_005": "沖縄県国頭郡金武町字金武10154", "P29_006": "3", "P29_007": "0", "P29_008": "00", "P29_009": null }, "geometry": { "type": "Point", "coordinates": [ 127.937717999786585, 26.471361002172166 ] } },
{ "type": "Feature", "properties": { "P29_001": "47315", "P29_002": "A147231500017", "P29_003": "16011", "P29_004": "伊江村立西幼稚園", "P29_005": "沖縄県国頭郡伊江村字川平600", "P29_006": "3", "P29_007": "0", "P29_008": "00", "P29_009": null }, "geometry": { "type": "Point", "coordinates": [ 127.796995639347259, 26.712650890826072 ] } },
{ "type": "Feature", "properties": { "P29_001": "47315", "P29_002": "A147231500026", "P29_003": "16011", "P29_004": "伊江村立伊江幼稚園", "P29_005": "沖縄県国頭郡伊江村字東江前364", "P29_006": "3", "P29_007": "0", "P29_008": "00", "P29_009": null }, "geometry": { "type": "Point", "coordinates": [ 127.812276018976277, 26.715322633862655 ] } },
{ "type": "Feature", "properties": { "P29_001": "47324", "P29_002": "A147232400016", "P29_003": "16011", "P29_004": "読谷村立古堅幼稚園", "P29_005": "沖縄県中頭郡読谷村楚辺999-1", "P29_006": "3", "P29_007": "0", "P29_008": "00", "P29_009": null }, "geometry": { "type": "Point", "coordinates": [ 127.742458998573582, 26.380393001922855 ] } },
{ "type": "Feature", "properties": { "P29_001": "47324", "P29_002": "A147232400025", "P29_003": "16011", "P29_004": "読谷村立渡慶次幼稚園", "P29_005": "沖縄県中頭郡読谷村渡慶次32", "P29_006": "3", "P29_007": "0", "P29_008": "00", "P29_009": null }, "geometry": { "type": "Point", "coordinates": [ 127.727803001643593, 26.418227995275533 ] } },
{ "type": "Feature", "properties": { "P29_001": "47324", "P29_002": "A147232400034", "P29_003": "16011", "P29_004": "読谷村立喜名幼稚園", "P29_005": "沖縄県中頭郡読谷村読谷村喜名401", "P29_006": "3", "P29_007": "0", "P29_008": "00", "P29_009": null }, "geometry": { "type": "Point", "coordinates": [ 127.757427886988594, 26.400642652386527 ] } },
{ "type": "Feature", "properties": { "P29_001": "47324", "P29_002": "A147232400043", "P29_003": "16011", "P29_004": "読谷村立読谷幼稚園", "P29_005": "沖縄県中頭郡読谷村字高志保1277-1", "P29_006": "3", "P29_007": "0", "P29_008": "00", "P29_009": null }, "geometry": { "type": "Point", "coordinates": [ 127.731841810283939, 26.406762352799266 ] } },
{ "type": "Feature", "properties": { "P29_001": "47324", "P29_002": "A147232400052", "P29_003": "16011", "P29_004": "読谷村立古堅南幼稚園", "P29_005": "沖縄県中頭郡読谷村古堅612-1", "P29_006": "3", "P29_007": "0", "P29_008": "00", "P29_009": null }, "geometry": { "type": "Point", "coordinates": [ 127.748150074624036, 26.370410795284073 ] } },
{ "type": "Feature", "properties": { "P29_001": "47325", "P29_002": "A147232500015", "P29_003": "16011", "P29_004": "嘉手納町立屋良幼稚園", "P29_005": "沖縄県中頭郡嘉手納町屋良1-31-1", "P29_006": "3", "P29_007": "0", "P29_008": "00", "P29_009": null }, "geometry": { "type": "Point", "coordinates": [ 127.764503782698611, 26.365598707951058 ] } },
{ "type": "Feature", "properties": { "P29_001": "47325", "P29_002": "A147232500024", "P29_003": "16011", "P29_004": "嘉手納町立嘉手納幼稚園", "P29_005": "沖縄県中頭郡嘉手納町字嘉手納312", "P29_006": "3", "P29_007": "0", "P29_008": "00", "P29_009": null }, "geometry": { "type": "Point", "coordinates": [ 127.751578801888371, 26.36435926666714 ] } },
{ "type": "Feature", "properties": { "P29_001": "47326", "P29_002": "A147232600014", "P29_003": "16011", "P29_004": "北谷町立北玉幼稚園", "P29_005": "沖縄県中頭郡北谷町字吉原875", "P29_006": "3", "P29_007": "0", "P29_008": "00", "P29_009": null }, "geometry": { "type": "Point", "coordinates": [ 127.772953062319218, 26.313987944104916 ] } },
{ "type": "Feature", "properties": { "P29_001": "47211", "P29_002": "A147232600023", "P29_003": "16011", "P29_004": "北谷町立北谷幼稚園", "P29_005": "沖縄県沖縄市南桃原4-13-2", "P29_006": "3", "P29_007": "0", "P29_008": "00", "P29_009": null }, "geometry": { "type": "Point", "coordinates": [ 127.779326996573886, 26.324976998941555 ] } },
{ "type": "Feature", "properties": { "P29_001": "47326", "P29_002": "A147232600032", "P29_003": "16011", "P29_004": "北谷町立浜川幼稚園", "P29_005": "沖縄県中頭郡北谷町字宮城1-172", "P29_006": "3", "P29_007": "0", "P29_008": "00", "P29_009": null }, "geometry": { "type": "Point", "coordinates": [ 127.747946933513589, 26.326645169215642 ] } },
{ "type": "Feature", "properties": { "P29_001": "47326", "P29_002": "A147232600041", "P29_003": "16011", "P29_004": "北谷町立北谷第二幼稚園", "P29_005": "沖縄県中頭郡北谷町字桑江567-1", "P29_006": "3", "P29_007": "0", "P29_008": "00", "P29_009": null }, "geometry": { "type": "Point", "coordinates": [ 127.772664837590952, 26.32416963335454 ] } },
{ "type": "Feature", "properties": { "P29_001": "47327", "P29_002": "A147232700013", "P29_003": "16011", "P29_004": "北中城村立北中城幼稚園", "P29_005": "沖縄県中頭郡北中城村喜舎場255-1", "P29_006": "3", "P29_007": "0", "P29_008": "00", "P29_009": null }, "geometry": { "type": "Point", "coordinates": [ 127.796229003999528, 26.302041001643687 ] } },
{ "type": "Feature", "properties": { "P29_001": "47329", "P29_002": "A147232900011", "P29_003": "16011", "P29_004": "西原町立西原幼稚園", "P29_005": "沖縄県中頭郡西原町字与那城353", "P29_006": "3", "P29_007": "0", "P29_008": "00", "P29_009": null }, "geometry": { "type": "Point", "coordinates": [ 127.760910996565343, 26.217405000355598 ] } },
{ "type": "Feature", "properties": { "P29_001": "47329", "P29_002": "A147232900039", "P29_003": "16011", "P29_004": "西原町立西原東幼稚園", "P29_005": "沖縄県中頭郡西原町字小橋川125", "P29_006": "3", "P29_007": "0", "P29_008": "00", "P29_009": null }, "geometry": { "type": "Point", "coordinates": [ 127.765287200314475, 26.228118831784965 ] } },
{ "type": "Feature", "properties": { "P29_001": "47329", "P29_002": "A147232900048", "P29_003": "16011", "P29_004": "西原町立西原南幼稚園", "P29_005": "沖縄県中頭郡西原町字安室122-1", "P29_006": "3", "P29_007": "0", "P29_008": "00", "P29_009": null }, "geometry": { "type": "Point", "coordinates": [ 127.753859643508832, 26.21967380325399 ] } },
{ "type": "Feature", "properties": { "P29_001": "47348", "P29_002": "A147234800018", "P29_003": "16011", "P29_004": "与那原町立与那原幼稚園", "P29_005": "沖縄県島尻郡与那原町字与那原720", "P29_006": "3", "P29_007": "0", "P29_008": "00", "P29_009": null }, "geometry": { "type": "Point", "coordinates": [ 127.754031000700977, 26.204003996386898 ] } },
{ "type": "Feature", "properties": { "P29_001": "47348", "P29_002": "A147234800027", "P29_003": "16011", "P29_004": "与那原町立与那原東幼稚園", "P29_005": "沖縄県島尻郡与那原町字板良敷45", "P29_006": "3", "P29_007": "0", "P29_008": "00", "P29_009": null }, "geometry": { "type": "Point", "coordinates": [ 127.768847002031052, 26.199674000066892 ] } },
{ "type": "Feature", "properties": { "P29_001": "47350", "P29_002": "A147235000013", "P29_003": "16011", "P29_004": "南風原町立南風原幼稚園", "P29_005": "沖縄県島尻郡南風原町字兼城684", "P29_006": "3", "P29_007": "0", "P29_008": "00", "P29_009": null }, "geometry": { "type": "Point", "coordinates": [ 127.728896014106624, 26.192511215202845 ] } },
{ "type": "Feature", "properties": { "P29_001": "47350", "P29_002": "A147235000022", "P29_003": "16011", "P29_004": "南風原町立津嘉山幼稚園", "P29_005": "沖縄県島尻郡南風原町字津嘉山684", "P29_006": "3", "P29_007": "0", "P29_008": "00", "P29_009": null }, "geometry": { "type": "Point", "coordinates": [ 127.71654400137092, 26.184538999675052 ] } },
{ "type": "Feature", "properties": { "P29_001": "47350", "P29_002": "A147235000031", "P29_003": "16011", "P29_004": "南風原町立北丘幼稚園", "P29_005": "沖縄県島尻郡南風原町字宮平336", "P29_006": "3", "P29_007": "0", "P29_008": "00", "P29_009": null }, "geometry": { "type": "Point", "coordinates": [ 127.733759844670331, 26.200567335066165 ] } },
{ "type": "Feature", "properties": { "P29_001": "47350", "P29_002": "A147235000040", "P29_003": "16011", "P29_004": "南風原町立翔南幼稚園", "P29_005": "沖縄県島尻郡南風原町喜屋武381", "P29_006": "3", "P29_007": "0", "P29_008": "00", "P29_009": null }, "geometry": { "type": "Point", "coordinates": [ 127.729888475063248, 26.184424100913219 ] } },
{ "type": "Feature", "properties": { "P29_001": "47353", "P29_002": "A147235300010", "P29_003": "16011", "P29_004": "渡嘉敷村立渡嘉敷幼稚園", "P29_005": "沖縄県島尻郡渡嘉敷村字渡嘉敷355", "P29_006": "3", "P29_007": "0", "P29_008": "00", "P29_009": null }, "geometry": { "type": "Point", "coordinates": [ 127.366038003609887, 26.198859997531152 ] } },
{ "type": "Feature", "properties": { "P29_001": "47354", "P29_002": "A147235400019", "P29_003": "16011", "P29_004": "座間味村立座間味幼稚園", "P29_005": "沖縄県島尻郡座間味村座間味943", "P29_006": "3", "P29_007": "0", "P29_008": "00", "P29_009": null }, "geometry": { "type": "Point", "coordinates": [ 127.304431000813878, 26.229648999947074 ] } },
{ "type": "Feature", "properties": { "P29_001": "47354", "P29_002": "A147235400028", "P29_003": "16011", "P29_004": "座間味村立阿嘉幼稚園", "P29_005": "沖縄県島尻郡座間味村阿嘉316", "P29_006": "3", "P29_007": "0", "P29_008": "00", "P29_009": null }, "geometry": { "type": "Point", "coordinates": [ 127.282322634094243, 26.192049901436434 ] } },
{ "type": "Feature", "properties": { "P29_001": "47354", "P29_002": "A147235400037", "P29_003": "16011", "P29_004": "座間味村立慶留間幼稚園", "P29_005": "沖縄県島尻郡座間味村字慶留間82", "P29_006": "3", "P29_007": "0", "P29_008": "00", "P29_009": null }, "geometry": { "type": "Point", "coordinates": [ 127.292387478944647, 26.17681822795026 ] } },
{ "type": "Feature", "properties": { "P29_001": "47355", "P29_002": "A147235500018", "P29_003": "16011", "P29_004": "粟国村立粟国幼稚園", "P29_005": "沖縄県島尻郡粟国村字東447", "P29_006": "3", "P29_007": "0", "P29_008": "00", "P29_009": null }, "geometry": { "type": "Point", "coordinates": [ 127.2293707193556, 26.582018825591884 ] } },
{ "type": "Feature", "properties": { "P29_001": "47356", "P29_002": "A147235600017", "P29_003": "16011", "P29_004": "渡名喜村立渡名喜幼稚園", "P29_005": "沖縄県島尻郡渡名喜村639", "P29_006": "3", "P29_007": "0", "P29_008": "00", "P29_009": null }, "geometry": { "type": "Point", "coordinates": [ 127.143455924653239, 26.372858532214252 ] } },
{ "type": "Feature", "properties": { "P29_001": "47357", "P29_002": "A147235700016", "P29_003": "16011", "P29_004": "南大東村立南大東幼稚園", "P29_005": "沖縄県島尻郡南大東村字池之沢317", "P29_006": "3", "P29_007": "0", "P29_008": "00", "P29_009": null }, "geometry": { "type": "Point", "coordinates": [ 131.228217909207586, 25.836366465926631 ] } },
{ "type": "Feature", "properties": { "P29_001": "47358", "P29_002": "A147235800015", "P29_003": "16011", "P29_004": "北大東村立北大東島こども園", "P29_005": "沖縄県島尻郡北大東村字中野180", "P29_006": "3", "P29_007": "0", "P29_008": "00", "P29_009": null }, "geometry": { "type": "Point", "coordinates": [ 131.296694077962059, 25.946264900411393 ] } },
{ "type": "Feature", "properties": { "P29_001": "47359", "P29_002": "A147235900014", "P29_003": "16011", "P29_004": "伊平屋村立伊平屋幼稚園", "P29_005": "沖縄県島尻郡伊平屋村字我喜屋2132-2", "P29_006": "3", "P29_007": "0", "P29_008": "00", "P29_009": null }, "geometry": { "type": "Point", "coordinates": [ 127.962639002506947, 27.03409699596217 ] } },
{ "type": "Feature", "properties": { "P29_001": "47360", "P29_002": "A147236000011", "P29_003": "16011", "P29_004": "伊是名村立伊是名幼稚園", "P29_005": "沖縄県島尻郡伊是名村字仲田1162-2", "P29_006": "3", "P29_007": "0", "P29_008": "00", "P29_009": null }, "geometry": { "type": "Point", "coordinates": [ 127.942034003502386, 26.930335003888427 ] } },
{ "type": "Feature", "properties": { "P29_001": "47361", "P29_002": "A147236100010", "P29_003": "16011", "P29_004": "久米島町立清水幼稚園", "P29_005": "沖縄県島尻郡久米島町字鳥島198", "P29_006": "3", "P29_007": "0", "P29_008": "00", "P29_009": null }, "geometry": { "type": "Point", "coordinates": [ 126.739920002335182, 26.34854199679447 ] } },
{ "type": "Feature", "properties": { "P29_001": "47361", "P29_002": "A147236100029", "P29_003": "16011", "P29_004": "久米島町立仲里幼稚園", "P29_005": "沖縄県島尻郡久米島町字謝名堂970", "P29_006": "3", "P29_007": "0", "P29_008": "00", "P29_009": null }, "geometry": { "type": "Point", "coordinates": [ 126.80739899604697, 26.3398849975902 ] } },
{ "type": "Feature", "properties": { "P29_001": "47375", "P29_002": "A147237500014", "P29_003": "16011", "P29_004": "多良間村立多良間幼稚園", "P29_005": "沖縄県宮古郡多良間村字仲筋108", "P29_006": "3", "P29_007": "0", "P29_008": "00", "P29_009": null }, "geometry": { "type": "Point", "coordinates": [ 124.700826566795897, 24.66856749244285 ] } },
{ "type": "Feature", "properties": { "P29_001": "47381", "P29_002": "A147238100016", "P29_003": "16011", "P29_004": "竹富町立うえはら幼稚園", "P29_005": "沖縄県八重山郡竹富町字上原382", "P29_006": "3", "P29_007": "0", "P29_008": "00", "P29_009": null }, "geometry": { "type": "Point", "coordinates": [ 123.791297516193893, 24.426627865182418 ] } },
{ "type": "Feature", "properties": { "P29_001": "47381", "P29_002": "A147238100025", "P29_003": "16011", "P29_004": "竹富町立おおはら幼稚園", "P29_005": "沖縄県八重山郡竹富町字南風見191-50", "P29_006": "3", "P29_007": "0", "P29_008": "00", "P29_009": null }, "geometry": { "type": "Point", "coordinates": [ 123.878189999457419, 24.27163399997421 ] } },
{ "type": "Feature", "properties": { "P29_001": "47381", "P29_002": "A147238100034", "P29_003": "16011", "P29_004": "竹富町立はてるま幼稚園", "P29_005": "沖縄県八重山郡竹富町波照間8", "P29_006": "3", "P29_007": "0", "P29_008": "00", "P29_009": null }, "geometry": { "type": "Point", "coordinates": [ 123.777799004304782, 24.062383000948948 ] } },
{ "type": "Feature", "properties": { "P29_001": "47382", "P29_002": "A147238200015", "P29_003": "16011", "P29_004": "与那国町立よなぐに幼稚園", "P29_005": "沖縄県八重山郡与那国町与那国1025", "P29_006": "3", "P29_007": "0", "P29_008": "00", "P29_009": null }, "geometry": { "type": "Point", "coordinates": [ 123.008837996545296, 24.46749099652396 ] } },
{ "type": "Feature", "properties": { "P29_001": "47382", "P29_002": "A147238200024", "P29_003": "16011", "P29_004": "与那国町立くぶら幼稚園", "P29_005": "沖縄県八重山郡与那国町与那国4022", "P29_006": "3", "P29_007": "0", "P29_008": "00", "P29_009": null }, "geometry": { "type": "Point", "coordinates": [ 122.944722188341288, 24.453729890843977 ] } },
{ "type": "Feature", "properties": { "P29_001": "47382", "P29_002": "A147238200033", "P29_003": "16011", "P29_004": "与那国町立ひがわ幼稚園", "P29_005": "沖縄県八重山郡与那国町与那国3031", "P29_006": "3", "P29_007": "0", "P29_008": "00", "P29_009": null }, "geometry": { "type": "Point", "coordinates": [ 122.981267996665323, 24.44266000162208 ] } },
{ "type": "Feature", "properties": { "P29_001": "47201", "P29_002": "A147320100012", "P29_003": "16011", "P29_004": "光の子幼稚園", "P29_005": "沖縄県那覇市首里山川町1-17", "P29_006": "4", "P29_007": "0", "P29_008": "00", "P29_009": null }, "geometry": { "type": "Point", "coordinates": [ 127.71404199880088, 26.221470999332251 ] } },
{ "type": "Feature", "properties": { "P29_001": "47201", "P29_002": "A147320100021", "P29_003": "16011", "P29_004": "愛児幼稚園", "P29_005": "沖縄県那覇市樋川1-13-10", "P29_006": "4", "P29_007": "0", "P29_008": "00", "P29_009": null }, "geometry": { "type": "Point", "coordinates": [ 127.687002996721645, 26.209363000795385 ] } },
{ "type": "Feature", "properties": { "P29_001": "47201", "P29_002": "A147320100030", "P29_003": "16011", "P29_004": "首里カトリック幼稚園", "P29_005": "沖縄県那覇市首里崎山町4-60", "P29_006": "4", "P29_007": "0", "P29_008": "00", "P29_009": null }, "geometry": { "type": "Point", "coordinates": [ 127.721433001304646, 26.212475998057812 ] } },
{ "type": "Feature", "properties": { "P29_001": "47201", "P29_002": "A147320100049", "P29_003": "16011", "P29_004": "ナザレ幼稚園", "P29_005": "沖縄県那覇市三原2-11-33", "P29_006": "4", "P29_007": "0", "P29_008": "00", "P29_009": null }, "geometry": { "type": "Point", "coordinates": [ 127.70066300006313, 26.212731998093915 ] } },
{ "type": "Feature", "properties": { "P29_001": "47201", "P29_002": "A147320100058", "P29_003": "16011", "P29_004": "育英義塾幼稚園", "P29_005": "沖縄県那覇市宮城1-7-41", "P29_006": "4", "P29_007": "0", "P29_008": "00", "P29_009": null }, "geometry": { "type": "Point", "coordinates": [ 127.657622999718825, 26.185934001845069 ] } },
{ "type": "Feature", "properties": { "P29_001": "47201", "P29_002": "A147320100067", "P29_003": "16011", "P29_004": "相愛幼稚園", "P29_005": "沖縄県那覇市長田1-11-9", "P29_006": "4", "P29_007": "0", "P29_008": "00", "P29_009": null }, "geometry": { "type": "Point", "coordinates": [ 127.700838000767433, 26.204966996568889 ] } },
{ "type": "Feature", "properties": { "P29_001": "47205", "P29_002": "A147320500018", "P29_003": "16011", "P29_004": "慈愛幼稚園", "P29_005": "沖縄県宜野湾市字宇地泊229", "P29_006": "4", "P29_007": "0", "P29_008": "00", "P29_009": null }, "geometry": { "type": "Point", "coordinates": [ 127.730747002818376, 26.269885995485733 ] } },
{ "type": "Feature", "properties": { "P29_001": "47205", "P29_002": "A147320500027", "P29_003": "16011", "P29_004": "真栄原カトリック幼稚園", "P29_005": "沖縄県宜野湾市真栄原3-16-1", "P29_006": "4", "P29_007": "0", "P29_008": "00", "P29_009": null }, "geometry": { "type": "Point", "coordinates": [ 127.744755996071021, 26.26264500448449 ] } },
{ "type": "Feature", "properties": { "P29_001": "47205", "P29_002": "A147320500036", "P29_003": "16011", "P29_004": "シオン幼稚園", "P29_005": "沖縄県宜野湾市喜友名1-12-20", "P29_006": "4", "P29_007": "0", "P29_008": "00", "P29_009": null }, "geometry": { "type": "Point", "coordinates": [ 127.76438800410665, 26.286266000041749 ] } },
{ "type": "Feature", "properties": { "P29_001": "47207", "P29_002": "A147320700016", "P29_003": "16011", "P29_004": "学校法人カトリック学園海星幼稚園", "P29_005": "沖縄県石垣市字大川68", "P29_006": "4", "P29_007": "0", "P29_008": "00", "P29_009": null }, "geometry": { "type": "Point", "coordinates": [ 124.163080000843891, 24.343695997187499 ] } },
{ "type": "Feature", "properties": { "P29_001": "47208", "P29_002": "A147320800024", "P29_003": "16011", "P29_004": "牧港ひまわり幼稚園", "P29_005": "沖縄県浦添市牧港2-33-1", "P29_006": "4", "P29_007": "0", "P29_008": "00", "P29_009": null }, "geometry": { "type": "Point", "coordinates": [ 127.726094219464088, 26.263593527015512 ] } },
{ "type": "Feature", "properties": { "P29_001": "47209", "P29_002": "A147320900014", "P29_003": "16011", "P29_004": "学校法人カトリック学園うみのほし幼稚園", "P29_005": "沖縄県名護市大中2-3-30", "P29_006": "4", "P29_007": "0", "P29_008": "00", "P29_009": null }, "geometry": { "type": "Point", "coordinates": [ 127.983128004925589, 26.593682001270949 ] } },
{ "type": "Feature", "properties": { "P29_001": "47209", "P29_002": "A147320900023", "P29_003": "16011", "P29_004": "名護栄光幼稚園", "P29_005": "沖縄県名護市為又506-10", "P29_006": "4", "P29_007": "0", "P29_008": "00", "P29_009": null }, "geometry": { "type": "Point", "coordinates": [ 127.974845999227597, 26.612327995745961 ] } },
{ "type": "Feature", "properties": { "P29_001": "47210", "P29_002": "A147321000011", "P29_003": "16011", "P29_004": "ゴスペル幼稚園", "P29_005": "沖縄県糸満市字糸満1693-2", "P29_006": "4", "P29_007": "0", "P29_008": "00", "P29_009": null }, "geometry": { "type": "Point", "coordinates": [ 127.674890998486134, 26.129361996477943 ] } },
{ "type": "Feature", "properties": { "P29_001": "47210", "P29_002": "A147321000020", "P29_003": "16011", "P29_004": "津山幼稚園", "P29_005": "沖縄県糸満市字阿波根746", "P29_006": "4", "P29_007": "0", "P29_008": "00", "P29_009": null }, "geometry": { "type": "Point", "coordinates": [ 127.688153998234924, 26.149321998882797 ] } },
{ "type": "Feature", "properties": { "P29_001": "47211", "P29_002": "A147321100010", "P29_003": "16011", "P29_004": "聖母幼稚園", "P29_005": "沖縄県沖縄市桃原1-5-1", "P29_006": "4", "P29_007": "0", "P29_008": "00", "P29_009": null }, "geometry": { "type": "Point", "coordinates": [ 127.825903003403525, 26.33163300064875 ] } },
{ "type": "Feature", "properties": { "P29_001": "47211", "P29_002": "A147321100029", "P29_003": "16011", "P29_004": "コザ聖母幼稚園", "P29_005": "沖縄県沖縄市嘉間良1-4-1", "P29_006": "4", "P29_007": "0", "P29_008": "00", "P29_009": null }, "geometry": { "type": "Point", "coordinates": [ 127.804463001779084, 26.340528002992613 ] } },
{ "type": "Feature", "properties": { "P29_001": "47211", "P29_002": "A147321100038", "P29_003": "16011", "P29_004": "愛星幼稚園", "P29_005": "沖縄県沖縄市胡屋6-2-1", "P29_006": "4", "P29_007": "0", "P29_008": "00", "P29_009": null }, "geometry": { "type": "Point", "coordinates": [ 127.808446997427566, 26.327843996301649 ] } },
{ "type": "Feature", "properties": { "P29_001": "47212", "P29_002": "A147321200019", "P29_003": "16011", "P29_004": "聖マタイ幼稚園", "P29_005": "沖縄県豊見城市字豊見城977-1", "P29_006": "4", "P29_007": "0", "P29_008": "00", "P29_009": null }, "geometry": { "type": "Point", "coordinates": [ 127.682604930068067, 26.192671833935258 ] } },
{ "type": "Feature", "properties": { "P29_001": "47213", "P29_002": "A147321300018", "P29_003": "16011", "P29_004": "学校法人カトリック学園ヨゼフ幼稚園", "P29_005": "沖縄県うるま市石川2539", "P29_006": "4", "P29_007": "0", "P29_008": "00", "P29_009": null }, "geometry": { "type": "Point", "coordinates": [ 127.822330056950747, 26.420311192315975 ] } },
{ "type": "Feature", "properties": { "P29_001": "47213", "P29_002": "A147321300027", "P29_003": "16011", "P29_004": "具志川花園幼稚園", "P29_005": "沖縄県うるま市字昆布93-1", "P29_006": "4", "P29_007": "0", "P29_008": "00", "P29_009": null }, "geometry": { "type": "Point", "coordinates": [ 127.846241997235254, 26.386572001037734 ] } },
{ "type": "Feature", "properties": { "P29_001": "47213", "P29_002": "A147321300036", "P29_003": "16011", "P29_004": "沖縄アミークスインターナショナル幼稚園", "P29_005": "沖縄県うるま市栄野比1212-1", "P29_006": "4", "P29_007": "0", "P29_008": "00", "P29_009": null }, "geometry": { "type": "Point", "coordinates": [ 127.826677469398561, 26.398090078278582 ] } },
{ "type": "Feature", "properties": { "P29_001": "47214", "P29_002": "A147321400017", "P29_003": "16011", "P29_004": "学校法人カトリック学園みつば幼稚園", "P29_005": "沖縄県宮古島市平良字下里156-1", "P29_006": "4", "P29_007": "0", "P29_008": "00", "P29_009": null }, "geometry": { "type": "Point", "coordinates": [ 125.277840504795648, 24.802763706512312 ] } },
{ "type": "Feature", "properties": { "P29_001": "47324", "P29_002": "A147332400014", "P29_003": "16011", "P29_004": "読谷中央幼稚園", "P29_005": "沖縄県中頭郡読谷村字比謝272", "P29_006": "4", "P29_007": "0", "P29_008": "00", "P29_009": null }, "geometry": { "type": "Point", "coordinates": [ 127.750496995787898, 26.378524002651282 ] } },
{ "type": "Feature", "properties": { "P29_001": "47324", "P29_002": "A147332400023", "P29_003": "16011", "P29_004": "読谷こばと幼稚園", "P29_005": "沖縄県中頭郡読谷村字長浜1677", "P29_006": "4", "P29_007": "0", "P29_008": "00", "P29_009": null }, "geometry": { "type": "Point", "coordinates": [ 127.733274511668867, 26.414927192326036 ] } },
{ "type": "Feature", "properties": { "P29_001": "47325", "P29_002": "A147332500013", "P29_003": "16011", "P29_004": "栄光幼稚園", "P29_005": "沖縄県中頭郡嘉手納町屋良964-1", "P29_006": "4", "P29_007": "0", "P29_008": "00", "P29_009": null }, "geometry": { "type": "Point", "coordinates": [ 127.766133254459916, 26.365608121401241 ] } },
{ "type": "Feature", "properties": { "P29_001": "47328", "P29_002": "A147332800010", "P29_003": "16011", "P29_004": "平安幼稚園", "P29_005": "沖縄県中頭郡中城村登又346", "P29_006": "4", "P29_007": "0", "P29_008": "00", "P29_009": null }, "geometry": { "type": "Point", "coordinates": [ 127.786378004341429, 26.284141999796201 ] } },
{ "type": "Feature", "properties": { "P29_001": "47329", "P29_002": "A147332900019", "P29_003": "16011", "P29_004": "学校法人善隣学園善隣幼稚園", "P29_005": "沖縄県中頭郡西原町字幸地1027-1", "P29_006": "4", "P29_007": "0", "P29_008": "00", "P29_009": null }, "geometry": { "type": "Point", "coordinates": [ 127.737356547841429, 26.226618824440596 ] } },
{ "type": "Feature", "properties": { "P29_001": "47348", "P29_002": "A147334800016", "P29_003": "16011", "P29_004": "クララ幼稚園", "P29_005": "沖縄県島尻郡与那原町字与那原3090-5", "P29_006": "4", "P29_007": "0", "P29_008": "00", "P29_009": null }, "geometry": { "type": "Point", "coordinates": [ 127.754169999655701, 26.200639003823394 ] } },
{ "type": "Feature", "properties": { "P29_001": "47350", "P29_002": "A147335000011", "P29_003": "16011", "P29_004": "開邦幼稚園", "P29_005": "沖縄県島尻郡南風原町宮城428-1", "P29_006": "4", "P29_007": "0", "P29_008": "00", "P29_009": null }, "geometry": { "type": "Point", "coordinates": [ 127.739290001230913, 26.207699996863596 ] } }
]
}
